{
"type": "FeatureCollection",
"name": "police",
"crs": { "type": "name", "properties": { "name": "urn:ogc:def:crs:OGC:1.3:CRS84" } },
"features": [
{ "type": "Feature", "properties": { "element": "node", "id": 347152618, "amenity": "police", "name": "Khar Police Station", "postal_code": null, "wpt_symbol": null, "description": null, "ele": null, "sym": null, "name:en": null, "check_date": null, "addr:city": null, "addr:postcode": null, "addr:street": null, "addr:housenumber": null, "operator": null, "phone": null, "operator:wikidata": null, "name:mr": null, "wheelchair": null, "building": null, "layer": null, "landuse": null, "police": null, "addr:district": null, "wikidata": null, "wikipedia": null, "email": null, "fax": null, "opening_hours": null, "type": null }, "geometry": { "type": "Point", "coordinates": [ 72.8371137, 19.064037 ] } },
{ "type": "Feature", "properties": { "element": "node", "id": 605221901, "amenity": "police", "name": "Lokmanya Tilak Road Police Station", "postal_code": null, "wpt_symbol": null, "description": null, "ele": null, "sym": null, "name:en": null, "check_date": null, "addr:city": null, "addr:postcode": null, "addr:street": null, "addr:housenumber": null, "operator": null, "phone": null, "operator:wikidata": null, "name:mr": null, "wheelchair": null, "building": null, "layer": null, "landuse": null, "police": null, "addr:district": null, "wikidata": null, "wikipedia": null, "email": null, "fax": null, "opening_hours": null, "type": null }, "geometry": { "type": "Point", "coordinates": [ 72.8303315, 18.9453708 ] } },
{ "type": "Feature", "properties": { "element": "node", "id": 858544370, "amenity": "police", "name": "Null Bazaar Police Chowkie", "postal_code": null, "wpt_symbol": null, "description": null, "ele": null, "sym": null, "name:en": null, "check_date": null, "addr:city": null, "addr:postcode": null, "addr:street": null, "addr:housenumber": null, "operator": null, "phone": null, "operator:wikidata": null, "name:mr": null, "wheelchair": null, "building": null, "layer": null, "landuse": null, "police": null, "addr:district": null, "wikidata": null, "wikipedia": null, "email": null, "fax": null, "opening_hours": null, "type": null }, "geometry": { "type": "Point", "coordinates": [ 72.8290329, 18.9570075 ] } },
{ "type": "Feature", "properties": { "element": "node", "id": 858544419, "amenity": "police", "name": "Pydhoni Police Station", "postal_code": null, "wpt_symbol": null, "description": null, "ele": null, "sym": null, "name:en": null, "check_date": null, "addr:city": null, "addr:postcode": null, "addr:street": null, "addr:housenumber": null, "operator": null, "phone": null, "operator:wikidata": null, "name:mr": null, "wheelchair": null, "building": null, "layer": null, "landuse": null, "police": null, "addr:district": null, "wikidata": null, "wikipedia": null, "email": null, "fax": null, "opening_hours": null, "type": null }, "geometry": { "type": "Point", "coordinates": [ 72.832021, 18.9541719 ] } },
{ "type": "Feature", "properties": { "element": "node", "id": 860348747, "amenity": "police", "name": "Dongri Police Station", "postal_code": "400009", "wpt_symbol": null, "description": null, "ele": null, "sym": null, "name:en": null, "check_date": null, "addr:city": null, "addr:postcode": null, "addr:street": null, "addr:housenumber": null, "operator": null, "phone": null, "operator:wikidata": null, "name:mr": null, "wheelchair": null, "building": null, "layer": null, "landuse": null, "police": null, "addr:district": null, "wikidata": null, "wikipedia": null, "email": null, "fax": null, "opening_hours": null, "type": null }, "geometry": { "type": "Point", "coordinates": [ 72.8390488, 18.9621396 ] } },
{ "type": "Feature", "properties": { "element": "node", "id": 861239805, "amenity": "police", "name": "Sir JJ Marg Police Station", "postal_code": null, "wpt_symbol": null, "description": null, "ele": null, "sym": null, "name:en": null, "check_date": null, "addr:city": null, "addr:postcode": null, "addr:street": null, "addr:housenumber": null, "operator": null, "phone": null, "operator:wikidata": null, "name:mr": null, "wheelchair": null, "building": null, "layer": null, "landuse": null, "police": null, "addr:district": null, "wikidata": null, "wikipedia": null, "email": null, "fax": null, "opening_hours": null, "type": null }, "geometry": { "type": "Point", "coordinates": [ 72.832291, 18.963006 ] } },
{ "type": "Feature", "properties": { "element": "node", "id": 985121037, "amenity": "police", "name": "Aarey Police Station", "postal_code": null, "wpt_symbol": null, "description": null, "ele": null, "sym": null, "name:en": null, "check_date": null, "addr:city": null, "addr:postcode": null, "addr:street": null, "addr:housenumber": null, "operator": null, "phone": null, "operator:wikidata": null, "name:mr": null, "wheelchair": null, "building": null, "layer": null, "landuse": null, "police": null, "addr:district": null, "wikidata": null, "wikipedia": null, "email": null, "fax": null, "opening_hours": null, "type": null }, "geometry": { "type": "Point", "coordinates": [ 72.8543819, 19.1664849 ] } },
{ "type": "Feature", "properties": { "element": "node", "id": 985121043, "amenity": "police", "name": "Goregaon (E) Police Station", "postal_code": null, "wpt_symbol": null, "description": null, "ele": null, "sym": null, "name:en": null, "check_date": null, "addr:city": null, "addr:postcode": null, "addr:street": null, "addr:housenumber": null, "operator": null, "phone": null, "operator:wikidata": null, "name:mr": null, "wheelchair": null, "building": null, "layer": null, "landuse": null, "police": null, "addr:district": null, "wikidata": null, "wikipedia": null, "email": null, "fax": null, "opening_hours": null, "type": null }, "geometry": { "type": "Point", "coordinates": [ 72.8576756, 19.1558742 ] } },
{ "type": "Feature", "properties": { "element": "node", "id": 1034965532, "amenity": "police", "name": "Lokmanya Tilak Police Chowkie Beat No 4", "postal_code": null, "wpt_symbol": "Police Station", "description": null, "ele": null, "sym": null, "name:en": null, "check_date": null, "addr:city": null, "addr:postcode": null, "addr:street": null, "addr:housenumber": null, "operator": null, "phone": null, "operator:wikidata": null, "name:mr": null, "wheelchair": null, "building": null, "layer": null, "landuse": null, "police": null, "addr:district": null, "wikidata": null, "wikipedia": null, "email": null, "fax": null, "opening_hours": null, "type": null }, "geometry": { "type": "Point", "coordinates": [ 72.833389, 18.9474438 ] } },
{ "type": "Feature", "properties": { "element": "node", "id": 1034965537, "amenity": "police", "name": "Lokmanya Tilak Police Station", "postal_code": null, "wpt_symbol": null, "description": null, "ele": null, "sym": null, "name:en": null, "check_date": null, "addr:city": null, "addr:postcode": null, "addr:street": null, "addr:housenumber": null, "operator": null, "phone": null, "operator:wikidata": null, "name:mr": null, "wheelchair": null, "building": null, "layer": null, "landuse": null, "police": null, "addr:district": null, "wikidata": null, "wikipedia": null, "email": null, "fax": null, "opening_hours": null, "type": null }, "geometry": { "type": "Point", "coordinates": [ 72.8331294, 18.9463293 ] } },
{ "type": "Feature", "properties": { "element": "node", "id": 1241711502, "amenity": "police", "name": null, "postal_code": null, "wpt_symbol": null, "description": "Police commissioner", "ele": "11.901855", "sym": "Police Station", "name:en": null, "check_date": null, "addr:city": null, "addr:postcode": null, "addr:street": null, "addr:housenumber": null, "operator": null, "phone": null, "operator:wikidata": null, "name:mr": null, "wheelchair": null, "building": null, "layer": null, "landuse": null, "police": null, "addr:district": null, "wikidata": null, "wikipedia": null, "email": null, "fax": null, "opening_hours": null, "type": null }, "geometry": { "type": "Point", "coordinates": [ 72.8328893, 18.9444479 ] } },
{ "type": "Feature", "properties": { "element": "node", "id": 1301593213, "amenity": "police", "name": null, "postal_code": null, "wpt_symbol": null, "description": null, "ele": null, "sym": null, "name:en": null, "check_date": null, "addr:city": null, "addr:postcode": null, "addr:street": null, "addr:housenumber": null, "operator": null, "phone": null, "operator:wikidata": null, "name:mr": null, "wheelchair": null, "building": null, "layer": null, "landuse": null, "police": null, "addr:district": null, "wikidata": null, "wikipedia": null, "email": null, "fax": null, "opening_hours": null, "type": null }, "geometry": { "type": "Point", "coordinates": [ 72.8323654, 18.9675282 ] } },
{ "type": "Feature", "properties": { "element": "node", "id": 1332582403, "amenity": "police", "name": null, "postal_code": null, "wpt_symbol": null, "description": null, "ele": null, "sym": null, "name:en": "Marine Drive Police Station", "check_date": null, "addr:city": null, "addr:postcode": null, "addr:street": null, "addr:housenumber": null, "operator": null, "phone": null, "operator:wikidata": null, "name:mr": null, "wheelchair": null, "building": null, "layer": null, "landuse": null, "police": null, "addr:district": null, "wikidata": null, "wikipedia": null, "email": null, "fax": null, "opening_hours": null, "type": null }, "geometry": { "type": "Point", "coordinates": [ 72.8243459, 18.9302617 ] } },
{ "type": "Feature", "properties": { "element": "node", "id": 1697431324, "amenity": "police", "name": "D.N. Nagar Police Station", "postal_code": null, "wpt_symbol": null, "description": null, "ele": null, "sym": null, "name:en": null, "check_date": "2024-09-25", "addr:city": null, "addr:postcode": null, "addr:street": null, "addr:housenumber": null, "operator": null, "phone": null, "operator:wikidata": null, "name:mr": null, "wheelchair": null, "building": null, "layer": null, "landuse": null, "police": null, "addr:district": null, "wikidata": null, "wikipedia": null, "email": null, "fax": null, "opening_hours": null, "type": null }, "geometry": { "type": "Point", "coordinates": [ 72.8299999, 19.1225849 ] } },
{ "type": "Feature", "properties": { "element": "node", "id": 1905389024, "amenity": "police", "name": "Versova Police Station", "postal_code": null, "wpt_symbol": null, "description": null, "ele": null, "sym": null, "name:en": null, "check_date": null, "addr:city": null, "addr:postcode": null, "addr:street": null, "addr:housenumber": null, "operator": null, "phone": null, "operator:wikidata": null, "name:mr": null, "wheelchair": null, "building": null, "layer": null, "landuse": null, "police": null, "addr:district": null, "wikidata": null, "wikipedia": null, "email": null, "fax": null, "opening_hours": null, "type": null }, "geometry": { "type": "Point", "coordinates": [ 72.8303704, 19.1241245 ] } },
{ "type": "Feature", "properties": { "element": "node", "id": 2097757614, "amenity": "police", "name": null, "postal_code": null, "wpt_symbol": null, "description": null, "ele": null, "sym": null, "name:en": null, "check_date": null, "addr:city": null, "addr:postcode": null, "addr:street": null, "addr:housenumber": null, "operator": null, "phone": null, "operator:wikidata": null, "name:mr": null, "wheelchair": null, "building": null, "layer": null, "landuse": null, "police": null, "addr:district": null, "wikidata": null, "wikipedia": null, "email": null, "fax": null, "opening_hours": null, "type": null }, "geometry": { "type": "Point", "coordinates": [ 72.8582168, 19.2282071 ] } },
{ "type": "Feature", "properties": { "element": "node", "id": 2171447204, "amenity": "police", "name": "Police Chowki", "postal_code": null, "wpt_symbol": null, "description": null, "ele": null, "sym": null, "name:en": null, "check_date": null, "addr:city": null, "addr:postcode": null, "addr:street": null, "addr:housenumber": null, "operator": null, "phone": null, "operator:wikidata": null, "name:mr": null, "wheelchair": null, "building": null, "layer": null, "landuse": null, "police": null, "addr:district": null, "wikidata": null, "wikipedia": null, "email": null, "fax": null, "opening_hours": null, "type": null }, "geometry": { "type": "Point", "coordinates": [ 72.8292193, 19.0628319 ] } },
{ "type": "Feature", "properties": { "element": "node", "id": 2298079810, "amenity": "police", "name": "Police Station, Thakur Village", "postal_code": null, "wpt_symbol": null, "description": null, "ele": null, "sym": null, "name:en": null, "check_date": null, "addr:city": null, "addr:postcode": null, "addr:street": null, "addr:housenumber": null, "operator": null, "phone": null, "operator:wikidata": null, "name:mr": null, "wheelchair": null, "building": null, "layer": null, "landuse": null, "police": null, "addr:district": null, "wikidata": null, "wikipedia": null, "email": null, "fax": null, "opening_hours": null, "type": null }, "geometry": { "type": "Point", "coordinates": [ 72.8729038, 19.2059514 ] } },
{ "type": "Feature", "properties": { "element": "node", "id": 2308138695, "amenity": "police", "name": "Dindoshi Police station", "postal_code": null, "wpt_symbol": null, "description": null, "ele": null, "sym": null, "name:en": null, "check_date": "2026-05-03", "addr:city": null, "addr:postcode": null, "addr:street": null, "addr:housenumber": null, "operator": null, "phone": null, "operator:wikidata": null, "name:mr": null, "wheelchair": null, "building": null, "layer": null, "landuse": null, "police": null, "addr:district": null, "wikidata": null, "wikipedia": null, "email": null, "fax": null, "opening_hours": null, "type": null }, "geometry": { "type": "Point", "coordinates": [ 72.8577333, 19.1789489 ] } },
{ "type": "Feature", "properties": { "element": "node", "id": 2449734722, "amenity": "police", "name": "Badhamkar Mark Police Station", "postal_code": null, "wpt_symbol": null, "description": null, "ele": null, "sym": null, "name:en": null, "check_date": "2026-03-20", "addr:city": null, "addr:postcode": null, "addr:street": null, "addr:housenumber": null, "operator": null, "phone": null, "operator:wikidata": null, "name:mr": null, "wheelchair": null, "building": null, "layer": null, "landuse": null, "police": null, "addr:district": null, "wikidata": null, "wikipedia": null, "email": null, "fax": null, "opening_hours": null, "type": null }, "geometry": { "type": "Point", "coordinates": [ 72.8170666, 18.9608206 ] } },
{ "type": "Feature", "properties": { "element": "node", "id": 2562631232, "amenity": "police", "name": "Gokuldham Police Station", "postal_code": null, "wpt_symbol": null, "description": null, "ele": null, "sym": null, "name:en": null, "check_date": null, "addr:city": null, "addr:postcode": null, "addr:street": null, "addr:housenumber": null, "operator": null, "phone": null, "operator:wikidata": null, "name:mr": null, "wheelchair": null, "building": null, "layer": null, "landuse": null, "police": null, "addr:district": null, "wikidata": null, "wikipedia": null, "email": null, "fax": null, "opening_hours": null, "type": null }, "geometry": { "type": "Point", "coordinates": [ 72.8676526, 19.1755909 ] } },
{ "type": "Feature", "properties": { "element": "node", "id": 2680678193, "amenity": "police", "name": "Police Chowk", "postal_code": null, "wpt_symbol": null, "description": null, "ele": null, "sym": null, "name:en": null, "check_date": null, "addr:city": null, "addr:postcode": null, "addr:street": null, "addr:housenumber": null, "operator": null, "phone": null, "operator:wikidata": null, "name:mr": null, "wheelchair": null, "building": null, "layer": null, "landuse": null, "police": null, "addr:district": null, "wikidata": null, "wikipedia": null, "email": null, "fax": null, "opening_hours": null, "type": null }, "geometry": { "type": "Point", "coordinates": [ 72.8294847, 19.0738897 ] } },
{ "type": "Feature", "properties": { "element": "node", "id": 2930732807, "amenity": "police", "name": "Tilak Nagar Police Station", "postal_code": null, "wpt_symbol": null, "description": null, "ele": null, "sym": null, "name:en": null, "check_date": null, "addr:city": null, "addr:postcode": null, "addr:street": null, "addr:housenumber": null, "operator": null, "phone": null, "operator:wikidata": null, "name:mr": null, "wheelchair": null, "building": null, "layer": null, "landuse": null, "police": null, "addr:district": null, "wikidata": null, "wikipedia": null, "email": null, "fax": null, "opening_hours": null, "type": null }, "geometry": { "type": "Point", "coordinates": [ 72.8959976, 19.0652856 ] } },
{ "type": "Feature", "properties": { "element": "node", "id": 2933183452, "amenity": "police", "name": "VB Nagar Police Station", "postal_code": null, "wpt_symbol": null, "description": null, "ele": null, "sym": null, "name:en": null, "check_date": null, "addr:city": "Kurla West, Mumbai", "addr:postcode": "400070", "addr:street": null, "addr:housenumber": null, "operator": null, "phone": null, "operator:wikidata": null, "name:mr": null, "wheelchair": null, "building": null, "layer": null, "landuse": null, "police": null, "addr:district": null, "wikidata": null, "wikipedia": null, "email": null, "fax": null, "opening_hours": null, "type": null }, "geometry": { "type": "Point", "coordinates": [ 72.8842275, 19.0717172 ] } },
{ "type": "Feature", "properties": { "element": "node", "id": 3008501715, "amenity": "police", "name": "Police Commissioner's Office", "postal_code": null, "wpt_symbol": null, "description": null, "ele": null, "sym": null, "name:en": null, "check_date": null, "addr:city": null, "addr:postcode": null, "addr:street": null, "addr:housenumber": null, "operator": null, "phone": null, "operator:wikidata": null, "name:mr": null, "wheelchair": null, "building": null, "layer": null, "landuse": null, "police": null, "addr:district": null, "wikidata": null, "wikipedia": null, "email": null, "fax": null, "opening_hours": null, "type": null }, "geometry": { "type": "Point", "coordinates": [ 72.833307, 18.9462953 ] } },
{ "type": "Feature", "properties": { "element": "node", "id": 3186544582, "amenity": "police", "name": null, "postal_code": null, "wpt_symbol": null, "description": null, "ele": null, "sym": null, "name:en": null, "check_date": null, "addr:city": null, "addr:postcode": null, "addr:street": null, "addr:housenumber": null, "operator": null, "phone": null, "operator:wikidata": null, "name:mr": null, "wheelchair": null, "building": null, "layer": null, "landuse": null, "police": null, "addr:district": null, "wikidata": null, "wikipedia": null, "email": null, "fax": null, "opening_hours": null, "type": null }, "geometry": { "type": "Point", "coordinates": [ 72.8559481, 19.2294953 ] } },
{ "type": "Feature", "properties": { "element": "node", "id": 3204171992, "amenity": "police", "name": "POLICE STATION", "postal_code": null, "wpt_symbol": null, "description": null, "ele": null, "sym": null, "name:en": null, "check_date": null, "addr:city": null, "addr:postcode": null, "addr:street": null, "addr:housenumber": null, "operator": null, "phone": null, "operator:wikidata": null, "name:mr": null, "wheelchair": null, "building": null, "layer": null, "landuse": null, "police": null, "addr:district": null, "wikidata": null, "wikipedia": null, "email": null, "fax": null, "opening_hours": null, "type": null }, "geometry": { "type": "Point", "coordinates": [ 72.9357, 19.0537 ] } },
{ "type": "Feature", "properties": { "element": "node", "id": 3205945190, "amenity": "police", "name": "trombay police station", "postal_code": null, "wpt_symbol": null, "description": null, "ele": null, "sym": null, "name:en": null, "check_date": null, "addr:city": "mumbai", "addr:postcode": null, "addr:street": null, "addr:housenumber": null, "operator": null, "phone": null, "operator:wikidata": null, "name:mr": null, "wheelchair": null, "building": null, "layer": null, "landuse": null, "police": null, "addr:district": null, "wikidata": null, "wikipedia": null, "email": null, "fax": null, "opening_hours": null, "type": null }, "geometry": { "type": "Point", "coordinates": [ 72.9499458, 19.0361453 ] } },
{ "type": "Feature", "properties": { "element": "node", "id": 3205950901, "amenity": "police", "name": "Tembhipada Police Chowki", "postal_code": null, "wpt_symbol": null, "description": null, "ele": null, "sym": null, "name:en": null, "check_date": null, "addr:city": null, "addr:postcode": "400 078", "addr:street": "Tembhipada Road", "addr:housenumber": null, "operator": null, "phone": null, "operator:wikidata": null, "name:mr": null, "wheelchair": null, "building": null, "layer": null, "landuse": null, "police": null, "addr:district": null, "wikidata": null, "wikipedia": null, "email": null, "fax": null, "opening_hours": null, "type": null }, "geometry": { "type": "Point", "coordinates": [ 72.9291114, 19.1548902 ] } },
{ "type": "Feature", "properties": { "element": "node", "id": 3205956099, "amenity": "police", "name": "chembur police station", "postal_code": null, "wpt_symbol": null, "description": null, "ele": null, "sym": null, "name:en": null, "check_date": null, "addr:city": "mumbai", "addr:postcode": "400089", "addr:street": "P.L. Lokhande Marg", "addr:housenumber": "near Handore office", "operator": null, "phone": null, "operator:wikidata": null, "name:mr": null, "wheelchair": null, "building": null, "layer": null, "landuse": null, "police": null, "addr:district": null, "wikidata": null, "wikipedia": null, "email": null, "fax": null, "opening_hours": null, "type": null }, "geometry": { "type": "Point", "coordinates": [ 72.9008254, 19.0639495 ] } },
{ "type": "Feature", "properties": { "element": "node", "id": 3215545236, "amenity": "police", "name": "Maharashtra Nagar Police Station", "postal_code": null, "wpt_symbol": null, "description": null, "ele": null, "sym": null, "name:en": null, "check_date": null, "addr:city": null, "addr:postcode": null, "addr:street": null, "addr:housenumber": null, "operator": null, "phone": null, "operator:wikidata": null, "name:mr": null, "wheelchair": null, "building": null, "layer": null, "landuse": null, "police": null, "addr:district": null, "wikidata": null, "wikipedia": null, "email": null, "fax": null, "opening_hours": null, "type": null }, "geometry": { "type": "Point", "coordinates": [ 72.9378622, 19.0502474 ] } },
{ "type": "Feature", "properties": { "element": "node", "id": 3215577539, "amenity": "police", "name": "Govandi Police station", "postal_code": null, "wpt_symbol": null, "description": null, "ele": null, "sym": null, "name:en": null, "check_date": null, "addr:city": null, "addr:postcode": null, "addr:street": null, "addr:housenumber": null, "operator": null, "phone": null, "operator:wikidata": null, "name:mr": null, "wheelchair": null, "building": null, "layer": null, "landuse": null, "police": null, "addr:district": null, "wikidata": null, "wikipedia": null, "email": null, "fax": null, "opening_hours": null, "type": null }, "geometry": { "type": "Point", "coordinates": [ 72.9116651, 19.0595211 ] } },
{ "type": "Feature", "properties": { "element": "node", "id": 3215584200, "amenity": "police", "name": "Lallubhai Police Station", "postal_code": null, "wpt_symbol": null, "description": null, "ele": null, "sym": null, "name:en": null, "check_date": null, "addr:city": null, "addr:postcode": null, "addr:street": null, "addr:housenumber": null, "operator": null, "phone": null, "operator:wikidata": null, "name:mr": null, "wheelchair": null, "building": null, "layer": null, "landuse": null, "police": null, "addr:district": null, "wikidata": null, "wikipedia": null, "email": null, "fax": null, "opening_hours": null, "type": null }, "geometry": { "type": "Point", "coordinates": [ 72.9270997, 19.0528478 ] } },
{ "type": "Feature", "properties": { "element": "node", "id": 3215621243, "amenity": "police", "name": "gaikwaad nagar police station", "postal_code": null, "wpt_symbol": null, "description": null, "ele": null, "sym": null, "name:en": null, "check_date": null, "addr:city": "mumbai", "addr:postcode": "400089", "addr:street": "P.L. Lokhande Marg", "addr:housenumber": null, "operator": null, "phone": null, "operator:wikidata": null, "name:mr": null, "wheelchair": null, "building": null, "layer": null, "landuse": null, "police": null, "addr:district": null, "wikidata": null, "wikipedia": null, "email": null, "fax": null, "opening_hours": null, "type": null }, "geometry": { "type": "Point", "coordinates": [ 72.9104397, 19.0603518 ] } },
{ "type": "Feature", "properties": { "element": "node", "id": 3532121099, "amenity": "police", "name": "Nehru Nagar Kurla E Police Chowky", "postal_code": null, "wpt_symbol": null, "description": null, "ele": null, "sym": null, "name:en": null, "check_date": null, "addr:city": null, "addr:postcode": null, "addr:street": null, "addr:housenumber": null, "operator": null, "phone": null, "operator:wikidata": null, "name:mr": null, "wheelchair": null, "building": null, "layer": null, "landuse": null, "police": null, "addr:district": null, "wikidata": null, "wikipedia": null, "email": null, "fax": null, "opening_hours": null, "type": null }, "geometry": { "type": "Point", "coordinates": [ 72.8808749, 19.0650661 ] } },
{ "type": "Feature", "properties": { "element": "node", "id": 3547889593, "amenity": "police", "name": "Khardev Nagar Police Station", "postal_code": null, "wpt_symbol": null, "description": null, "ele": null, "sym": null, "name:en": null, "check_date": null, "addr:city": null, "addr:postcode": null, "addr:street": null, "addr:housenumber": null, "operator": null, "phone": null, "operator:wikidata": null, "name:mr": null, "wheelchair": null, "building": null, "layer": null, "landuse": null, "police": null, "addr:district": null, "wikidata": null, "wikipedia": null, "email": null, "fax": null, "opening_hours": null, "type": null }, "geometry": { "type": "Point", "coordinates": [ 72.9088297, 19.0557429 ] } },
{ "type": "Feature", "properties": { "element": "node", "id": 3602876220, "amenity": "police", "name": "Vikhroli Police Station", "postal_code": null, "wpt_symbol": null, "description": null, "ele": null, "sym": null, "name:en": null, "check_date": null, "addr:city": null, "addr:postcode": null, "addr:street": null, "addr:housenumber": null, "operator": null, "phone": null, "operator:wikidata": null, "name:mr": null, "wheelchair": null, "building": null, "layer": null, "landuse": null, "police": null, "addr:district": null, "wikidata": null, "wikipedia": null, "email": null, "fax": null, "opening_hours": null, "type": null }, "geometry": { "type": "Point", "coordinates": [ 72.9373252, 19.1187189 ] } },
{ "type": "Feature", "properties": { "element": "node", "id": 4402150675, "amenity": "police", "name": "Chheda Nagar Police Station", "postal_code": null, "wpt_symbol": null, "description": null, "ele": null, "sym": null, "name:en": null, "check_date": null, "addr:city": "cheedanagar, chembur,mumbai", "addr:postcode": "400089", "addr:street": "Road No 1", "addr:housenumber": null, "operator": "Mumbai Police", "phone": "+912225259663", "operator:wikidata": null, "name:mr": null, "wheelchair": null, "building": null, "layer": null, "landuse": null, "police": null, "addr:district": null, "wikidata": null, "wikipedia": null, "email": null, "fax": null, "opening_hours": null, "type": null }, "geometry": { "type": "Point", "coordinates": [ 72.9031566, 19.0672141 ] } },
{ "type": "Feature", "properties": { "element": "node", "id": 4621598794, "amenity": "police", "name": null, "postal_code": null, "wpt_symbol": null, "description": null, "ele": null, "sym": null, "name:en": "Police Station", "check_date": null, "addr:city": null, "addr:postcode": null, "addr:street": "C S Link Road", "addr:housenumber": null, "operator": null, "phone": null, "operator:wikidata": null, "name:mr": null, "wheelchair": null, "building": null, "layer": null, "landuse": null, "police": null, "addr:district": null, "wikidata": null, "wikipedia": null, "email": null, "fax": null, "opening_hours": null, "type": null }, "geometry": { "type": "Point", "coordinates": [ 72.8650937, 19.2573838 ] } },
{ "type": "Feature", "properties": { "element": "node", "id": 4658680890, "amenity": "police", "name": null, "postal_code": null, "wpt_symbol": null, "description": null, "ele": null, "sym": null, "name:en": null, "check_date": null, "addr:city": null, "addr:postcode": "400081", "addr:street": "Navghar Marg", "addr:housenumber": null, "operator": null, "phone": null, "operator:wikidata": null, "name:mr": null, "wheelchair": null, "building": null, "layer": null, "landuse": null, "police": null, "addr:district": null, "wikidata": null, "wikipedia": null, "email": null, "fax": null, "opening_hours": null, "type": null }, "geometry": { "type": "Point", "coordinates": [ 72.9591762, 19.1695498 ] } },
{ "type": "Feature", "properties": { "element": "node", "id": 4791178925, "amenity": "police", "name": null, "postal_code": null, "wpt_symbol": null, "description": null, "ele": null, "sym": null, "name:en": null, "check_date": null, "addr:city": null, "addr:postcode": "400081", "addr:street": "Lokmanya Tilak Road", "addr:housenumber": null, "operator": null, "phone": null, "operator:wikidata": null, "name:mr": null, "wheelchair": null, "building": null, "layer": null, "landuse": null, "police": null, "addr:district": null, "wikidata": null, "wikipedia": null, "email": null, "fax": null, "opening_hours": null, "type": null }, "geometry": { "type": "Point", "coordinates": [ 72.956655, 19.1715844 ] } },
{ "type": "Feature", "properties": { "element": "node", "id": 4848773734, "amenity": "police", "name": "Sion (E) Police Station", "postal_code": null, "wpt_symbol": null, "description": null, "ele": null, "sym": null, "name:en": null, "check_date": "2026-03-20", "addr:city": null, "addr:postcode": null, "addr:street": null, "addr:housenumber": null, "operator": null, "phone": null, "operator:wikidata": null, "name:mr": null, "wheelchair": null, "building": null, "layer": null, "landuse": null, "police": null, "addr:district": null, "wikidata": null, "wikipedia": null, "email": null, "fax": null, "opening_hours": null, "type": null }, "geometry": { "type": "Point", "coordinates": [ 72.8575876, 19.0313226 ] } },
{ "type": "Feature", "properties": { "element": "node", "id": 5057817507, "amenity": "police", "name": "Matunga Police Station", "postal_code": null, "wpt_symbol": null, "description": null, "ele": null, "sym": null, "name:en": null, "check_date": null, "addr:city": null, "addr:postcode": null, "addr:street": null, "addr:housenumber": null, "operator": null, "phone": null, "operator:wikidata": null, "name:mr": null, "wheelchair": null, "building": null, "layer": null, "landuse": null, "police": null, "addr:district": null, "wikidata": null, "wikipedia": null, "email": null, "fax": null, "opening_hours": null, "type": null }, "geometry": { "type": "Point", "coordinates": [ 72.8578787, 19.0311163 ] } },
{ "type": "Feature", "properties": { "element": "node", "id": 5116459526, "amenity": "police", "name": "Kandivali Police Station", "postal_code": null, "wpt_symbol": null, "description": null, "ele": null, "sym": null, "name:en": null, "check_date": null, "addr:city": null, "addr:postcode": null, "addr:street": null, "addr:housenumber": null, "operator": null, "phone": null, "operator:wikidata": null, "name:mr": null, "wheelchair": null, "building": null, "layer": null, "landuse": null, "police": null, "addr:district": null, "wikidata": null, "wikipedia": null, "email": null, "fax": null, "opening_hours": null, "type": null }, "geometry": { "type": "Point", "coordinates": [ 72.8501404, 19.209583 ] } },
{ "type": "Feature", "properties": { "element": "node", "id": 5258276335, "amenity": "police", "name": "Mount Mary Police Chouki", "postal_code": null, "wpt_symbol": null, "description": null, "ele": null, "sym": null, "name:en": null, "check_date": null, "addr:city": null, "addr:postcode": null, "addr:street": null, "addr:housenumber": null, "operator": null, "phone": null, "operator:wikidata": null, "name:mr": null, "wheelchair": null, "building": null, "layer": null, "landuse": null, "police": null, "addr:district": null, "wikidata": null, "wikipedia": null, "email": null, "fax": null, "opening_hours": null, "type": null }, "geometry": { "type": "Point", "coordinates": [ 72.8232806, 19.051928 ] } },
{ "type": "Feature", "properties": { "element": "node", "id": 5448387024, "amenity": "police", "name": null, "postal_code": null, "wpt_symbol": null, "description": null, "ele": null, "sym": null, "name:en": null, "check_date": null, "addr:city": null, "addr:postcode": null, "addr:street": null, "addr:housenumber": null, "operator": null, "phone": null, "operator:wikidata": null, "name:mr": null, "wheelchair": null, "building": null, "layer": null, "landuse": null, "police": null, "addr:district": null, "wikidata": null, "wikipedia": null, "email": null, "fax": null, "opening_hours": null, "type": null }, "geometry": { "type": "Point", "coordinates": [ 72.837489, 18.9978829 ] } },
{ "type": "Feature", "properties": { "element": "node", "id": 5506320530, "amenity": "police", "name": "BKC Police Station", "postal_code": null, "wpt_symbol": null, "description": null, "ele": null, "sym": null, "name:en": null, "check_date": null, "addr:city": null, "addr:postcode": null, "addr:street": null, "addr:housenumber": null, "operator": null, "phone": null, "operator:wikidata": null, "name:mr": null, "wheelchair": null, "building": null, "layer": null, "landuse": null, "police": null, "addr:district": null, "wikidata": null, "wikipedia": null, "email": null, "fax": null, "opening_hours": null, "type": null }, "geometry": { "type": "Point", "coordinates": [ 72.8603409, 19.0645147 ] } },
{ "type": "Feature", "properties": { "element": "node", "id": 5614984680, "amenity": "police", "name": "Versova Police Station", "postal_code": null, "wpt_symbol": null, "description": null, "ele": null, "sym": null, "name:en": null, "check_date": null, "addr:city": null, "addr:postcode": null, "addr:street": null, "addr:housenumber": null, "operator": null, "phone": null, "operator:wikidata": null, "name:mr": null, "wheelchair": null, "building": null, "layer": null, "landuse": null, "police": null, "addr:district": null, "wikidata": null, "wikipedia": null, "email": null, "fax": null, "opening_hours": null, "type": null }, "geometry": { "type": "Point", "coordinates": [ 72.8044882, 19.1429738 ] } },
{ "type": "Feature", "properties": { "element": "node", "id": 5667043327, "amenity": "police", "name": "Samatanagar Police Station", "postal_code": null, "wpt_symbol": null, "description": null, "ele": null, "sym": null, "name:en": null, "check_date": null, "addr:city": null, "addr:postcode": null, "addr:street": null, "addr:housenumber": null, "operator": null, "phone": null, "operator:wikidata": null, "name:mr": null, "wheelchair": null, "building": null, "layer": null, "landuse": null, "police": null, "addr:district": null, "wikidata": null, "wikipedia": null, "email": null, "fax": null, "opening_hours": null, "type": null }, "geometry": { "type": "Point", "coordinates": [ 72.8614152, 19.1998393 ] } },
{ "type": "Feature", "properties": { "element": "node", "id": 5668284373, "amenity": "police", "name": "NM Joshi Marg Police Station", "postal_code": null, "wpt_symbol": null, "description": null, "ele": null, "sym": null, "name:en": null, "check_date": "2026-03-20", "addr:city": "Mumbai", "addr:postcode": "400013", "addr:street": "Sakubai Mohite Marg", "addr:housenumber": null, "operator": null, "phone": null, "operator:wikidata": null, "name:mr": null, "wheelchair": null, "building": null, "layer": null, "landuse": null, "police": null, "addr:district": null, "wikidata": null, "wikipedia": null, "email": null, "fax": null, "opening_hours": null, "type": null }, "geometry": { "type": "Point", "coordinates": [ 72.8309771, 18.9914132 ] } },
{ "type": "Feature", "properties": { "element": "node", "id": 6052581621, "amenity": "police", "name": "Traffic Police Chowky", "postal_code": null, "wpt_symbol": null, "description": null, "ele": null, "sym": null, "name:en": null, "check_date": null, "addr:city": null, "addr:postcode": null, "addr:street": null, "addr:housenumber": null, "operator": null, "phone": null, "operator:wikidata": null, "name:mr": null, "wheelchair": null, "building": null, "layer": null, "landuse": null, "police": null, "addr:district": null, "wikidata": null, "wikipedia": null, "email": null, "fax": null, "opening_hours": null, "type": null }, "geometry": { "type": "Point", "coordinates": [ 72.9374814, 19.163976 ] } },
{ "type": "Feature", "properties": { "element": "node", "id": 7499053623, "amenity": "police", "name": "Chowki Mohalla Police Chowki", "postal_code": null, "wpt_symbol": null, "description": null, "ele": null, "sym": null, "name:en": null, "check_date": null, "addr:city": "Mumbai", "addr:postcode": "400008", "addr:street": "Undria Street", "addr:housenumber": null, "operator": "Mumbai Police", "phone": null, "operator:wikidata": null, "name:mr": null, "wheelchair": null, "building": null, "layer": null, "landuse": null, "police": null, "addr:district": null, "wikidata": null, "wikipedia": null, "email": null, "fax": null, "opening_hours": null, "type": null }, "geometry": { "type": "Point", "coordinates": [ 72.8301422, 18.9618784 ] } },
{ "type": "Feature", "properties": { "element": "node", "id": 7506854141, "amenity": "police", "name": "Do Taki Police Chowki", "postal_code": null, "wpt_symbol": null, "description": null, "ele": null, "sym": null, "name:en": null, "check_date": null, "addr:city": null, "addr:postcode": null, "addr:street": null, "addr:housenumber": null, "operator": "Mumbai Police", "phone": null, "operator:wikidata": null, "name:mr": null, "wheelchair": null, "building": null, "layer": null, "landuse": null, "police": null, "addr:district": null, "wikidata": null, "wikipedia": null, "email": null, "fax": null, "opening_hours": null, "type": null }, "geometry": { "type": "Point", "coordinates": [ 72.8286697, 18.9616064 ] } },
{ "type": "Feature", "properties": { "element": "node", "id": 8170852418, "amenity": "police", "name": null, "postal_code": null, "wpt_symbol": null, "description": null, "ele": null, "sym": null, "name:en": "Malad Police Station", "check_date": null, "addr:city": null, "addr:postcode": null, "addr:street": null, "addr:housenumber": null, "operator": null, "phone": null, "operator:wikidata": null, "name:mr": null, "wheelchair": null, "building": null, "layer": null, "landuse": null, "police": null, "addr:district": null, "wikidata": null, "wikipedia": null, "email": null, "fax": null, "opening_hours": null, "type": null }, "geometry": { "type": "Point", "coordinates": [ 72.8445059, 19.1834974 ] } },
{ "type": "Feature", "properties": { "element": "node", "id": 9081860659, "amenity": "police", "name": "Elphinstone Road Traffic Police Chowki", "postal_code": null, "wpt_symbol": null, "description": null, "ele": null, "sym": null, "name:en": null, "check_date": null, "addr:city": null, "addr:postcode": null, "addr:street": null, "addr:housenumber": null, "operator": null, "phone": null, "operator:wikidata": null, "name:mr": null, "wheelchair": null, "building": null, "layer": null, "landuse": null, "police": null, "addr:district": null, "wikidata": null, "wikipedia": null, "email": null, "fax": null, "opening_hours": null, "type": null }, "geometry": { "type": "Point", "coordinates": [ 72.8325587, 19.0085419 ] } },
{ "type": "Feature", "properties": { "element": "node", "id": 9139914820, "amenity": "police", "name": null, "postal_code": null, "wpt_symbol": null, "description": null, "ele": null, "sym": null, "name:en": null, "check_date": null, "addr:city": null, "addr:postcode": null, "addr:street": null, "addr:housenumber": null, "operator": null, "phone": null, "operator:wikidata": null, "name:mr": null, "wheelchair": null, "building": null, "layer": null, "landuse": null, "police": null, "addr:district": null, "wikidata": null, "wikipedia": null, "email": null, "fax": null, "opening_hours": null, "type": null }, "geometry": { "type": "Point", "coordinates": [ 72.8266433, 19.0981885 ] } },
{ "type": "Feature", "properties": { "element": "node", "id": 9730701801, "amenity": "police", "name": "Khar Police Station", "postal_code": null, "wpt_symbol": null, "description": null, "ele": null, "sym": null, "name:en": null, "check_date": null, "addr:city": null, "addr:postcode": null, "addr:street": null, "addr:housenumber": null, "operator": null, "phone": null, "operator:wikidata": null, "name:mr": null, "wheelchair": null, "building": null, "layer": null, "landuse": null, "police": null, "addr:district": null, "wikidata": null, "wikipedia": null, "email": null, "fax": null, "opening_hours": null, "type": null }, "geometry": { "type": "Point", "coordinates": [ 72.8376531, 19.072887 ] } },
{ "type": "Feature", "properties": { "element": "node", "id": 10296626442, "amenity": "police", "name": "Juhu Police Station", "postal_code": null, "wpt_symbol": null, "description": null, "ele": null, "sym": null, "name:en": null, "check_date": null, "addr:city": null, "addr:postcode": null, "addr:street": null, "addr:housenumber": null, "operator": null, "phone": null, "operator:wikidata": null, "name:mr": null, "wheelchair": null, "building": null, "layer": null, "landuse": null, "police": null, "addr:district": null, "wikidata": null, "wikipedia": null, "email": null, "fax": null, "opening_hours": null, "type": null }, "geometry": { "type": "Point", "coordinates": [ 72.8327116, 19.1031659 ] } },
{ "type": "Feature", "properties": { "element": "node", "id": 11452014435, "amenity": "police", "name": "Chaitya Bhumi Police Chowk", "postal_code": null, "wpt_symbol": null, "description": null, "ele": null, "sym": null, "name:en": null, "check_date": null, "addr:city": null, "addr:postcode": null, "addr:street": null, "addr:housenumber": null, "operator": null, "phone": null, "operator:wikidata": null, "name:mr": null, "wheelchair": null, "building": null, "layer": null, "landuse": null, "police": null, "addr:district": null, "wikidata": null, "wikipedia": null, "email": null, "fax": null, "opening_hours": null, "type": null }, "geometry": { "type": "Point", "coordinates": [ 72.8345223, 19.0260237 ] } },
{ "type": "Feature", "properties": { "element": "node", "id": 12026381269, "amenity": "police", "name": "Shivaji Nagar Police Station", "postal_code": null, "wpt_symbol": null, "description": null, "ele": null, "sym": null, "name:en": null, "check_date": null, "addr:city": null, "addr:postcode": null, "addr:street": null, "addr:housenumber": null, "operator": null, "phone": null, "operator:wikidata": null, "name:mr": null, "wheelchair": null, "building": null, "layer": null, "landuse": null, "police": null, "addr:district": null, "wikidata": null, "wikipedia": null, "email": null, "fax": null, "opening_hours": null, "type": null }, "geometry": { "type": "Point", "coordinates": [ 72.8433693, 19.0610978 ] } },
{ "type": "Feature", "properties": { "element": "node", "id": 12878867195, "amenity": "police", "name": "Office Of The Inspector Incharge, Mulund East", "postal_code": null, "wpt_symbol": null, "description": null, "ele": null, "sym": null, "name:en": null, "check_date": null, "addr:city": null, "addr:postcode": null, "addr:street": null, "addr:housenumber": null, "operator": "Indian Railways", "phone": null, "operator:wikidata": "Q3523040", "name:mr": null, "wheelchair": null, "building": null, "layer": null, "landuse": null, "police": null, "addr:district": null, "wikidata": null, "wikipedia": null, "email": null, "fax": null, "opening_hours": null, "type": null }, "geometry": { "type": "Point", "coordinates": [ 72.9575152, 19.1721599 ] } },
{ "type": "Feature", "properties": { "element": "node", "id": 13514237453, "amenity": "police", "name": "Mata Ramabai Ambedkar Marg Police Thaane", "postal_code": null, "wpt_symbol": null, "description": null, "ele": null, "sym": null, "name:en": null, "check_date": null, "addr:city": null, "addr:postcode": null, "addr:street": null, "addr:housenumber": null, "operator": null, "phone": null, "operator:wikidata": null, "name:mr": "माता रामबाई आंबेडकर मार्ग पोलीस ठाणे", "wheelchair": "limited", "building": null, "layer": null, "landuse": null, "police": null, "addr:district": null, "wikidata": null, "wikipedia": null, "email": null, "fax": null, "opening_hours": null, "type": null }, "geometry": { "type": "Point", "coordinates": [ 72.8318499, 18.9325312 ] } },
{ "type": "Feature", "properties": { "element": "relation", "id": 19278855, "amenity": "police", "name": "Maharashtra Police Headquarters", "postal_code": null, "wpt_symbol": null, "description": null, "ele": null, "sym": null, "name:en": null, "check_date": "2026-03-12", "addr:city": null, "addr:postcode": null, "addr:street": null, "addr:housenumber": null, "operator": null, "phone": null, "operator:wikidata": null, "name:mr": null, "wheelchair": null, "building": "government;yes", "layer": null, "landuse": null, "police": null, "addr:district": null, "wikidata": null, "wikipedia": null, "email": null, "fax": null, "opening_hours": null, "type": "multipolygon" }, "geometry": { "type": "MultiPolygon", "coordinates": [ [ [ [ 72.8332293, 18.9244792 ], [ 72.833178, 18.924539 ], [ 72.8335904, 18.9248553 ], [ 72.8335523, 18.9248998 ], [ 72.8338982, 18.9251651 ], [ 72.8340596, 18.9249769 ], [ 72.8337137, 18.9247116 ], [ 72.8336416, 18.9247956 ], [ 72.8332293, 18.9244792 ] ] ], [ [ [ 72.8334709, 18.9253152 ], [ 72.8337493, 18.9252275 ], [ 72.8336861, 18.9250439 ], [ 72.8335574, 18.9250818 ], [ 72.8334752, 18.9248504 ], [ 72.8333781, 18.9247786 ], [ 72.833279, 18.9248065 ], [ 72.8332459, 18.924932 ], [ 72.833189, 18.9247704 ], [ 72.8329922, 18.9248324 ], [ 72.8332326, 18.9255147 ], [ 72.8332687, 18.9255034 ], [ 72.8334294, 18.9254527 ], [ 72.8334731, 18.9255726 ], [ 72.8335701, 18.9255427 ], [ 72.8335595, 18.9255128 ], [ 72.8337936, 18.9254349 ], [ 72.833762, 18.9253492 ], [ 72.833511, 18.925427 ], [ 72.8334709, 18.9253152 ] ] ], [ [ [ 72.8335996, 18.9256484 ], [ 72.8335258, 18.9255746 ], [ 72.8334752, 18.9256065 ], [ 72.8332687, 18.9255034 ], [ 72.8332179, 18.9256005 ], [ 72.8334984, 18.9257402 ], [ 72.8335996, 18.9256484 ] ] ] ] } },
{ "type": "Feature", "properties": { "element": "way", "id": 39834520, "amenity": "police", "name": "Gamdevi Police Station", "postal_code": null, "wpt_symbol": null, "description": null, "ele": null, "sym": null, "name:en": null, "check_date": null, "addr:city": null, "addr:postcode": null, "addr:street": null, "addr:housenumber": null, "operator": null, "phone": null, "operator:wikidata": null, "name:mr": null, "wheelchair": null, "building": "apartments", "layer": null, "landuse": null, "police": null, "addr:district": null, "wikidata": null, "wikipedia": null, "email": null, "fax": null, "opening_hours": null, "type": null }, "geometry": { "type": "Polygon", "coordinates": [ [ [ 72.8124925, 18.9605599 ], [ 72.8123679, 18.9606612 ], [ 72.812226, 18.9604868 ], [ 72.8123506, 18.9603855 ], [ 72.8124925, 18.9605599 ] ] ] } },
{ "type": "Feature", "properties": { "element": "way", "id": 39839519, "amenity": "police", "name": "Traffic Police", "postal_code": null, "wpt_symbol": null, "description": null, "ele": null, "sym": null, "name:en": null, "check_date": null, "addr:city": null, "addr:postcode": null, "addr:street": null, "addr:housenumber": null, "operator": null, "phone": null, "operator:wikidata": null, "name:mr": null, "wheelchair": null, "building": "apartments", "layer": "1", "landuse": null, "police": null, "addr:district": null, "wikidata": null, "wikipedia": null, "email": null, "fax": null, "opening_hours": null, "type": null }, "geometry": { "type": "Polygon", "coordinates": [ [ [ 72.812877, 18.9616269 ], [ 72.8127584, 18.9615783 ], [ 72.8127973, 18.9614833 ], [ 72.8129159, 18.9615319 ], [ 72.812877, 18.9616269 ] ] ] } },
{ "type": "Feature", "properties": { "element": "way", "id": 48754898, "amenity": "police", "name": "Tardeo Police Station", "postal_code": null, "wpt_symbol": null, "description": null, "ele": null, "sym": null, "name:en": null, "check_date": null, "addr:city": "Mumbai", "addr:postcode": "400034", "addr:street": "Tardeo Police Lane", "addr:housenumber": null, "operator": null, "phone": null, "operator:wikidata": null, "name:mr": "ताडदेव पोलीस स्टेशन", "wheelchair": null, "building": "yes", "layer": null, "landuse": null, "police": null, "addr:district": null, "wikidata": null, "wikipedia": null, "email": null, "fax": null, "opening_hours": null, "type": null }, "geometry": { "type": "Polygon", "coordinates": [ [ [ 72.8142908, 18.9695407 ], [ 72.8140888, 18.9695568 ], [ 72.8140843, 18.9694231 ], [ 72.8139743, 18.9694286 ], [ 72.8139836, 18.9695746 ], [ 72.8140228, 18.9695726 ], [ 72.814025, 18.9695941 ], [ 72.8140817, 18.9696288 ], [ 72.8140848, 18.9696539 ], [ 72.8143046, 18.9696457 ], [ 72.8143049, 18.9696006 ], [ 72.8143286, 18.9696008 ], [ 72.8143492, 18.9695772 ], [ 72.8143503, 18.9695565 ], [ 72.8143949, 18.9695563 ], [ 72.8143869, 18.9693982 ], [ 72.8142816, 18.969406 ], [ 72.8142908, 18.9695407 ] ] ] } },
{ "type": "Feature", "properties": { "element": "way", "id": 118898002, "amenity": "police", "name": "Versova Police station (D.N.Nagar)", "postal_code": null, "wpt_symbol": null, "description": null, "ele": null, "sym": null, "name:en": null, "check_date": null, "addr:city": null, "addr:postcode": null, "addr:street": null, "addr:housenumber": null, "operator": null, "phone": null, "operator:wikidata": null, "name:mr": null, "wheelchair": null, "building": null, "layer": null, "landuse": null, "police": null, "addr:district": null, "wikidata": null, "wikipedia": null, "email": null, "fax": null, "opening_hours": null, "type": null }, "geometry": { "type": "Polygon", "coordinates": [ [ [ 72.8301366, 19.1245312 ], [ 72.8299998, 19.1243284 ], [ 72.8304531, 19.1245134 ], [ 72.8305025, 19.1247558 ], [ 72.8302718, 19.1248167 ], [ 72.8301366, 19.1245312 ] ] ] } },
{ "type": "Feature", "properties": { "element": "way", "id": 135732933, "amenity": "police", "name": "Shivaji Park Police Station", "postal_code": null, "wpt_symbol": null, "description": null, "ele": null, "sym": null, "name:en": null, "check_date": null, "addr:city": null, "addr:postcode": null, "addr:street": null, "addr:housenumber": null, "operator": null, "phone": null, "operator:wikidata": null, "name:mr": null, "wheelchair": null, "building": "yes", "layer": null, "landuse": null, "police": null, "addr:district": null, "wikidata": null, "wikipedia": null, "email": null, "fax": null, "opening_hours": null, "type": null }, "geometry": { "type": "Polygon", "coordinates": [ [ [ 72.8408223, 19.0233265 ], [ 72.8408009, 19.0232544 ], [ 72.8410133, 19.0231981 ], [ 72.8410347, 19.0232703 ], [ 72.8408223, 19.0233265 ] ] ] } },
{ "type": "Feature", "properties": { "element": "way", "id": 179915833, "amenity": "police", "name": "Govandi Police station", "postal_code": null, "wpt_symbol": null, "description": null, "ele": null, "sym": null, "name:en": null, "check_date": null, "addr:city": null, "addr:postcode": null, "addr:street": null, "addr:housenumber": null, "operator": null, "phone": null, "operator:wikidata": null, "name:mr": null, "wheelchair": null, "building": null, "layer": null, "landuse": null, "police": null, "addr:district": null, "wikidata": null, "wikipedia": null, "email": null, "fax": null, "opening_hours": null, "type": null }, "geometry": { "type": "Polygon", "coordinates": [ [ [ 72.917741, 19.0488442 ], [ 72.9175071, 19.0488949 ], [ 72.9174331, 19.0487169 ], [ 72.9173483, 19.0485663 ], [ 72.9174873, 19.0485004 ], [ 72.9177072, 19.0484685 ], [ 72.917741, 19.0488442 ] ] ] } },
{ "type": "Feature", "properties": { "element": "way", "id": 196092411, "amenity": "police", "name": "Santacruz Police Station", "postal_code": null, "wpt_symbol": null, "description": null, "ele": null, "sym": null, "name:en": "Santacruz Police Station", "check_date": null, "addr:city": null, "addr:postcode": null, "addr:street": null, "addr:housenumber": null, "operator": null, "phone": null, "operator:wikidata": null, "name:mr": "सांताक्रुझ पोलीस ठाणे", "wheelchair": null, "building": null, "layer": null, "landuse": null, "police": null, "addr:district": null, "wikidata": null, "wikipedia": null, "email": null, "fax": null, "opening_hours": null, "type": null }, "geometry": { "type": "Polygon", "coordinates": [ [ [ 72.8347219, 19.0844102 ], [ 72.8354592, 19.084306 ], [ 72.8354511, 19.0838741 ], [ 72.8348283, 19.0838952 ], [ 72.8348109, 19.0840242 ], [ 72.8346724, 19.0840266 ], [ 72.8347219, 19.0844102 ] ] ] } },
{ "type": "Feature", "properties": { "element": "way", "id": 196620996, "amenity": "police", "name": "Versova Police Chowki", "postal_code": null, "wpt_symbol": null, "description": null, "ele": null, "sym": null, "name:en": null, "check_date": null, "addr:city": null, "addr:postcode": null, "addr:street": null, "addr:housenumber": null, "operator": null, "phone": null, "operator:wikidata": null, "name:mr": null, "wheelchair": null, "building": null, "layer": null, "landuse": null, "police": null, "addr:district": null, "wikidata": null, "wikipedia": null, "email": null, "fax": null, "opening_hours": null, "type": null }, "geometry": { "type": "Polygon", "coordinates": [ [ [ 72.8105126, 19.1367547 ], [ 72.8106467, 19.1368512 ], [ 72.8107572, 19.1366621 ], [ 72.8105126, 19.1367547 ] ] ] } },
{ "type": "Feature", "properties": { "element": "way", "id": 207376649, "amenity": "police", "name": "Azad Maidan Police Station", "postal_code": null, "wpt_symbol": null, "description": null, "ele": null, "sym": null, "name:en": null, "check_date": "2026-03-12", "addr:city": null, "addr:postcode": null, "addr:street": null, "addr:housenumber": null, "operator": null, "phone": null, "operator:wikidata": null, "name:mr": null, "wheelchair": null, "building": null, "layer": null, "landuse": "commercial", "police": null, "addr:district": null, "wikidata": null, "wikipedia": null, "email": null, "fax": null, "opening_hours": null, "type": null }, "geometry": { "type": "Polygon", "coordinates": [ [ [ 72.8327955, 18.9419915 ], [ 72.8324878, 18.9415447 ], [ 72.8330704, 18.94112 ], [ 72.8333963, 18.9416055 ], [ 72.8327955, 18.9419915 ] ] ] } },
{ "type": "Feature", "properties": { "element": "way", "id": 207376650, "amenity": "police", "name": null, "postal_code": null, "wpt_symbol": null, "description": null, "ele": null, "sym": null, "name:en": null, "check_date": "2026-03-12", "addr:city": null, "addr:postcode": null, "addr:street": null, "addr:housenumber": null, "operator": null, "phone": null, "operator:wikidata": null, "name:mr": null, "wheelchair": null, "building": null, "layer": null, "landuse": null, "police": null, "addr:district": null, "wikidata": null, "wikipedia": null, "email": null, "fax": null, "opening_hours": null, "type": null }, "geometry": { "type": "Polygon", "coordinates": [ [ [ 72.8337342, 18.9420971 ], [ 72.8333963, 18.9416055 ], [ 72.8327955, 18.9419915 ], [ 72.8331619, 18.9424334 ], [ 72.8337342, 18.9420971 ] ] ] } },
{ "type": "Feature", "properties": { "element": "way", "id": 207380908, "amenity": "police", "name": null, "postal_code": null, "wpt_symbol": null, "description": null, "ele": null, "sym": null, "name:en": null, "check_date": null, "addr:city": null, "addr:postcode": null, "addr:street": null, "addr:housenumber": null, "operator": null, "phone": null, "operator:wikidata": null, "name:mr": null, "wheelchair": null, "building": null, "layer": null, "landuse": null, "police": null, "addr:district": null, "wikidata": null, "wikipedia": null, "email": null, "fax": null, "opening_hours": null, "type": null }, "geometry": { "type": "Polygon", "coordinates": [ [ [ 72.832867, 18.9442041 ], [ 72.8331043, 18.9442525 ], [ 72.8330009, 18.944743 ], [ 72.8330686, 18.945375 ], [ 72.8328829, 18.9451521 ], [ 72.8327895, 18.9446879 ], [ 72.832867, 18.9442041 ] ] ] } },
{ "type": "Feature", "properties": { "element": "way", "id": 207417322, "amenity": "police", "name": "Colaba Police Station", "postal_code": null, "wpt_symbol": null, "description": null, "ele": null, "sym": null, "name:en": null, "check_date": "2026-03-12", "addr:city": null, "addr:postcode": null, "addr:street": null, "addr:housenumber": null, "operator": null, "phone": null, "operator:wikidata": null, "name:mr": null, "wheelchair": null, "building": null, "layer": null, "landuse": null, "police": null, "addr:district": null, "wikidata": null, "wikipedia": null, "email": null, "fax": null, "opening_hours": null, "type": null }, "geometry": { "type": "Polygon", "coordinates": [ [ [ 72.8312571, 18.9224586 ], [ 72.8311884, 18.9222391 ], [ 72.8307095, 18.9224194 ], [ 72.8307496, 18.9225191 ], [ 72.8307959, 18.9226342 ], [ 72.8312571, 18.9224586 ] ] ] } },
{ "type": "Feature", "properties": { "element": "way", "id": 207538317, "amenity": "police", "name": null, "postal_code": null, "wpt_symbol": null, "description": null, "ele": null, "sym": null, "name:en": null, "check_date": null, "addr:city": null, "addr:postcode": null, "addr:street": null, "addr:housenumber": null, "operator": null, "phone": null, "operator:wikidata": null, "name:mr": null, "wheelchair": null, "building": null, "layer": null, "landuse": null, "police": null, "addr:district": null, "wikidata": null, "wikipedia": null, "email": null, "fax": null, "opening_hours": null, "type": null }, "geometry": { "type": "Polygon", "coordinates": [ [ [ 72.8317805, 18.9539771 ], [ 72.832012, 18.9543055 ], [ 72.8320625, 18.9543314 ], [ 72.8321004, 18.9543155 ], [ 72.8321741, 18.9540229 ], [ 72.8317805, 18.9539771 ] ] ] } },
{ "type": "Feature", "properties": { "element": "way", "id": 235939616, "amenity": "police", "name": "RPF Reserve Line - Mulund", "postal_code": null, "wpt_symbol": null, "description": null, "ele": null, "sym": null, "name:en": null, "check_date": null, "addr:city": null, "addr:postcode": null, "addr:street": null, "addr:housenumber": null, "operator": "Indian Railways", "phone": null, "operator:wikidata": "Q3523040", "name:mr": null, "wheelchair": null, "building": null, "layer": null, "landuse": null, "police": "barracks", "addr:district": null, "wikidata": null, "wikipedia": null, "email": null, "fax": null, "opening_hours": null, "type": null }, "geometry": { "type": "Polygon", "coordinates": [ [ [ 72.9591816, 19.1734518 ], [ 72.9590817, 19.1733566 ], [ 72.9588666, 19.173106 ], [ 72.9586519, 19.1728593 ], [ 72.9584211, 19.1725868 ], [ 72.9582768, 19.1725623 ], [ 72.9578622, 19.1728963 ], [ 72.9585994, 19.1736443 ], [ 72.9591666, 19.1742199 ], [ 72.9609852, 19.1759898 ], [ 72.9612302, 19.175858 ], [ 72.9607701, 19.1753912 ], [ 72.9603106, 19.1749621 ], [ 72.9600511, 19.1747109 ], [ 72.9598906, 19.1745503 ], [ 72.9595586, 19.1742179 ], [ 72.9590266, 19.1737098 ], [ 72.9591816, 19.1734518 ] ] ] } },
{ "type": "Feature", "properties": { "element": "way", "id": 237025775, "amenity": "police", "name": null, "postal_code": null, "wpt_symbol": null, "description": null, "ele": null, "sym": null, "name:en": null, "check_date": "2026-03-20", "addr:city": null, "addr:postcode": null, "addr:street": null, "addr:housenumber": null, "operator": null, "phone": null, "operator:wikidata": null, "name:mr": null, "wheelchair": null, "building": null, "layer": null, "landuse": null, "police": null, "addr:district": null, "wikidata": null, "wikipedia": null, "email": null, "fax": null, "opening_hours": null, "type": null }, "geometry": { "type": "Polygon", "coordinates": [ [ [ 72.817174, 18.9610709 ], [ 72.8170761, 18.9611018 ], [ 72.8170972, 18.9611888 ], [ 72.8166235, 18.9613521 ], [ 72.816378, 18.9608025 ], [ 72.8165871, 18.9606745 ], [ 72.8168298, 18.9605735 ], [ 72.8171809, 18.9605673 ], [ 72.817174, 18.9610709 ] ] ] } },
{ "type": "Feature", "properties": { "element": "way", "id": 308016832, "amenity": "police", "name": "Dharavi Police Station", "postal_code": null, "wpt_symbol": null, "description": null, "ele": null, "sym": null, "name:en": null, "check_date": null, "addr:city": null, "addr:postcode": null, "addr:street": null, "addr:housenumber": null, "operator": null, "phone": null, "operator:wikidata": null, "name:mr": null, "wheelchair": null, "building": null, "layer": null, "landuse": null, "police": null, "addr:district": null, "wikidata": null, "wikipedia": null, "email": null, "fax": null, "opening_hours": null, "type": null }, "geometry": { "type": "Polygon", "coordinates": [ [ [ 72.8575353, 19.0432838 ], [ 72.8574848, 19.04323 ], [ 72.8574655, 19.0432431 ], [ 72.8575152, 19.0433028 ], [ 72.8575353, 19.0432838 ] ] ] } },
{ "type": "Feature", "properties": { "element": "way", "id": 312763210, "amenity": "police", "name": "Borivali Police Station", "postal_code": null, "wpt_symbol": null, "description": null, "ele": null, "sym": null, "name:en": null, "check_date": null, "addr:city": null, "addr:postcode": null, "addr:street": null, "addr:housenumber": null, "operator": null, "phone": null, "operator:wikidata": null, "name:mr": null, "wheelchair": null, "building": "yes", "layer": null, "landuse": null, "police": null, "addr:district": null, "wikidata": null, "wikipedia": null, "email": null, "fax": null, "opening_hours": null, "type": null }, "geometry": { "type": "Polygon", "coordinates": [ [ [ 72.8557803, 19.2294981 ], [ 72.8558122, 19.2294863 ], [ 72.8557969, 19.2294492 ], [ 72.8559984, 19.229375 ], [ 72.8560849, 19.2295842 ], [ 72.8560226, 19.2296072 ], [ 72.8560495, 19.2296722 ], [ 72.8558784, 19.2297353 ], [ 72.8557803, 19.2294981 ] ] ] } },
{ "type": "Feature", "properties": { "element": "way", "id": 317222141, "amenity": "police", "name": "Mulund Police Station", "postal_code": null, "wpt_symbol": null, "description": null, "ele": null, "sym": null, "name:en": null, "check_date": null, "addr:city": "Mulund (West)", "addr:postcode": null, "addr:street": "Subhash Chandra Bose Road", "addr:housenumber": null, "operator": null, "phone": null, "operator:wikidata": null, "name:mr": null, "wheelchair": null, "building": null, "layer": null, "landuse": null, "police": null, "addr:district": null, "wikidata": null, "wikipedia": null, "email": null, "fax": null, "opening_hours": null, "type": null }, "geometry": { "type": "Polygon", "coordinates": [ [ [ 72.9516442, 19.1776035 ], [ 72.952017, 19.1772855 ], [ 72.9517394, 19.1769917 ], [ 72.9513719, 19.1773135 ], [ 72.9516442, 19.1776035 ] ] ] } },
{ "type": "Feature", "properties": { "element": "way", "id": 347008831, "amenity": "police", "name": "beat no 2", "postal_code": null, "wpt_symbol": null, "description": null, "ele": null, "sym": null, "name:en": null, "check_date": null, "addr:city": null, "addr:postcode": null, "addr:street": null, "addr:housenumber": null, "operator": null, "phone": null, "operator:wikidata": null, "name:mr": null, "wheelchair": null, "building": "yes", "layer": null, "landuse": null, "police": null, "addr:district": null, "wikidata": null, "wikipedia": null, "email": null, "fax": null, "opening_hours": null, "type": null }, "geometry": { "type": "Polygon", "coordinates": [ [ [ 72.8907912, 19.0617506 ], [ 72.8908464, 19.0619072 ], [ 72.8909436, 19.0618864 ], [ 72.8908817, 19.0617131 ], [ 72.8907912, 19.0617506 ] ] ] } },
{ "type": "Feature", "properties": { "element": "way", "id": 353192704, "amenity": "police", "name": "Bail Bazar Police Station", "postal_code": null, "wpt_symbol": null, "description": null, "ele": null, "sym": null, "name:en": null, "check_date": null, "addr:city": null, "addr:postcode": null, "addr:street": null, "addr:housenumber": null, "operator": null, "phone": null, "operator:wikidata": null, "name:mr": null, "wheelchair": null, "building": "yes", "layer": null, "landuse": null, "police": null, "addr:district": null, "wikidata": null, "wikipedia": null, "email": null, "fax": null, "opening_hours": null, "type": null }, "geometry": { "type": "Polygon", "coordinates": [ [ [ 72.8809891, 19.0853248 ], [ 72.8810837, 19.0853692 ], [ 72.8811395, 19.085263 ], [ 72.8810449, 19.0852186 ], [ 72.8809891, 19.0853248 ] ] ] } },
{ "type": "Feature", "properties": { "element": "way", "id": 353758584, "amenity": "police", "name": "Cuffe Parade Police Station", "postal_code": null, "wpt_symbol": null, "description": null, "ele": null, "sym": null, "name:en": null, "check_date": null, "addr:city": "Mumbai", "addr:postcode": "400005", "addr:street": "Sadhu Vaswani Marg,Ganesh Murti Nagar, Cuffe Parade", "addr:housenumber": null, "operator": null, "phone": null, "operator:wikidata": null, "name:mr": null, "wheelchair": null, "building": "yes", "layer": null, "landuse": null, "police": null, "addr:district": "Mumbai City", "wikidata": null, "wikipedia": null, "email": null, "fax": null, "opening_hours": null, "type": null }, "geometry": { "type": "Polygon", "coordinates": [ [ [ 72.8185948, 18.9118579 ], [ 72.8187646, 18.9120686 ], [ 72.818898, 18.9119725 ], [ 72.8187282, 18.9117618 ], [ 72.8185948, 18.9118579 ] ] ] } },
{ "type": "Feature", "properties": { "element": "way", "id": 353810415, "amenity": "police", "name": "Worli Police Station", "postal_code": null, "wpt_symbol": null, "description": null, "ele": null, "sym": null, "name:en": "Worli Police Station", "check_date": null, "addr:city": null, "addr:postcode": null, "addr:street": null, "addr:housenumber": null, "operator": null, "phone": null, "operator:wikidata": null, "name:mr": "वरळी पोलीस ठाणे", "wheelchair": null, "building": "yes", "layer": null, "landuse": null, "police": null, "addr:district": null, "wikidata": null, "wikipedia": null, "email": null, "fax": null, "opening_hours": null, "type": null }, "geometry": { "type": "Polygon", "coordinates": [ [ [ 72.8172655, 19.0050863 ], [ 72.81737, 19.0052697 ], [ 72.8173791, 19.0052651 ], [ 72.8174013, 19.0053041 ], [ 72.8174524, 19.005278 ], [ 72.81744, 19.0052562 ], [ 72.8175085, 19.0052212 ], [ 72.8173942, 19.0050207 ], [ 72.8172655, 19.0050863 ] ] ] } },
{ "type": "Feature", "properties": { "element": "way", "id": 354063829, "amenity": "police", "name": "Kopri Police Station", "postal_code": null, "wpt_symbol": null, "description": null, "ele": null, "sym": null, "name:en": null, "check_date": null, "addr:city": null, "addr:postcode": null, "addr:street": null, "addr:housenumber": null, "operator": null, "phone": null, "operator:wikidata": null, "name:mr": null, "wheelchair": null, "building": "yes", "layer": null, "landuse": null, "police": null, "addr:district": null, "wikidata": null, "wikipedia": null, "email": null, "fax": null, "opening_hours": null, "type": null }, "geometry": { "type": "Polygon", "coordinates": [ [ [ 72.9691731, 19.1783214 ], [ 72.9693361, 19.1783338 ], [ 72.9693437, 19.1782447 ], [ 72.9693094, 19.1782421 ], [ 72.9691806, 19.1782324 ], [ 72.9691731, 19.1783214 ] ] ] } },
{ "type": "Feature", "properties": { "element": "way", "id": 354066127, "amenity": "police", "name": "Dadar Police Station", "postal_code": null, "wpt_symbol": null, "description": null, "ele": null, "sym": null, "name:en": null, "check_date": null, "addr:city": null, "addr:postcode": null, "addr:street": null, "addr:housenumber": null, "operator": null, "phone": null, "operator:wikidata": null, "name:mr": null, "wheelchair": null, "building": "yes", "layer": null, "landuse": null, "police": null, "addr:district": null, "wikidata": "Q6935316", "wikipedia": "en:Mumbai Police", "email": null, "fax": null, "opening_hours": null, "type": null }, "geometry": { "type": "Polygon", "coordinates": [ [ [ 72.8353951, 19.0151267 ], [ 72.8354475, 19.0150941 ], [ 72.8354655, 19.01512 ], [ 72.8355396, 19.0150739 ], [ 72.8355216, 19.015048 ], [ 72.8355788, 19.0150125 ], [ 72.835513, 19.0149179 ], [ 72.8353293, 19.0150321 ], [ 72.8353951, 19.0151267 ] ] ] } },
{ "type": "Feature", "properties": { "element": "way", "id": 356258967, "amenity": "police", "name": "Bandra Railway Police Station", "postal_code": null, "wpt_symbol": null, "description": null, "ele": null, "sym": null, "name:en": "Bandra Railway Police Station", "check_date": null, "addr:city": null, "addr:postcode": null, "addr:street": null, "addr:housenumber": null, "operator": null, "phone": null, "operator:wikidata": null, "name:mr": null, "wheelchair": null, "building": "yes", "layer": null, "landuse": null, "police": null, "addr:district": null, "wikidata": null, "wikipedia": null, "email": null, "fax": null, "opening_hours": null, "type": null }, "geometry": { "type": "Polygon", "coordinates": [ [ [ 72.8396832, 19.0556583 ], [ 72.839913, 19.0557273 ], [ 72.8399523, 19.0556105 ], [ 72.8397225, 19.0555415 ], [ 72.8396832, 19.0556583 ] ] ] } },
{ "type": "Feature", "properties": { "element": "way", "id": 357472397, "amenity": "police", "name": "Additional Commisioner of Police, Mumbai, West Region", "postal_code": null, "wpt_symbol": null, "description": "Dr. Chhering Dorje, Addl. C.P. ( W.R. ) \nBandra West", "ele": null, "sym": null, "name:en": null, "check_date": null, "addr:city": "Mumbai", "addr:postcode": "400050", "addr:street": "Govind Patel Road (Carter Road)", "addr:housenumber": "105", "operator": "Mumbai Police", "phone": "+91 22 26402122", "operator:wikidata": null, "name:mr": null, "wheelchair": null, "building": "yes", "layer": null, "landuse": null, "police": null, "addr:district": null, "wikidata": null, "wikipedia": null, "email": "cp.mum.addcp.west@mahapolice.gov.in", "fax": "26408688", "opening_hours": null, "type": null }, "geometry": { "type": "Polygon", "coordinates": [ [ [ 72.8226253, 19.0627641 ], [ 72.8226526, 19.0628802 ], [ 72.8227492, 19.0628599 ], [ 72.8227219, 19.0627438 ], [ 72.8226253, 19.0627641 ] ] ] } },
{ "type": "Feature", "properties": { "element": "way", "id": 417320262, "amenity": "police", "name": "Oshiwara Police Station", "postal_code": null, "wpt_symbol": null, "description": null, "ele": null, "sym": null, "name:en": null, "check_date": "2024-09-25", "addr:city": null, "addr:postcode": null, "addr:street": null, "addr:housenumber": null, "operator": null, "phone": null, "operator:wikidata": null, "name:mr": null, "wheelchair": null, "building": "yes", "layer": null, "landuse": null, "police": null, "addr:district": null, "wikidata": null, "wikipedia": null, "email": null, "fax": null, "opening_hours": null, "type": null }, "geometry": { "type": "Polygon", "coordinates": [ [ [ 72.8314331, 19.1476978 ], [ 72.8318993, 19.1476617 ], [ 72.8318754, 19.1475081 ], [ 72.8314259, 19.1475329 ], [ 72.8314331, 19.1476978 ] ] ] } },
{ "type": "Feature", "properties": { "element": "way", "id": 427979103, "amenity": "police", "name": null, "postal_code": null, "wpt_symbol": null, "description": null, "ele": null, "sym": null, "name:en": null, "check_date": null, "addr:city": null, "addr:postcode": null, "addr:street": null, "addr:housenumber": null, "operator": null, "phone": null, "operator:wikidata": null, "name:mr": null, "wheelchair": null, "building": "yes", "layer": null, "landuse": null, "police": null, "addr:district": null, "wikidata": null, "wikipedia": null, "email": null, "fax": null, "opening_hours": null, "type": null }, "geometry": { "type": "Polygon", "coordinates": [ [ [ 72.8046538, 19.2287889 ], [ 72.8048228, 19.2287104 ], [ 72.8047772, 19.228604 ], [ 72.8046082, 19.22868 ], [ 72.8046538, 19.2287889 ] ] ] } },
{ "type": "Feature", "properties": { "element": "way", "id": 621696888, "amenity": "police", "name": "Goregaon Police Station", "postal_code": null, "wpt_symbol": null, "description": null, "ele": null, "sym": null, "name:en": null, "check_date": null, "addr:city": null, "addr:postcode": null, "addr:street": null, "addr:housenumber": null, "operator": null, "phone": null, "operator:wikidata": null, "name:mr": null, "wheelchair": null, "building": "yes", "layer": null, "landuse": null, "police": null, "addr:district": null, "wikidata": null, "wikipedia": null, "email": null, "fax": null, "opening_hours": null, "type": null }, "geometry": { "type": "Polygon", "coordinates": [ [ [ 72.845809, 19.1574003 ], [ 72.8458037, 19.1572141 ], [ 72.8451318, 19.1572229 ], [ 72.8451358, 19.1574168 ], [ 72.845809, 19.1574003 ] ] ] } },
{ "type": "Feature", "properties": { "element": "way", "id": 627802514, "amenity": "police", "name": "Nehru Nagar Kurla Police Station", "postal_code": null, "wpt_symbol": null, "description": null, "ele": null, "sym": null, "name:en": null, "check_date": null, "addr:city": "Mumbai", "addr:postcode": "400024", "addr:street": null, "addr:housenumber": null, "operator": null, "phone": null, "operator:wikidata": null, "name:mr": null, "wheelchair": null, "building": "yes", "layer": null, "landuse": null, "police": null, "addr:district": null, "wikidata": null, "wikipedia": null, "email": null, "fax": null, "opening_hours": "24/7", "type": null }, "geometry": { "type": "Polygon", "coordinates": [ [ [ 72.880497, 19.0588646 ], [ 72.8805882, 19.0588595 ], [ 72.8806177, 19.0587455 ], [ 72.8805185, 19.0587277 ], [ 72.8804863, 19.0588139 ], [ 72.8804675, 19.0588342 ], [ 72.880497, 19.0588646 ] ] ] } },
{ "type": "Feature", "properties": { "element": "way", "id": 628861218, "amenity": "police", "name": "Marol Police Camp", "postal_code": null, "wpt_symbol": null, "description": null, "ele": null, "sym": null, "name:en": null, "check_date": null, "addr:city": "Mumbai", "addr:postcode": "400059", "addr:street": "Marol Maroshi Village Road", "addr:housenumber": null, "operator": null, "phone": null, "operator:wikidata": null, "name:mr": null, "wheelchair": null, "building": null, "layer": null, "landuse": null, "police": "barracks", "addr:district": null, "wikidata": null, "wikipedia": null, "email": null, "fax": null, "opening_hours": null, "type": null }, "geometry": { "type": "Polygon", "coordinates": [ [ [ 72.8840893, 19.127856 ], [ 72.8832793, 19.1276279 ], [ 72.8823888, 19.1271566 ], [ 72.8818256, 19.1267105 ], [ 72.8813374, 19.1263102 ], [ 72.8809136, 19.1258287 ], [ 72.8803182, 19.1249468 ], [ 72.8800178, 19.1245109 ], [ 72.8800821, 19.1240243 ], [ 72.880066, 19.1233502 ], [ 72.8801787, 19.1219767 ], [ 72.8810209, 19.1219666 ], [ 72.8809994, 19.1223467 ], [ 72.8811175, 19.1225849 ], [ 72.8816003, 19.1232033 ], [ 72.8818148, 19.1235074 ], [ 72.8819275, 19.1238267 ], [ 72.8821045, 19.1239179 ], [ 72.8829789, 19.1240345 ], [ 72.8831077, 19.1243994 ], [ 72.8838748, 19.1241358 ], [ 72.8840196, 19.1245667 ], [ 72.8857255, 19.1241612 ], [ 72.8866911, 19.1243791 ], [ 72.8865784, 19.1249569 ], [ 72.8864282, 19.1261328 ], [ 72.8863531, 19.1266193 ], [ 72.8862673, 19.1268575 ], [ 72.8861493, 19.1269538 ], [ 72.8859723, 19.1269994 ], [ 72.8853607, 19.1271008 ], [ 72.8849208, 19.1272326 ], [ 72.8844273, 19.1274657 ], [ 72.8841484, 19.1277242 ], [ 72.8840893, 19.127856 ] ] ] } },
{ "type": "Feature", "properties": { "element": "way", "id": 816431603, "amenity": "police", "name": "Trombay Police Station", "postal_code": null, "wpt_symbol": null, "description": null, "ele": null, "sym": null, "name:en": null, "check_date": null, "addr:city": null, "addr:postcode": null, "addr:street": null, "addr:housenumber": null, "operator": "Maharashtra Police", "phone": null, "operator:wikidata": null, "name:mr": null, "wheelchair": null, "building": "yes", "layer": null, "landuse": null, "police": null, "addr:district": null, "wikidata": null, "wikipedia": null, "email": null, "fax": null, "opening_hours": null, "type": null }, "geometry": { "type": "Polygon", "coordinates": [ [ [ 72.9451066, 19.0380695 ], [ 72.9452754, 19.0381717 ], [ 72.9454043, 19.0379407 ], [ 72.9452473, 19.0378594 ], [ 72.9451066, 19.0380695 ] ] ] } },
{ "type": "Feature", "properties": { "element": "way", "id": 829610657, "amenity": "police", "name": "Byculla Police Station", "postal_code": null, "wpt_symbol": null, "description": null, "ele": null, "sym": null, "name:en": null, "check_date": null, "addr:city": "Mumbai", "addr:postcode": "400010", "addr:street": "Seth Moti Shah Road (Love Lane)", "addr:housenumber": null, "operator": "Mumbai Police", "phone": null, "operator:wikidata": null, "name:mr": null, "wheelchair": null, "building": null, "layer": null, "landuse": null, "police": null, "addr:district": null, "wikidata": null, "wikipedia": null, "email": null, "fax": null, "opening_hours": null, "type": null }, "geometry": { "type": "Polygon", "coordinates": [ [ [ 72.833976, 18.9738629 ], [ 72.8338814, 18.973696 ], [ 72.8338254, 18.9735312 ], [ 72.8337673, 18.9733867 ], [ 72.833735, 18.9732687 ], [ 72.8336102, 18.9730022 ], [ 72.833976, 18.9728496 ], [ 72.8340255, 18.9727926 ], [ 72.8342988, 18.9726929 ], [ 72.8343784, 18.9729025 ], [ 72.8342816, 18.9730245 ], [ 72.8341439, 18.9730836 ], [ 72.8342708, 18.9736187 ], [ 72.833976, 18.9738629 ] ] ] } },
{ "type": "Feature", "properties": { "element": "way", "id": 1009581717, "amenity": "police", "name": "Cuffe Parade Police Station", "postal_code": null, "wpt_symbol": null, "description": null, "ele": null, "sym": null, "name:en": null, "check_date": null, "addr:city": null, "addr:postcode": null, "addr:street": null, "addr:housenumber": null, "operator": null, "phone": null, "operator:wikidata": null, "name:mr": null, "wheelchair": null, "building": null, "layer": null, "landuse": null, "police": null, "addr:district": null, "wikidata": null, "wikipedia": null, "email": null, "fax": null, "opening_hours": null, "type": null }, "geometry": { "type": "Polygon", "coordinates": [ [ [ 72.8190816, 18.9120253 ], [ 72.8187343, 18.9116021 ], [ 72.81845, 18.9118109 ], [ 72.8187973, 18.9122341 ], [ 72.8190816, 18.9120253 ] ] ] } },
{ "type": "Feature", "properties": { "element": "way", "id": 1120071108, "amenity": "police", "name": null, "postal_code": null, "wpt_symbol": null, "description": null, "ele": null, "sym": null, "name:en": null, "check_date": null, "addr:city": null, "addr:postcode": null, "addr:street": null, "addr:housenumber": null, "operator": null, "phone": null, "operator:wikidata": null, "name:mr": null, "wheelchair": null, "building": null, "layer": null, "landuse": null, "police": null, "addr:district": null, "wikidata": null, "wikipedia": null, "email": null, "fax": null, "opening_hours": null, "type": null }, "geometry": { "type": "Polygon", "coordinates": [ [ [ 72.9685042, 19.1693073 ], [ 72.9686514, 19.1692229 ], [ 72.9684529, 19.1688657 ], [ 72.9682789, 19.1689552 ], [ 72.9685042, 19.1693073 ] ] ] } },
{ "type": "Feature", "properties": { "element": "way", "id": 1122104211, "amenity": "police", "name": "Mulund Police Chowky", "postal_code": null, "wpt_symbol": null, "description": null, "ele": null, "sym": null, "name:en": null, "check_date": null, "addr:city": null, "addr:postcode": null, "addr:street": null, "addr:housenumber": null, "operator": null, "phone": "+91 22 25684535", "operator:wikidata": null, "name:mr": null, "wheelchair": null, "building": "office", "layer": null, "landuse": null, "police": "checkpoint", "addr:district": null, "wikidata": null, "wikipedia": null, "email": null, "fax": null, "opening_hours": null, "type": null }, "geometry": { "type": "Polygon", "coordinates": [ [ [ 72.9562689, 19.17234 ], [ 72.9563075, 19.172376 ], [ 72.9562825, 19.1723977 ], [ 72.9562443, 19.1723599 ], [ 72.9562689, 19.17234 ] ] ] } },
{ "type": "Feature", "properties": { "element": "way", "id": 1149824750, "amenity": "police", "name": "Kherwadi Police Station", "postal_code": null, "wpt_symbol": null, "description": null, "ele": null, "sym": null, "name:en": null, "check_date": null, "addr:city": null, "addr:postcode": null, "addr:street": null, "addr:housenumber": null, "operator": null, "phone": null, "operator:wikidata": null, "name:mr": null, "wheelchair": null, "building": null, "layer": null, "landuse": null, "police": null, "addr:district": null, "wikidata": null, "wikipedia": null, "email": null, "fax": null, "opening_hours": null, "type": null }, "geometry": { "type": "Polygon", "coordinates": [ [ [ 72.8499824, 19.0654211 ], [ 72.8505617, 19.0658698 ], [ 72.850264, 19.0664681 ], [ 72.8499851, 19.0663338 ], [ 72.8499958, 19.0661918 ], [ 72.8499851, 19.0659991 ], [ 72.8499287, 19.0658622 ], [ 72.8498054, 19.0656315 ], [ 72.8499824, 19.0654211 ] ] ] } },
{ "type": "Feature", "properties": { "element": "way", "id": 1226336527, "amenity": "police", "name": "Juhu Tara Road Police Station", "postal_code": null, "wpt_symbol": null, "description": null, "ele": null, "sym": null, "name:en": "Juhu Tara Road Police Station", "check_date": null, "addr:city": null, "addr:postcode": null, "addr:street": null, "addr:housenumber": null, "operator": null, "phone": null, "operator:wikidata": null, "name:mr": null, "wheelchair": null, "building": "yes", "layer": null, "landuse": null, "police": null, "addr:district": null, "wikidata": null, "wikipedia": null, "email": null, "fax": null, "opening_hours": null, "type": null }, "geometry": { "type": "Polygon", "coordinates": [ [ [ 72.8270418, 19.0964467 ], [ 72.8270159, 19.0965601 ], [ 72.8267887, 19.0965137 ], [ 72.8268146, 19.0964003 ], [ 72.8270418, 19.0964467 ] ] ] } },
{ "type": "Feature", "properties": { "element": "way", "id": 1334676842, "amenity": "police", "name": "Bandra Police Station", "postal_code": null, "wpt_symbol": null, "description": null, "ele": null, "sym": null, "name:en": "Bandra Police Station", "check_date": null, "addr:city": null, "addr:postcode": null, "addr:street": null, "addr:housenumber": null, "operator": "Mumbai Police", "phone": null, "operator:wikidata": null, "name:mr": null, "wheelchair": null, "building": "yes", "layer": null, "landuse": null, "police": null, "addr:district": null, "wikidata": null, "wikipedia": null, "email": null, "fax": null, "opening_hours": null, "type": null }, "geometry": { "type": "Polygon", "coordinates": [ [ [ 72.8355989, 19.0559811 ], [ 72.8356652, 19.0560434 ], [ 72.8358812, 19.0558382 ], [ 72.8358149, 19.0557758 ], [ 72.8355989, 19.0559811 ] ] ] } },
{ "type": "Feature", "properties": { "element": "way", "id": 1381366790, "amenity": "police", "name": "Mahim Traffic Division", "postal_code": null, "wpt_symbol": null, "description": null, "ele": null, "sym": null, "name:en": "Mahim Traffic Division", "check_date": null, "addr:city": null, "addr:postcode": null, "addr:street": null, "addr:housenumber": null, "operator": null, "phone": null, "operator:wikidata": null, "name:mr": "माहीम वाहतुक विभाग", "wheelchair": null, "building": "yes", "layer": null, "landuse": null, "police": null, "addr:district": null, "wikidata": null, "wikipedia": null, "email": null, "fax": null, "opening_hours": null, "type": null }, "geometry": { "type": "Polygon", "coordinates": [ [ [ 72.8401083, 19.0421647 ], [ 72.8402281, 19.0421844 ], [ 72.8402371, 19.042136 ], [ 72.8401173, 19.0421162 ], [ 72.8401083, 19.0421647 ] ] ] } },
{ "type": "Feature", "properties": { "element": "way", "id": 1411467112, "amenity": "police", "name": "Homeguard Central Training Institute", "postal_code": null, "wpt_symbol": null, "description": null, "ele": null, "sym": null, "name:en": null, "check_date": null, "addr:city": null, "addr:postcode": null, "addr:street": null, "addr:housenumber": null, "operator": null, "phone": null, "operator:wikidata": null, "name:mr": null, "wheelchair": null, "building": null, "layer": null, "landuse": null, "police": "academy", "addr:district": null, "wikidata": null, "wikipedia": null, "email": null, "fax": null, "opening_hours": null, "type": null }, "geometry": { "type": "Polygon", "coordinates": [ [ [ 72.8906366, 19.0896192 ], [ 72.8909531, 19.0895483 ], [ 72.891224, 19.0895787 ], [ 72.8914466, 19.089054 ], [ 72.8915995, 19.0886459 ], [ 72.8929755, 19.0892238 ], [ 72.893174, 19.0893531 ], [ 72.8926966, 19.0912212 ], [ 72.8922191, 19.0921539 ], [ 72.8920341, 19.0921007 ], [ 72.8919375, 19.0921742 ], [ 72.891629, 19.0916597 ], [ 72.8912348, 19.0913175 ], [ 72.8911328, 19.0910615 ], [ 72.890996, 19.0905926 ], [ 72.8906554, 19.0898093 ], [ 72.8906366, 19.0896192 ] ] ] } },
{ "type": "Feature", "properties": { "element": "way", "id": 1424156817, "amenity": "police", "name": null, "postal_code": null, "wpt_symbol": null, "description": null, "ele": null, "sym": null, "name:en": null, "check_date": null, "addr:city": null, "addr:postcode": null, "addr:street": null, "addr:housenumber": null, "operator": null, "phone": null, "operator:wikidata": null, "name:mr": null, "wheelchair": null, "building": "yes", "layer": null, "landuse": null, "police": null, "addr:district": null, "wikidata": null, "wikipedia": null, "email": null, "fax": null, "opening_hours": null, "type": null }, "geometry": { "type": "Polygon", "coordinates": [ [ [ 72.8352559, 19.084055 ], [ 72.835317, 19.0840566 ], [ 72.8353155, 19.084105 ], [ 72.8353948, 19.084107 ], [ 72.8353927, 19.0841801 ], [ 72.8353278, 19.0841785 ], [ 72.8353267, 19.0842161 ], [ 72.8352513, 19.0842142 ], [ 72.8352559, 19.084055 ] ] ] } },
{ "type": "Feature", "properties": { "element": "way", "id": 1428230096, "amenity": "police", "name": "Bandra Reclamation Police Station", "postal_code": null, "wpt_symbol": null, "description": null, "ele": null, "sym": null, "name:en": "Bandra Reclamation Police Station", "check_date": null, "addr:city": null, "addr:postcode": null, "addr:street": null, "addr:housenumber": null, "operator": null, "phone": null, "operator:wikidata": null, "name:mr": "वांद्रे रिक्लेमेशन पोलीस चौकी", "wheelchair": null, "building": "yes", "layer": null, "landuse": null, "police": null, "addr:district": null, "wikidata": null, "wikipedia": null, "email": null, "fax": null, "opening_hours": null, "type": null }, "geometry": { "type": "Polygon", "coordinates": [ [ [ 72.8299171, 19.0507509 ], [ 72.8299442, 19.0507657 ], [ 72.8299313, 19.0507866 ], [ 72.8299043, 19.0507718 ], [ 72.8299171, 19.0507509 ] ] ] } },
{ "type": "Feature", "properties": { "element": "way", "id": 1442619090, "amenity": "police", "name": "Nagpada Police Station", "postal_code": null, "wpt_symbol": null, "description": null, "ele": null, "sym": null, "name:en": "Nagpada Police Station", "check_date": null, "addr:city": null, "addr:postcode": null, "addr:street": null, "addr:housenumber": null, "operator": null, "phone": null, "operator:wikidata": null, "name:mr": null, "wheelchair": null, "building": "yes", "layer": null, "landuse": null, "police": null, "addr:district": null, "wikidata": null, "wikipedia": null, "email": null, "fax": null, "opening_hours": null, "type": null }, "geometry": { "type": "Polygon", "coordinates": [ [ [ 72.8290443, 18.9670148 ], [ 72.8293746, 18.9668995 ], [ 72.8294337, 18.967051 ], [ 72.8293379, 18.9670845 ], [ 72.8293134, 18.9670218 ], [ 72.8291675, 18.9670727 ], [ 72.8291897, 18.9671298 ], [ 72.8291012, 18.9671607 ], [ 72.8290443, 18.9670148 ] ] ] } },
{ "type": "Feature", "properties": { "element": "way", "id": 1457063703, "amenity": "police", "name": "Chhota Sonapur Police Chowki", "postal_code": null, "wpt_symbol": null, "description": null, "ele": null, "sym": null, "name:en": null, "check_date": null, "addr:city": null, "addr:postcode": null, "addr:street": null, "addr:housenumber": null, "operator": null, "phone": null, "operator:wikidata": null, "name:mr": null, "wheelchair": null, "building": "yes", "layer": null, "landuse": null, "police": null, "addr:district": null, "wikidata": null, "wikipedia": null, "email": null, "fax": null, "opening_hours": null, "type": null }, "geometry": { "type": "Polygon", "coordinates": [ [ [ 72.8245608, 18.9620558 ], [ 72.8245554, 18.9619313 ], [ 72.8246239, 18.9619287 ], [ 72.8246293, 18.9620531 ], [ 72.8245608, 18.9620558 ] ] ] } },
{ "type": "Feature", "properties": { "element": "way", "id": 1457969605, "amenity": "police", "name": "Shivajinagar Police Station", "postal_code": null, "wpt_symbol": null, "description": null, "ele": null, "sym": null, "name:en": null, "check_date": null, "addr:city": null, "addr:postcode": null, "addr:street": null, "addr:housenumber": null, "operator": null, "phone": null, "operator:wikidata": null, "name:mr": null, "wheelchair": null, "building": null, "layer": null, "landuse": null, "police": null, "addr:district": null, "wikidata": null, "wikipedia": null, "email": null, "fax": null, "opening_hours": null, "type": null }, "geometry": { "type": "Polygon", "coordinates": [ [ [ 72.9168727, 19.0632617 ], [ 72.9169878, 19.0635944 ], [ 72.9167676, 19.0636804 ], [ 72.916629, 19.0633216 ], [ 72.9168727, 19.0632617 ] ] ] } },
{ "type": "Feature", "properties": { "element": "way", "id": 1468852699, "amenity": "police", "name": "Colaba Traffic Police Division", "postal_code": null, "wpt_symbol": null, "description": null, "ele": null, "sym": null, "name:en": "Colaba Traffic Police Division", "check_date": null, "addr:city": null, "addr:postcode": null, "addr:street": null, "addr:housenumber": null, "operator": null, "phone": null, "operator:wikidata": null, "name:mr": null, "wheelchair": null, "building": "yes", "layer": null, "landuse": null, "police": null, "addr:district": null, "wikidata": null, "wikipedia": null, "email": null, "fax": null, "opening_hours": null, "type": null }, "geometry": { "type": "Polygon", "coordinates": [ [ [ 72.8303253, 18.9350543 ], [ 72.8303624, 18.9350508 ], [ 72.8303687, 18.9351128 ], [ 72.8303317, 18.9351162 ], [ 72.8303253, 18.9350543 ] ] ] } },
{ "type": "Feature", "properties": { "element": "way", "id": 1523903435, "amenity": "police", "name": "Bangur Nagar Link Road Police Station", "postal_code": null, "wpt_symbol": null, "description": null, "ele": null, "sym": null, "name:en": null, "check_date": null, "addr:city": null, "addr:postcode": null, "addr:street": null, "addr:housenumber": null, "operator": "Maharashtra Police", "phone": null, "operator:wikidata": null, "name:mr": null, "wheelchair": null, "building": "yes", "layer": null, "landuse": null, "police": null, "addr:district": null, "wikidata": null, "wikipedia": null, "email": null, "fax": null, "opening_hours": null, "type": null }, "geometry": { "type": "Polygon", "coordinates": [ [ [ 72.8316789, 19.175391 ], [ 72.8316561, 19.1752659 ], [ 72.8317699, 19.1752475 ], [ 72.8317656, 19.1752239 ], [ 72.8318231, 19.1752146 ], [ 72.831827, 19.1752358 ], [ 72.8319722, 19.1752123 ], [ 72.8319679, 19.1751885 ], [ 72.8319805, 19.1751864 ], [ 72.8319698, 19.1751276 ], [ 72.8321803, 19.1750935 ], [ 72.8322072, 19.1752416 ], [ 72.8319191, 19.1752882 ], [ 72.8319303, 19.1753503 ], [ 72.8316789, 19.175391 ] ] ] } }
]
}
