{
"type": "FeatureCollection",
"name": "universities",
"crs": { "type": "name", "properties": { "name": "urn:ogc:def:crs:OGC:1.3:CRS84" } },
"features": [
{ "type": "Feature", "properties": { "element": "node", "id": 7411177794, "amenity": "university", "name": "Swami Educational Society-Madurai Kamaraj University", "addr:housenumber": null, "check_date": null, "operator": null, "tag": null, "alt_name": null, "name:hi": null, "name:ml": null, "wikidata": null, "wikipedia": null, "education": null, "addr:street": null, "building": null, "name:fa": null, "addr:postcode": null, "barrier": null, "name:en": null, "old_name": null, "wikimedia_commons": null, "addr:city": null, "internet_access": null, "area": null, "isced:level": null, "name:etymology:wikidata": null, "short_name": null, "short_name:en": null, "addr:district": null, "addr:housename": null, "addr:place": null, "operator:type": null, "type": null, "website": null, "contact:facebook": null, "contact:instagram": null, "contact:linkedin": null, "name:mr": null, "phone": null, "school:gender": null, "wheelchair": null, "isced:2011:level": null, "name:ar": null, "name:ta": null }, "geometry": { "type": "Point", "coordinates": [ 72.8170518, 18.9706634 ] } },
{ "type": "Feature", "properties": { "element": "node", "id": 7453717295, "amenity": "university", "name": "The Dadar Parsee Youths Assembly High School", "addr:housenumber": null, "check_date": null, "operator": null, "tag": null, "alt_name": null, "name:hi": null, "name:ml": null, "wikidata": null, "wikipedia": null, "education": null, "addr:street": null, "building": null, "name:fa": null, "addr:postcode": null, "barrier": null, "name:en": null, "old_name": null, "wikimedia_commons": null, "addr:city": null, "internet_access": null, "area": null, "isced:level": null, "name:etymology:wikidata": null, "short_name": null, "short_name:en": null, "addr:district": null, "addr:housename": null, "addr:place": null, "operator:type": null, "type": null, "website": null, "contact:facebook": null, "contact:instagram": null, "contact:linkedin": null, "name:mr": null, "phone": null, "school:gender": null, "wheelchair": null, "isced:2011:level": null, "name:ar": null, "name:ta": null }, "geometry": { "type": "Point", "coordinates": [ 72.8535649, 19.0179439 ] } },
{ "type": "Feature", "properties": { "element": "node", "id": 7463765613, "amenity": "university", "name": "Kendriya Vidyalaya Mankhurd", "addr:housenumber": "B-Camp (Nausena Baug Near Mandala, Opp. to Narmadeshwar Mandir, Mankhurd, Mumbai, Maharashtra 400088", "check_date": null, "operator": null, "tag": null, "alt_name": null, "name:hi": null, "name:ml": null, "wikidata": null, "wikipedia": null, "education": null, "addr:street": null, "building": null, "name:fa": null, "addr:postcode": null, "barrier": null, "name:en": null, "old_name": null, "wikimedia_commons": null, "addr:city": null, "internet_access": null, "area": null, "isced:level": null, "name:etymology:wikidata": null, "short_name": null, "short_name:en": null, "addr:district": null, "addr:housename": null, "addr:place": null, "operator:type": null, "type": null, "website": null, "contact:facebook": null, "contact:instagram": null, "contact:linkedin": null, "name:mr": null, "phone": null, "school:gender": null, "wheelchair": null, "isced:2011:level": null, "name:ar": null, "name:ta": null }, "geometry": { "type": "Point", "coordinates": [ 72.9393322, 19.0392488 ] } },
{ "type": "Feature", "properties": { "element": "node", "id": 7463765614, "amenity": "university", "name": "Naval KG School,Mankhurd", "addr:housenumber": "P-36, VN Purav Rd, Nausena Baugh, Mankhurd, Mumbai, Maharashtra 400088", "check_date": null, "operator": null, "tag": null, "alt_name": null, "name:hi": null, "name:ml": null, "wikidata": null, "wikipedia": null, "education": null, "addr:street": null, "building": null, "name:fa": null, "addr:postcode": null, "barrier": null, "name:en": null, "old_name": null, "wikimedia_commons": null, "addr:city": null, "internet_access": null, "area": null, "isced:level": null, "name:etymology:wikidata": null, "short_name": null, "short_name:en": null, "addr:district": null, "addr:housename": null, "addr:place": null, "operator:type": null, "type": null, "website": null, "contact:facebook": null, "contact:instagram": null, "contact:linkedin": null, "name:mr": null, "phone": null, "school:gender": null, "wheelchair": null, "isced:2011:level": null, "name:ar": null, "name:ta": null }, "geometry": { "type": "Point", "coordinates": [ 72.938827, 19.0391251 ] } },
{ "type": "Feature", "properties": { "element": "node", "id": 7463765615, "amenity": "university", "name": "NOFRA, Mankhurd", "addr:housenumber": "VN Purav Rd, Nausena Baug, Mankhurd, Mumbai, Maharashtra 400088", "check_date": null, "operator": null, "tag": null, "alt_name": null, "name:hi": null, "name:ml": null, "wikidata": null, "wikipedia": null, "education": null, "addr:street": null, "building": null, "name:fa": null, "addr:postcode": null, "barrier": null, "name:en": null, "old_name": null, "wikimedia_commons": null, "addr:city": null, "internet_access": null, "area": null, "isced:level": null, "name:etymology:wikidata": null, "short_name": null, "short_name:en": null, "addr:district": null, "addr:housename": null, "addr:place": null, "operator:type": null, "type": null, "website": null, "contact:facebook": null, "contact:instagram": null, "contact:linkedin": null, "name:mr": null, "phone": null, "school:gender": null, "wheelchair": null, "isced:2011:level": null, "name:ar": null, "name:ta": null }, "geometry": { "type": "Point", "coordinates": [ 72.9400359, 19.039155 ] } },
{ "type": "Feature", "properties": { "element": "node", "id": 7463765700, "amenity": "university", "name": "Atomic Energy Central School -1", "addr:housenumber": "Anushakti Nagar, Mumbai, Maharashtra 400094", "check_date": null, "operator": null, "tag": null, "alt_name": null, "name:hi": null, "name:ml": null, "wikidata": null, "wikipedia": null, "education": null, "addr:street": null, "building": null, "name:fa": null, "addr:postcode": null, "barrier": null, "name:en": null, "old_name": null, "wikimedia_commons": null, "addr:city": null, "internet_access": null, "area": null, "isced:level": null, "name:etymology:wikidata": null, "short_name": null, "short_name:en": null, "addr:district": null, "addr:housename": null, "addr:place": null, "operator:type": null, "type": null, "website": null, "contact:facebook": null, "contact:instagram": null, "contact:linkedin": null, "name:mr": null, "phone": null, "school:gender": null, "wheelchair": null, "isced:2011:level": null, "name:ar": null, "name:ta": null }, "geometry": { "type": "Point", "coordinates": [ 72.9200122, 19.0408105 ] } },
{ "type": "Feature", "properties": { "element": "node", "id": 9652365665, "amenity": "university", "name": "Naval Maritime Academy", "addr:housenumber": null, "check_date": "2026-03-12", "operator": "Indian Navy", "tag": null, "alt_name": null, "name:hi": null, "name:ml": null, "wikidata": null, "wikipedia": null, "education": null, "addr:street": null, "building": null, "name:fa": null, "addr:postcode": null, "barrier": null, "name:en": null, "old_name": null, "wikimedia_commons": null, "addr:city": null, "internet_access": null, "area": null, "isced:level": null, "name:etymology:wikidata": null, "short_name": null, "short_name:en": null, "addr:district": null, "addr:housename": null, "addr:place": null, "operator:type": null, "type": null, "website": null, "contact:facebook": null, "contact:instagram": null, "contact:linkedin": null, "name:mr": null, "phone": null, "school:gender": null, "wheelchair": null, "isced:2011:level": null, "name:ar": null, "name:ta": null }, "geometry": { "type": "Point", "coordinates": [ 72.8105378, 18.8952175 ] } },
{ "type": "Feature", "properties": { "element": "node", "id": 12535576374, "amenity": "university", "name": "college building", "addr:housenumber": null, "check_date": null, "operator": null, "tag": "#college", "alt_name": null, "name:hi": null, "name:ml": null, "wikidata": null, "wikipedia": null, "education": null, "addr:street": null, "building": null, "name:fa": null, "addr:postcode": null, "barrier": null, "name:en": null, "old_name": null, "wikimedia_commons": null, "addr:city": null, "internet_access": null, "area": null, "isced:level": null, "name:etymology:wikidata": null, "short_name": null, "short_name:en": null, "addr:district": null, "addr:housename": null, "addr:place": null, "operator:type": null, "type": null, "website": null, "contact:facebook": null, "contact:instagram": null, "contact:linkedin": null, "name:mr": null, "phone": null, "school:gender": null, "wheelchair": null, "isced:2011:level": null, "name:ar": null, "name:ta": null }, "geometry": { "type": "Point", "coordinates": [ 72.8266365, 18.9677617 ] } },
{ "type": "Feature", "properties": { "element": "relation", "id": 8546708, "amenity": "university", "name": "Indian Institute of Technology Bombay", "addr:housenumber": null, "check_date": null, "operator": null, "tag": null, "alt_name": "IIT Bombay;IITB;IIT Powai", "name:hi": "भारतीय प्रौद्योगिकी संस्थान मुम्बई", "name:ml": "ഇന്ത്യൻ ഇൻസ്റ്റിറ്റ്യൂട്ട് ഓഫ് ടെക്നോളജി ബോംബെ", "wikidata": "Q1661242", "wikipedia": "en:Indian Institute of Technology Bombay", "education": null, "addr:street": "Adi Shankaracharya Marg", "building": null, "name:fa": null, "addr:postcode": "400076", "barrier": null, "name:en": null, "old_name": null, "wikimedia_commons": null, "addr:city": "Mumbai", "internet_access": "yes", "area": null, "isced:level": null, "name:etymology:wikidata": null, "short_name": null, "short_name:en": null, "addr:district": null, "addr:housename": "IIT Bombay", "addr:place": "Powai", "operator:type": null, "type": "multipolygon", "website": "https://www.iitb.ac.in/", "contact:facebook": null, "contact:instagram": null, "contact:linkedin": null, "name:mr": null, "phone": "+91 22 2572 2545", "school:gender": "mixed", "wheelchair": null, "isced:2011:level": "bachelor;doctorate;master", "name:ar": "المعهد الهندي للتكنولوجيا بومباي", "name:ta": "இந்திய தொழில்நுட்பக் கழகம் மும்பை" }, "geometry": { "type": "MultiPolygon", "coordinates": [ [ [ [ 72.906011, 19.1363679 ], [ 72.9089802, 19.1371889 ], [ 72.9114157, 19.1378274 ], [ 72.9123223, 19.1381062 ], [ 72.9131779, 19.1385344 ], [ 72.9141086, 19.1391679 ], [ 72.9145056, 19.1395734 ], [ 72.9151734, 19.1404982 ], [ 72.915659, 19.1413927 ], [ 72.9161632, 19.1412204 ], [ 72.9176813, 19.1412305 ], [ 72.9182714, 19.1411241 ], [ 72.9184323, 19.141043 ], [ 72.9183116, 19.1407972 ], [ 72.9183385, 19.140521 ], [ 72.9184645, 19.1403943 ], [ 72.9185825, 19.1400548 ], [ 72.919127, 19.1391628 ], [ 72.9191498, 19.138874 ], [ 72.9192156, 19.1386409 ], [ 72.9191887, 19.1382456 ], [ 72.9188883, 19.1383216 ], [ 72.9188347, 19.1373637 ], [ 72.9191512, 19.1357521 ], [ 72.9193238, 19.1334255 ], [ 72.9194999, 19.1318852 ], [ 72.9196447, 19.1309425 ], [ 72.9197655, 19.1289837 ], [ 72.9196233, 19.1288924 ], [ 72.9190749, 19.128128 ], [ 72.9188669, 19.1278382 ], [ 72.9188515, 19.1278212 ], [ 72.9165831, 19.1253176 ], [ 72.9164566, 19.1252159 ], [ 72.9163617, 19.1251229 ], [ 72.913658, 19.1243893 ], [ 72.9118797, 19.1239103 ], [ 72.9116088, 19.1238824 ], [ 72.9095542, 19.1241384 ], [ 72.9093075, 19.1241434 ], [ 72.9090151, 19.1240623 ], [ 72.9086449, 19.1238481 ], [ 72.9084321, 19.1245674 ], [ 72.9083322, 19.1251384 ], [ 72.9084402, 19.1255521 ], [ 72.9084169, 19.1259301 ], [ 72.9082043, 19.1259898 ], [ 72.9081731, 19.1261479 ], [ 72.9084281, 19.1264716 ], [ 72.9088118, 19.1266654 ], [ 72.9090476, 19.1266714 ], [ 72.9092505, 19.126533 ], [ 72.909341, 19.1262015 ], [ 72.9093343, 19.1254109 ], [ 72.9096727, 19.1251467 ], [ 72.9098263, 19.1251655 ], [ 72.9098391, 19.1249508 ], [ 72.9100586, 19.1247369 ], [ 72.9104768, 19.1247732 ], [ 72.9106713, 19.1249163 ], [ 72.9112643, 19.125046 ], [ 72.9115106, 19.1249756 ], [ 72.9117197, 19.1252355 ], [ 72.9125255, 19.1252592 ], [ 72.9128425, 19.125387 ], [ 72.9129222, 19.1257922 ], [ 72.9130472, 19.1258403 ], [ 72.9132356, 19.1257169 ], [ 72.9135921, 19.1258454 ], [ 72.9137433, 19.126008 ], [ 72.9137917, 19.1269424 ], [ 72.9138187, 19.1270641 ], [ 72.9138455, 19.1273271 ], [ 72.9138793, 19.1275404 ], [ 72.9137941, 19.1276323 ], [ 72.9137066, 19.1276989 ], [ 72.913619, 19.1276924 ], [ 72.9135614, 19.1277417 ], [ 72.9135794, 19.1281103 ], [ 72.913661, 19.1285774 ], [ 72.9136647, 19.1286948 ], [ 72.9135185, 19.1287138 ], [ 72.9135253, 19.1287607 ], [ 72.9136645, 19.1287426 ], [ 72.9136138, 19.1292003 ], [ 72.9135404, 19.1292448 ], [ 72.9137149, 19.1296735 ], [ 72.9135739, 19.1298502 ], [ 72.9134395, 19.1302456 ], [ 72.9134373, 19.1303417 ], [ 72.9134776, 19.1306737 ], [ 72.9134834, 19.1307627 ], [ 72.9134725, 19.1308162 ], [ 72.9134211, 19.1308298 ], [ 72.9133656, 19.1308079 ], [ 72.9132425, 19.1307666 ], [ 72.9130613, 19.1307502 ], [ 72.9129412, 19.1307555 ], [ 72.9126647, 19.1307931 ], [ 72.9124389, 19.1307558 ], [ 72.9123771, 19.1307326 ], [ 72.9123563, 19.1307032 ], [ 72.9123478, 19.1306765 ], [ 72.9123525, 19.1306237 ], [ 72.9123327, 19.130562 ], [ 72.9122967, 19.1305178 ], [ 72.9122303, 19.1305301 ], [ 72.9121532, 19.1305729 ], [ 72.9120531, 19.1306264 ], [ 72.9119727, 19.1306302 ], [ 72.9117546, 19.1305934 ], [ 72.9117204, 19.1305679 ], [ 72.9116388, 19.1304804 ], [ 72.9116262, 19.1304298 ], [ 72.9116411, 19.130374 ], [ 72.9116615, 19.1303183 ], [ 72.9116646, 19.1302508 ], [ 72.9116518, 19.1302114 ], [ 72.9116409, 19.1301668 ], [ 72.911601, 19.1301182 ], [ 72.9115649, 19.1300831 ], [ 72.9115276, 19.1300755 ], [ 72.9114932, 19.1301108 ], [ 72.9114791, 19.1301451 ], [ 72.9114545, 19.1301766 ], [ 72.911437, 19.1302155 ], [ 72.9114008, 19.1302555 ], [ 72.9113487, 19.1302667 ], [ 72.9113057, 19.1302238 ], [ 72.9112132, 19.1302065 ], [ 72.9111241, 19.130221 ], [ 72.9110353, 19.1302586 ], [ 72.9109596, 19.1302557 ], [ 72.9108731, 19.1301927 ], [ 72.9104008, 19.1298811 ], [ 72.9103105, 19.1298537 ], [ 72.9102868, 19.1299247 ], [ 72.9102773, 19.1301616 ], [ 72.9103775, 19.1303661 ], [ 72.910614, 19.1305465 ], [ 72.9106081, 19.1307136 ], [ 72.9108908, 19.1309175 ], [ 72.9112268, 19.1310166 ], [ 72.911336, 19.1312547 ], [ 72.9114187, 19.1312677 ], [ 72.9115532, 19.1311609 ], [ 72.911916, 19.1314279 ], [ 72.9119082, 19.1314951 ], [ 72.9110287, 19.1315706 ], [ 72.9109093, 19.1319903 ], [ 72.910578, 19.1325786 ], [ 72.9104707, 19.1326585 ], [ 72.9101842, 19.1323332 ], [ 72.9101065, 19.1323276 ], [ 72.9097831, 19.1324983 ], [ 72.909462, 19.1321599 ], [ 72.9091581, 19.1322208 ], [ 72.9088925, 19.1323149 ], [ 72.9087346, 19.1327097 ], [ 72.9087952, 19.1331248 ], [ 72.909051, 19.1334791 ], [ 72.9085781, 19.1336201 ], [ 72.9084992, 19.1334552 ], [ 72.907718, 19.1336045 ], [ 72.9075682, 19.1337993 ], [ 72.9074516, 19.1340983 ], [ 72.9074316, 19.1344423 ], [ 72.9071513, 19.1344684 ], [ 72.9069888, 19.1339762 ], [ 72.9070113, 19.133599 ], [ 72.9066574, 19.1335838 ], [ 72.9062931, 19.1336907 ], [ 72.9062074, 19.1334464 ], [ 72.9067667, 19.1331606 ], [ 72.9064406, 19.1320804 ], [ 72.9065555, 19.1318365 ], [ 72.9067742, 19.1317823 ], [ 72.906911, 19.1314405 ], [ 72.9068841, 19.1310415 ], [ 72.9070316, 19.1305943 ], [ 72.9069406, 19.1302596 ], [ 72.9069926, 19.1299468 ], [ 72.9067509, 19.1295127 ], [ 72.9066465, 19.1295207 ], [ 72.9064315, 19.1297214 ], [ 72.9062112, 19.1298159 ], [ 72.906045, 19.1297767 ], [ 72.9059413, 19.1296064 ], [ 72.9057643, 19.1296631 ], [ 72.9057313, 19.1302123 ], [ 72.9055377, 19.1303707 ], [ 72.9055356, 19.1305949 ], [ 72.9057194, 19.1307649 ], [ 72.905641, 19.1310561 ], [ 72.9056833, 19.1313355 ], [ 72.9054518, 19.1313549 ], [ 72.9052815, 19.1318221 ], [ 72.9057051, 19.131763 ], [ 72.9056558, 19.132024 ], [ 72.9055416, 19.1321691 ], [ 72.9052808, 19.1321089 ], [ 72.9051199, 19.1319368 ], [ 72.9047374, 19.1318983 ], [ 72.9046988, 19.1317625 ], [ 72.9045509, 19.1317501 ], [ 72.9045994, 19.1315702 ], [ 72.904589, 19.1312698 ], [ 72.9047249, 19.1311952 ], [ 72.9046487, 19.1310715 ], [ 72.9044697, 19.1310727 ], [ 72.9043747, 19.1312594 ], [ 72.9041362, 19.1311925 ], [ 72.9041231, 19.1310572 ], [ 72.9039696, 19.130986 ], [ 72.9037919, 19.1310199 ], [ 72.9037358, 19.1312308 ], [ 72.903817, 19.1314619 ], [ 72.9037407, 19.1318052 ], [ 72.9040788, 19.1319315 ], [ 72.904109, 19.1322987 ], [ 72.9043169, 19.1324607 ], [ 72.904753, 19.1324464 ], [ 72.9048389, 19.1329501 ], [ 72.9046329, 19.1328646 ], [ 72.9045467, 19.1327064 ], [ 72.9043591, 19.1328651 ], [ 72.9042409, 19.1330601 ], [ 72.9042407, 19.133229 ], [ 72.9044043, 19.1333823 ], [ 72.9045195, 19.1336157 ], [ 72.9043218, 19.1337214 ], [ 72.9042101, 19.1342454 ], [ 72.9043855, 19.1347158 ], [ 72.9043619, 19.1348024 ], [ 72.9043056, 19.1348363 ], [ 72.9041866, 19.1347408 ], [ 72.9038942, 19.1341719 ], [ 72.9037955, 19.1341329 ], [ 72.9036546, 19.1341584 ], [ 72.9035876, 19.1342529 ], [ 72.9036454, 19.1345582 ], [ 72.9037297, 19.1349124 ], [ 72.9036494, 19.1352773 ], [ 72.9037501, 19.1354563 ], [ 72.904045, 19.1358307 ], [ 72.906011, 19.1363679 ] ] ], [ [ [ 72.9025912, 19.136563 ], [ 72.902838, 19.1366897 ], [ 72.9029292, 19.1371002 ], [ 72.9028326, 19.1371458 ], [ 72.9029453, 19.1373941 ], [ 72.9030874, 19.1377996 ], [ 72.903412, 19.1380859 ], [ 72.9038975, 19.1385243 ], [ 72.9043293, 19.1388841 ], [ 72.9045278, 19.1388233 ], [ 72.9049355, 19.1386915 ], [ 72.9049247, 19.1385496 ], [ 72.9050803, 19.1384381 ], [ 72.9050428, 19.138205 ], [ 72.9055202, 19.138053 ], [ 72.9057562, 19.1383418 ], [ 72.905944, 19.1388436 ], [ 72.9071027, 19.1377236 ], [ 72.9073199, 19.137455 ], [ 72.907446, 19.137085 ], [ 72.904568, 19.1363223 ], [ 72.9036024, 19.1360486 ], [ 72.9021996, 19.1356812 ], [ 72.9025912, 19.136563 ] ] ] ] } },
{ "type": "Feature", "properties": { "element": "way", "id": 27054841, "amenity": "university", "name": "Central Fisheries Institute", "addr:housenumber": null, "check_date": null, "operator": null, "tag": null, "alt_name": null, "name:hi": null, "name:ml": null, "wikidata": null, "wikipedia": null, "education": null, "addr:street": null, "building": null, "name:fa": null, "addr:postcode": null, "barrier": null, "name:en": null, "old_name": null, "wikimedia_commons": null, "addr:city": null, "internet_access": null, "area": null, "isced:level": null, "name:etymology:wikidata": null, "short_name": null, "short_name:en": null, "addr:district": null, "addr:housename": null, "addr:place": null, "operator:type": null, "type": null, "website": null, "contact:facebook": null, "contact:instagram": null, "contact:linkedin": null, "name:mr": null, "phone": null, "school:gender": null, "wheelchair": null, "isced:2011:level": null, "name:ar": null, "name:ta": null }, "geometry": { "type": "Polygon", "coordinates": [ [ [ 72.8156218, 19.1321887 ], [ 72.8162388, 19.1325394 ], [ 72.8163896, 19.1326494 ], [ 72.8165205, 19.1327502 ], [ 72.8169784, 19.1328945 ], [ 72.8169559, 19.132108 ], [ 72.816967, 19.1320084 ], [ 72.8170447, 19.1317366 ], [ 72.8171015, 19.13146 ], [ 72.8171482, 19.1306935 ], [ 72.8171556, 19.1305348 ], [ 72.8170858, 19.1306121 ], [ 72.8165502, 19.1311839 ], [ 72.8160814, 19.1316913 ], [ 72.8156218, 19.1321887 ] ] ] } },
{ "type": "Feature", "properties": { "element": "way", "id": 49480318, "amenity": "university", "name": "Tata Institute of Fundamental Research", "addr:housenumber": null, "check_date": "2026-03-12", "operator": null, "tag": null, "alt_name": "TIFR", "name:hi": "टाटा मूलभूत अनुसंधान संस्थान", "name:ml": "ടാറ്റ ഇൻസ്റ്റിറ്റ്യൂട്ട് ഓഫ് ഫണ്ടമെന്റൽ റിസർച്ച്", "wikidata": "Q142617", "wikipedia": "en:Tata Institute of Fundamental Research", "education": null, "addr:street": null, "building": null, "name:fa": null, "addr:postcode": null, "barrier": null, "name:en": null, "old_name": null, "wikimedia_commons": null, "addr:city": null, "internet_access": null, "area": null, "isced:level": null, "name:etymology:wikidata": null, "short_name": null, "short_name:en": null, "addr:district": null, "addr:housename": null, "addr:place": null, "operator:type": null, "type": null, "website": null, "contact:facebook": null, "contact:instagram": null, "contact:linkedin": null, "name:mr": null, "phone": null, "school:gender": null, "wheelchair": null, "isced:2011:level": null, "name:ar": null, "name:ta": null }, "geometry": { "type": "Polygon", "coordinates": [ [ [ 72.8043465, 18.9088 ], [ 72.8040454, 18.9080105 ], [ 72.8036496, 18.90623 ], [ 72.8035841, 18.9052681 ], [ 72.803815, 18.9052367 ], [ 72.8044247, 18.9051742 ], [ 72.8057797, 18.904957 ], [ 72.8059675, 18.9062755 ], [ 72.806008, 18.9065826 ], [ 72.8061502, 18.9076648 ], [ 72.8060415, 18.9076764 ], [ 72.8049122, 18.9078464 ], [ 72.8049364, 18.907962 ], [ 72.8050545, 18.9086532 ], [ 72.8043465, 18.9088 ] ] ] } },
{ "type": "Feature", "properties": { "element": "way", "id": 49682797, "amenity": "university", "name": "University of Mumbai", "addr:housenumber": null, "check_date": null, "operator": null, "tag": null, "alt_name": null, "name:hi": null, "name:ml": null, "wikidata": null, "wikipedia": null, "education": "university", "addr:street": null, "building": null, "name:fa": null, "addr:postcode": null, "barrier": null, "name:en": null, "old_name": null, "wikimedia_commons": null, "addr:city": null, "internet_access": null, "area": null, "isced:level": null, "name:etymology:wikidata": null, "short_name": null, "short_name:en": null, "addr:district": null, "addr:housename": null, "addr:place": null, "operator:type": null, "type": null, "website": null, "contact:facebook": null, "contact:instagram": null, "contact:linkedin": null, "name:mr": null, "phone": null, "school:gender": null, "wheelchair": null, "isced:2011:level": null, "name:ar": null, "name:ta": null }, "geometry": { "type": "Polygon", "coordinates": [ [ [ 72.8612709, 19.0715848 ], [ 72.8609472, 19.0722682 ], [ 72.860817, 19.0728745 ], [ 72.8605311, 19.0737742 ], [ 72.8603652, 19.07403 ], [ 72.8600744, 19.0742893 ], [ 72.8593674, 19.0744889 ], [ 72.858371, 19.0746384 ], [ 72.8559241, 19.075033 ], [ 72.8556631, 19.0750805 ], [ 72.8550711, 19.0750996 ], [ 72.8546063, 19.0748529 ], [ 72.8528919, 19.0738766 ], [ 72.8528114, 19.0738291 ], [ 72.8527247, 19.0737702 ], [ 72.852603, 19.073712 ], [ 72.8522438, 19.0735952 ], [ 72.8518705, 19.0735551 ], [ 72.8507573, 19.0735831 ], [ 72.8506217, 19.0726164 ], [ 72.8525243, 19.072529 ], [ 72.8531936, 19.0731678 ], [ 72.8533972, 19.0729919 ], [ 72.8557863, 19.0709278 ], [ 72.8559357, 19.0707179 ], [ 72.8560797, 19.0705155 ], [ 72.856731, 19.0692786 ], [ 72.8564451, 19.0688459 ], [ 72.8565524, 19.0685079 ], [ 72.8562951, 19.0681969 ], [ 72.8558155, 19.0689674 ], [ 72.8547551, 19.0696602 ], [ 72.8538126, 19.0687091 ], [ 72.8535283, 19.068917 ], [ 72.8533995, 19.0688156 ], [ 72.8536141, 19.0679993 ], [ 72.8540922, 19.0676352 ], [ 72.8550481, 19.0668418 ], [ 72.855251, 19.066755 ], [ 72.857496, 19.0663843 ], [ 72.8599843, 19.0660729 ], [ 72.8604205, 19.0670838 ], [ 72.8606224, 19.0676738 ], [ 72.8607535, 19.0682637 ], [ 72.8610519, 19.0703663 ], [ 72.8612709, 19.0715848 ] ] ] } },
{ "type": "Feature", "properties": { "element": "way", "id": 113711207, "amenity": "university", "name": "Central Cotton Research Institute", "addr:housenumber": null, "check_date": null, "operator": null, "tag": null, "alt_name": null, "name:hi": null, "name:ml": null, "wikidata": null, "wikipedia": null, "education": null, "addr:street": null, "building": null, "name:fa": null, "addr:postcode": null, "barrier": null, "name:en": null, "old_name": null, "wikimedia_commons": null, "addr:city": null, "internet_access": null, "area": null, "isced:level": null, "name:etymology:wikidata": null, "short_name": null, "short_name:en": null, "addr:district": null, "addr:housename": null, "addr:place": null, "operator:type": null, "type": null, "website": null, "contact:facebook": null, "contact:instagram": null, "contact:linkedin": null, "name:mr": null, "phone": null, "school:gender": null, "wheelchair": null, "isced:2011:level": null, "name:ar": null, "name:ta": null }, "geometry": { "type": "Polygon", "coordinates": [ [ [ 72.854297, 19.0221763 ], [ 72.8537721, 19.0222785 ], [ 72.8536121, 19.0215331 ], [ 72.8541298, 19.0214385 ], [ 72.854297, 19.0221763 ] ] ] } },
{ "type": "Feature", "properties": { "element": "way", "id": 115865053, "amenity": "university", "name": "Tree House Play Group", "addr:housenumber": "597", "check_date": null, "operator": null, "tag": null, "alt_name": null, "name:hi": null, "name:ml": null, "wikidata": null, "wikipedia": null, "education": null, "addr:street": "Jam-e-Jamshed Road", "building": "yes", "name:fa": null, "addr:postcode": null, "barrier": null, "name:en": null, "old_name": null, "wikimedia_commons": null, "addr:city": null, "internet_access": null, "area": null, "isced:level": null, "name:etymology:wikidata": null, "short_name": null, "short_name:en": null, "addr:district": null, "addr:housename": null, "addr:place": null, "operator:type": null, "type": null, "website": null, "contact:facebook": null, "contact:instagram": null, "contact:linkedin": null, "name:mr": null, "phone": null, "school:gender": null, "wheelchair": null, "isced:2011:level": null, "name:ar": null, "name:ta": null }, "geometry": { "type": "Polygon", "coordinates": [ [ [ 72.8527608, 19.0227553 ], [ 72.852871, 19.0226711 ], [ 72.8530084, 19.0228317 ], [ 72.8528982, 19.022916 ], [ 72.8527608, 19.0227553 ] ] ] } },
{ "type": "Feature", "properties": { "element": "way", "id": 122294390, "amenity": "university", "name": "Tata Institute of Social Sciences, New Campus", "addr:housenumber": null, "check_date": null, "operator": null, "tag": null, "alt_name": null, "name:hi": null, "name:ml": null, "wikidata": null, "wikipedia": null, "education": null, "addr:street": null, "building": null, "name:fa": null, "addr:postcode": null, "barrier": null, "name:en": null, "old_name": null, "wikimedia_commons": null, "addr:city": null, "internet_access": null, "area": null, "isced:level": null, "name:etymology:wikidata": null, "short_name": null, "short_name:en": null, "addr:district": null, "addr:housename": null, "addr:place": null, "operator:type": null, "type": null, "website": null, "contact:facebook": null, "contact:instagram": null, "contact:linkedin": null, "name:mr": null, "phone": null, "school:gender": null, "wheelchair": null, "isced:2011:level": null, "name:ar": null, "name:ta": null }, "geometry": { "type": "Polygon", "coordinates": [ [ [ 72.9126672, 19.0398328 ], [ 72.9137089, 19.0408706 ], [ 72.9138663, 19.0416109 ], [ 72.9131543, 19.0419155 ], [ 72.9125998, 19.0411929 ], [ 72.9119215, 19.0405801 ], [ 72.9119426, 19.0401001 ], [ 72.9124196, 19.0397486 ], [ 72.9126672, 19.0398328 ] ] ] } },
{ "type": "Feature", "properties": { "element": "way", "id": 151485416, "amenity": "university", "name": "Mumbai University - Fort Campus", "addr:housenumber": null, "check_date": null, "operator": null, "tag": null, "alt_name": null, "name:hi": null, "name:ml": null, "wikidata": null, "wikipedia": null, "education": null, "addr:street": null, "building": null, "name:fa": "برج ساعت", "addr:postcode": null, "barrier": null, "name:en": null, "old_name": null, "wikimedia_commons": null, "addr:city": null, "internet_access": null, "area": null, "isced:level": null, "name:etymology:wikidata": null, "short_name": null, "short_name:en": null, "addr:district": null, "addr:housename": null, "addr:place": null, "operator:type": null, "type": null, "website": null, "contact:facebook": null, "contact:instagram": null, "contact:linkedin": null, "name:mr": null, "phone": null, "school:gender": null, "wheelchair": null, "isced:2011:level": null, "name:ar": null, "name:ta": null }, "geometry": { "type": "Polygon", "coordinates": [ [ [ 72.8298139, 18.9300807 ], [ 72.8298312, 18.9285603 ], [ 72.8311853, 18.928574 ], [ 72.831168, 18.9300945 ], [ 72.8298139, 18.9300807 ] ] ] } },
{ "type": "Feature", "properties": { "element": "way", "id": 202917551, "amenity": "university", "name": "SNDT Women's University,Juhu", "addr:housenumber": null, "check_date": null, "operator": null, "tag": null, "alt_name": null, "name:hi": null, "name:ml": null, "wikidata": null, "wikipedia": null, "education": null, "addr:street": null, "building": null, "name:fa": null, "addr:postcode": null, "barrier": null, "name:en": null, "old_name": null, "wikimedia_commons": null, "addr:city": null, "internet_access": null, "area": null, "isced:level": null, "name:etymology:wikidata": null, "short_name": null, "short_name:en": null, "addr:district": null, "addr:housename": null, "addr:place": null, "operator:type": null, "type": null, "website": null, "contact:facebook": null, "contact:instagram": null, "contact:linkedin": null, "name:mr": null, "phone": null, "school:gender": null, "wheelchair": null, "isced:2011:level": null, "name:ar": null, "name:ta": null }, "geometry": { "type": "Polygon", "coordinates": [ [ [ 72.8322663, 19.0874672 ], [ 72.8322636, 19.0875077 ], [ 72.8322636, 19.087599 ], [ 72.8322556, 19.0876471 ], [ 72.8322609, 19.087893 ], [ 72.8321864, 19.0880827 ], [ 72.8319687, 19.0885166 ], [ 72.8319606, 19.0886028 ], [ 72.8321859, 19.0892541 ], [ 72.832218, 19.0894316 ], [ 72.8321891, 19.0896695 ], [ 72.8306007, 19.0899614 ], [ 72.8299999, 19.0887422 ], [ 72.8297785, 19.087631 ], [ 72.8301475, 19.0875853 ], [ 72.8298685, 19.0856676 ], [ 72.8304665, 19.0854755 ], [ 72.8309097, 19.0865517 ], [ 72.8309842, 19.0866687 ], [ 72.8310572, 19.0866861 ], [ 72.8310915, 19.0866865 ], [ 72.8311666, 19.086651 ], [ 72.8320839, 19.0863113 ], [ 72.8322234, 19.0862429 ], [ 72.8322851, 19.0863898 ], [ 72.8324488, 19.0870261 ], [ 72.8324648, 19.0872061 ], [ 72.8323817, 19.0872948 ], [ 72.8322663, 19.0874672 ] ] ] } },
{ "type": "Feature", "properties": { "element": "way", "id": 204885504, "amenity": "university", "name": "National Institute of Oceanography", "addr:housenumber": null, "check_date": null, "operator": null, "tag": null, "alt_name": null, "name:hi": null, "name:ml": null, "wikidata": null, "wikipedia": null, "education": "university", "addr:street": "Lokhandawala Road, 4 Bungalows, Andheri (West), Mumbai", "building": null, "name:fa": null, "addr:postcode": "400053", "barrier": "wall", "name:en": "National Institute of Oceanography", "old_name": null, "wikimedia_commons": null, "addr:city": null, "internet_access": null, "area": null, "isced:level": null, "name:etymology:wikidata": null, "short_name": null, "short_name:en": null, "addr:district": null, "addr:housename": null, "addr:place": null, "operator:type": null, "type": null, "website": null, "contact:facebook": null, "contact:instagram": null, "contact:linkedin": null, "name:mr": null, "phone": null, "school:gender": null, "wheelchair": null, "isced:2011:level": null, "name:ar": null, "name:ta": null }, "geometry": { "type": "Polygon", "coordinates": [ [ [ 72.8255393, 19.1370824 ], [ 72.8255307, 19.1362936 ], [ 72.8255313, 19.1362234 ], [ 72.824791, 19.136231 ], [ 72.8247508, 19.1377058 ], [ 72.8248932, 19.1378531 ], [ 72.825196, 19.1375385 ], [ 72.8250512, 19.1375208 ], [ 72.8255393, 19.1370824 ] ] ] } },
{ "type": "Feature", "properties": { "element": "way", "id": 237027561, "amenity": "university", "name": "IES College Of Architecture", "addr:housenumber": null, "check_date": "2025-01-10", "operator": null, "tag": null, "alt_name": null, "name:hi": null, "name:ml": null, "wikidata": null, "wikipedia": null, "education": null, "addr:street": null, "building": null, "name:fa": null, "addr:postcode": null, "barrier": null, "name:en": null, "old_name": null, "wikimedia_commons": null, "addr:city": null, "internet_access": null, "area": null, "isced:level": null, "name:etymology:wikidata": null, "short_name": null, "short_name:en": null, "addr:district": null, "addr:housename": null, "addr:place": null, "operator:type": null, "type": null, "website": null, "contact:facebook": null, "contact:instagram": null, "contact:linkedin": null, "name:mr": null, "phone": null, "school:gender": null, "wheelchair": null, "isced:2011:level": null, "name:ar": null, "name:ta": null }, "geometry": { "type": "Polygon", "coordinates": [ [ [ 72.8302755, 19.050013 ], [ 72.8297382, 19.0497237 ], [ 72.8293311, 19.0504083 ], [ 72.8298651, 19.0507131 ], [ 72.8302755, 19.050013 ] ] ] } },
{ "type": "Feature", "properties": { "element": "way", "id": 291327674, "amenity": "university", "name": "Yuva Parivartan ( Youth Recreation center ) ", "addr:housenumber": null, "check_date": "2025-06-13", "operator": null, "tag": null, "alt_name": null, "name:hi": null, "name:ml": null, "wikidata": null, "wikipedia": null, "education": null, "addr:street": null, "building": null, "name:fa": null, "addr:postcode": null, "barrier": null, "name:en": null, "old_name": null, "wikimedia_commons": null, "addr:city": null, "internet_access": null, "area": null, "isced:level": null, "name:etymology:wikidata": null, "short_name": null, "short_name:en": null, "addr:district": null, "addr:housename": null, "addr:place": null, "operator:type": null, "type": null, "website": null, "contact:facebook": null, "contact:instagram": null, "contact:linkedin": null, "name:mr": null, "phone": null, "school:gender": null, "wheelchair": null, "isced:2011:level": null, "name:ar": null, "name:ta": null }, "geometry": { "type": "Polygon", "coordinates": [ [ [ 72.8442545, 19.0634957 ], [ 72.8441386, 19.0633549 ], [ 72.8441996, 19.06331 ], [ 72.8443155, 19.0634509 ], [ 72.8442545, 19.0634957 ] ] ] } },
{ "type": "Feature", "properties": { "element": "way", "id": 302858264, "amenity": "university", "name": "Tata Institute of Social Sciences (TISS)", "addr:housenumber": null, "check_date": null, "operator": null, "tag": null, "alt_name": null, "name:hi": null, "name:ml": null, "wikidata": null, "wikipedia": null, "education": null, "addr:street": null, "building": null, "name:fa": null, "addr:postcode": null, "barrier": null, "name:en": null, "old_name": null, "wikimedia_commons": null, "addr:city": null, "internet_access": null, "area": null, "isced:level": null, "name:etymology:wikidata": null, "short_name": null, "short_name:en": null, "addr:district": null, "addr:housename": null, "addr:place": null, "operator:type": null, "type": null, "website": null, "contact:facebook": null, "contact:instagram": null, "contact:linkedin": null, "name:mr": null, "phone": null, "school:gender": null, "wheelchair": null, "isced:2011:level": null, "name:ar": null, "name:ta": null }, "geometry": { "type": "Polygon", "coordinates": [ [ [ 72.9133804, 19.0454683 ], [ 72.9134015, 19.0451772 ], [ 72.913819, 19.0450657 ], [ 72.9138136, 19.0446322 ], [ 72.9133066, 19.0441157 ], [ 72.9132441, 19.044022 ], [ 72.9130772, 19.0437718 ], [ 72.9126976, 19.0435325 ], [ 72.9123259, 19.0432335 ], [ 72.9121159, 19.043039 ], [ 72.9117905, 19.043115 ], [ 72.9117626, 19.0435778 ], [ 72.911709, 19.0441157 ], [ 72.9115956, 19.0444468 ], [ 72.9115113, 19.0446929 ], [ 72.9114401, 19.0449006 ], [ 72.911644, 19.0449445 ], [ 72.9120649, 19.0450352 ], [ 72.9120123, 19.0455107 ], [ 72.9133283, 19.0454699 ], [ 72.9133804, 19.0454683 ] ] ] } },
{ "type": "Feature", "properties": { "element": "way", "id": 311083990, "amenity": "university", "name": "Institute of Chemical Technology", "addr:housenumber": null, "check_date": null, "operator": null, "tag": null, "alt_name": null, "name:hi": null, "name:ml": null, "wikidata": "Q6040089", "wikipedia": "en:Institute of Chemical Technology", "education": null, "addr:street": null, "building": null, "name:fa": null, "addr:postcode": null, "barrier": null, "name:en": null, "old_name": "University Department of Chemical Technology (UDCT)", "wikimedia_commons": "Category:Institute of Chemical Technology, Mumbai", "addr:city": null, "internet_access": null, "area": null, "isced:level": null, "name:etymology:wikidata": null, "short_name": null, "short_name:en": null, "addr:district": null, "addr:housename": null, "addr:place": null, "operator:type": null, "type": null, "website": null, "contact:facebook": null, "contact:instagram": null, "contact:linkedin": null, "name:mr": null, "phone": null, "school:gender": null, "wheelchair": null, "isced:2011:level": null, "name:ar": null, "name:ta": null }, "geometry": { "type": "Polygon", "coordinates": [ [ [ 72.8572351, 19.0230875 ], [ 72.8571734, 19.0231686 ], [ 72.8572029, 19.0245506 ], [ 72.8572699, 19.0246191 ], [ 72.8601828, 19.0249538 ], [ 72.8602606, 19.0249031 ], [ 72.8603974, 19.0232751 ], [ 72.8603223, 19.0231965 ], [ 72.8572351, 19.0230875 ] ] ] } },
{ "type": "Feature", "properties": { "element": "way", "id": 512468398, "amenity": "university", "name": "Don Bosco Grounds", "addr:housenumber": null, "check_date": null, "operator": "Don Bosco college", "tag": null, "alt_name": null, "name:hi": null, "name:ml": null, "wikidata": null, "wikipedia": null, "education": null, "addr:street": "Kohinoor - Vidyavihar Road", "building": null, "name:fa": null, "addr:postcode": "400070", "barrier": null, "name:en": null, "old_name": null, "wikimedia_commons": null, "addr:city": "Mumbai", "internet_access": "wired", "area": null, "isced:level": null, "name:etymology:wikidata": null, "short_name": null, "short_name:en": null, "addr:district": null, "addr:housename": null, "addr:place": null, "operator:type": null, "type": null, "website": null, "contact:facebook": null, "contact:instagram": null, "contact:linkedin": null, "name:mr": null, "phone": null, "school:gender": null, "wheelchair": null, "isced:2011:level": null, "name:ar": null, "name:ta": null }, "geometry": { "type": "Polygon", "coordinates": [ [ [ 72.8887172, 19.0820306 ], [ 72.8887448, 19.0820172 ], [ 72.8889128, 19.0819356 ], [ 72.889265, 19.0817645 ], [ 72.8893399, 19.0817281 ], [ 72.8890673, 19.0811712 ], [ 72.8884446, 19.0815153 ], [ 72.8887313, 19.082009 ], [ 72.8887172, 19.0820306 ] ] ] } },
{ "type": "Feature", "properties": { "element": "way", "id": 682033562, "amenity": "university", "name": "Industrial Training Institute (ITI)", "addr:housenumber": null, "check_date": null, "operator": null, "tag": null, "alt_name": null, "name:hi": null, "name:ml": null, "wikidata": null, "wikipedia": null, "education": null, "addr:street": null, "building": null, "name:fa": null, "addr:postcode": null, "barrier": null, "name:en": null, "old_name": null, "wikimedia_commons": null, "addr:city": null, "internet_access": null, "area": "yes", "isced:level": null, "name:etymology:wikidata": null, "short_name": null, "short_name:en": null, "addr:district": null, "addr:housename": null, "addr:place": null, "operator:type": null, "type": null, "website": null, "contact:facebook": null, "contact:instagram": null, "contact:linkedin": null, "name:mr": null, "phone": null, "school:gender": null, "wheelchair": null, "isced:2011:level": null, "name:ar": null, "name:ta": null }, "geometry": { "type": "Polygon", "coordinates": [ [ [ 72.971581, 19.1801076 ], [ 72.9722738, 19.1801866 ], [ 72.9723171, 19.1797995 ], [ 72.9716676, 19.1796141 ], [ 72.971581, 19.1801076 ] ] ] } },
{ "type": "Feature", "properties": { "element": "way", "id": 979386026, "amenity": "university", "name": "Marine Engineering and Research Institute - Mumbai Port Campus", "addr:housenumber": null, "check_date": null, "operator": null, "tag": null, "alt_name": null, "name:hi": null, "name:ml": null, "wikidata": null, "wikipedia": null, "education": null, "addr:street": null, "building": null, "name:fa": null, "addr:postcode": null, "barrier": null, "name:en": null, "old_name": null, "wikimedia_commons": null, "addr:city": null, "internet_access": null, "area": null, "isced:level": null, "name:etymology:wikidata": null, "short_name": null, "short_name:en": null, "addr:district": null, "addr:housename": null, "addr:place": null, "operator:type": null, "type": null, "website": null, "contact:facebook": null, "contact:instagram": null, "contact:linkedin": null, "name:mr": null, "phone": null, "school:gender": null, "wheelchair": null, "isced:2011:level": null, "name:ar": null, "name:ta": null }, "geometry": { "type": "Polygon", "coordinates": [ [ [ 72.8589681, 18.9818126 ], [ 72.8591423, 18.9813536 ], [ 72.8595471, 18.9800836 ], [ 72.8608277, 18.9812654 ], [ 72.8604305, 18.9822921 ], [ 72.8589681, 18.9818126 ] ] ] } },
{ "type": "Feature", "properties": { "element": "way", "id": 1050345044, "amenity": "university", "name": "Indian Institute of Geomagnetism", "addr:housenumber": null, "check_date": null, "operator": null, "tag": null, "alt_name": null, "name:hi": null, "name:ml": null, "wikidata": null, "wikipedia": null, "education": null, "addr:street": null, "building": null, "name:fa": null, "addr:postcode": null, "barrier": null, "name:en": null, "old_name": null, "wikimedia_commons": null, "addr:city": null, "internet_access": null, "area": null, "isced:level": "8", "name:etymology:wikidata": null, "short_name": null, "short_name:en": null, "addr:district": null, "addr:housename": null, "addr:place": null, "operator:type": null, "type": null, "website": null, "contact:facebook": null, "contact:instagram": null, "contact:linkedin": null, "name:mr": null, "phone": null, "school:gender": null, "wheelchair": null, "isced:2011:level": null, "name:ar": null, "name:ta": null }, "geometry": { "type": "Polygon", "coordinates": [ [ [ 72.8125213, 18.8966805 ], [ 72.8128056, 18.8970865 ], [ 72.8122598, 18.8974532 ], [ 72.8119366, 18.897018 ], [ 72.8125213, 18.8966805 ] ] ] } },
{ "type": "Feature", "properties": { "element": "way", "id": 1123953008, "amenity": "university", "name": "Homi Bhabha National Institute", "addr:housenumber": "2nd floor, BARC Training School Complex, Anushaktinagar, Mumbai, Maharashtra 400094", "check_date": null, "operator": null, "tag": null, "alt_name": null, "name:hi": null, "name:ml": null, "wikidata": null, "wikipedia": null, "education": null, "addr:street": null, "building": null, "name:fa": null, "addr:postcode": null, "barrier": null, "name:en": null, "old_name": null, "wikimedia_commons": null, "addr:city": null, "internet_access": null, "area": null, "isced:level": null, "name:etymology:wikidata": "Q325611", "short_name": null, "short_name:en": null, "addr:district": null, "addr:housename": null, "addr:place": null, "operator:type": null, "type": null, "website": null, "contact:facebook": null, "contact:instagram": null, "contact:linkedin": null, "name:mr": null, "phone": null, "school:gender": null, "wheelchair": null, "isced:2011:level": null, "name:ar": null, "name:ta": null }, "geometry": { "type": "Polygon", "coordinates": [ [ [ 72.9247355, 19.0332377 ], [ 72.9264387, 19.0331591 ], [ 72.9265112, 19.0341632 ], [ 72.9264039, 19.0342063 ], [ 72.9264227, 19.0346145 ], [ 72.9247624, 19.0346728 ], [ 72.9246953, 19.0333036 ], [ 72.9247355, 19.0332377 ] ] ] } },
{ "type": "Feature", "properties": { "element": "way", "id": 1170351966, "amenity": "university", "name": "Narsee Monjee Institute Of Management Studies", "addr:housenumber": null, "check_date": null, "operator": null, "tag": null, "alt_name": "SVKM's NMIMS", "name:hi": null, "name:ml": null, "wikidata": "Q16935354", "wikipedia": "en:SVKM's NMIMS", "education": "university", "addr:street": null, "building": null, "name:fa": null, "addr:postcode": null, "barrier": null, "name:en": "Narsee Monjee Institute Of Management Studies", "old_name": null, "wikimedia_commons": null, "addr:city": null, "internet_access": null, "area": null, "isced:level": null, "name:etymology:wikidata": null, "short_name": "NMIMS", "short_name:en": "NMIMS", "addr:district": null, "addr:housename": null, "addr:place": null, "operator:type": null, "type": null, "website": null, "contact:facebook": null, "contact:instagram": null, "contact:linkedin": null, "name:mr": null, "phone": null, "school:gender": null, "wheelchair": null, "isced:2011:level": null, "name:ar": null, "name:ta": null }, "geometry": { "type": "Polygon", "coordinates": [ [ [ 72.8361556, 19.1028803 ], [ 72.8362361, 19.1028245 ], [ 72.8365847, 19.1028017 ], [ 72.8366813, 19.1028397 ], [ 72.8367296, 19.1029665 ], [ 72.8367564, 19.1031439 ], [ 72.8367752, 19.1037395 ], [ 72.8361583, 19.1037416 ], [ 72.8361422, 19.1029639 ], [ 72.8361556, 19.1028803 ] ] ] } },
{ "type": "Feature", "properties": { "element": "way", "id": 1390433259, "amenity": "university", "name": "Somaiya Vidyavihar University", "addr:housenumber": null, "check_date": null, "operator": "Somaiya Trust", "tag": null, "alt_name": "SVU;Somaiya Vidyavihar", "name:hi": null, "name:ml": null, "wikidata": "Q96405981", "wikipedia": "en:Somaiya Vidyavihar University", "education": null, "addr:street": "Sarvoday Buddh Vihar Marg", "building": null, "name:fa": null, "addr:postcode": "400077", "barrier": null, "name:en": null, "old_name": null, "wikimedia_commons": null, "addr:city": "Mumbai", "internet_access": "wlan", "area": null, "isced:level": null, "name:etymology:wikidata": null, "short_name": null, "short_name:en": null, "addr:district": "Mumbai", "addr:housename": "Somaiya Vidyavihar University", "addr:place": "Vidyavihar", "operator:type": "private", "type": "multipolygon", "website": "https://www.somaiya.edu/en", "contact:facebook": null, "contact:instagram": null, "contact:linkedin": null, "name:mr": null, "phone": null, "school:gender": null, "wheelchair": null, "isced:2011:level": null, "name:ar": null, "name:ta": null }, "geometry": { "type": "Polygon", "coordinates": [ [ [ 72.8963616, 19.0727811 ], [ 72.8971706, 19.0722572 ], [ 72.897322, 19.072149 ], [ 72.8974431, 19.0720538 ], [ 72.8975577, 19.0720096 ], [ 72.8976403, 19.0720037 ], [ 72.897895, 19.0720352 ], [ 72.8981597, 19.0720479 ], [ 72.8984096, 19.0720566 ], [ 72.8985192, 19.072064 ], [ 72.8986218, 19.071967 ], [ 72.8987415, 19.071872 ], [ 72.8988724, 19.0718619 ], [ 72.8992206, 19.0718583 ], [ 72.8993971, 19.0719254 ], [ 72.8999335, 19.0721442 ], [ 72.9000854, 19.0722051 ], [ 72.9004302, 19.0723518 ], [ 72.9007298, 19.072497 ], [ 72.9008819, 19.0725712 ], [ 72.9009748, 19.0726162 ], [ 72.9011123, 19.0726831 ], [ 72.9012226, 19.0727363 ], [ 72.9013323, 19.0727893 ], [ 72.9014463, 19.0728452 ], [ 72.901559, 19.0728826 ], [ 72.9015376, 19.0729853 ], [ 72.901354, 19.0733908 ], [ 72.9015207, 19.0737659 ], [ 72.9016172, 19.0739971 ], [ 72.9019847, 19.0741383 ], [ 72.9022289, 19.0742361 ], [ 72.9023793, 19.0746184 ], [ 72.9019836, 19.074706 ], [ 72.9015469, 19.0748364 ], [ 72.9010408, 19.0749863 ], [ 72.900718, 19.0750652 ], [ 72.9000239, 19.0752019 ], [ 72.9000344, 19.0752244 ], [ 72.9000606, 19.0752771 ], [ 72.9009889, 19.0750628 ], [ 72.9009879, 19.0754479 ], [ 72.9009815, 19.0760151 ], [ 72.9009802, 19.0770274 ], [ 72.9008492, 19.0770427 ], [ 72.9008545, 19.0764334 ], [ 72.9003036, 19.0764046 ], [ 72.9002765, 19.0762451 ], [ 72.9000393, 19.0762786 ], [ 72.8999253, 19.0762009 ], [ 72.8997535, 19.0761992 ], [ 72.8994452, 19.0762468 ], [ 72.8991482, 19.0763333 ], [ 72.8990175, 19.0763722 ], [ 72.8988101, 19.0761391 ], [ 72.8963616, 19.0727811 ] ] ] } },
{ "type": "Feature", "properties": { "element": "way", "id": 1420109924, "amenity": "university", "name": "Jai Hind College", "addr:housenumber": null, "check_date": null, "operator": null, "tag": null, "alt_name": null, "name:hi": "जय हिंद कॉलेज", "name:ml": null, "wikidata": "Q6123383", "wikipedia": "en:Jai Hind College", "education": null, "addr:street": null, "building": null, "name:fa": null, "addr:postcode": null, "barrier": null, "name:en": "Jai Hind College", "old_name": null, "wikimedia_commons": null, "addr:city": null, "internet_access": null, "area": null, "isced:level": null, "name:etymology:wikidata": null, "short_name": null, "short_name:en": null, "addr:district": null, "addr:housename": null, "addr:place": null, "operator:type": "private", "type": null, "website": "https://jaihindcollege.com/", "contact:facebook": "jaihindcollegeofficial", "contact:instagram": "jaihindcollegeofficial", "contact:linkedin": "jai-hind-college-official", "name:mr": "जय हिंद कॉलेज", "phone": "+91 022 2204 1095;+91 022 2204 0256", "school:gender": "mixed", "wheelchair": "limited", "isced:2011:level": null, "name:ar": null, "name:ta": null }, "geometry": { "type": "Polygon", "coordinates": [ [ [ 72.8248698, 18.9351177 ], [ 72.8252469, 18.9350678 ], [ 72.8252011, 18.9347302 ], [ 72.825548, 18.934681 ], [ 72.825495, 18.934332 ], [ 72.8247744, 18.9344309 ], [ 72.8248698, 18.9351177 ] ] ] } },
{ "type": "Feature", "properties": { "element": "way", "id": 1504445716, "amenity": "university", "name": "Somaiya Ayurvihar", "addr:housenumber": null, "check_date": null, "operator": "Somaiya Trust", "tag": null, "alt_name": null, "name:hi": null, "name:ml": null, "wikidata": null, "wikipedia": null, "education": "university", "addr:street": null, "building": null, "name:fa": null, "addr:postcode": null, "barrier": null, "name:en": null, "old_name": null, "wikimedia_commons": null, "addr:city": null, "internet_access": "wlan", "area": null, "isced:level": null, "name:etymology:wikidata": null, "short_name": null, "short_name:en": null, "addr:district": null, "addr:housename": null, "addr:place": null, "operator:type": "private", "type": null, "website": "https://www.somaiya-ayurvihar.org", "contact:facebook": null, "contact:instagram": null, "contact:linkedin": null, "name:mr": null, "phone": null, "school:gender": null, "wheelchair": null, "isced:2011:level": null, "name:ar": null, "name:ta": null }, "geometry": { "type": "Polygon", "coordinates": [ [ [ 72.877543, 19.047722 ], [ 72.8773943, 19.0477926 ], [ 72.8773111, 19.0478575 ], [ 72.8772963, 19.048032 ], [ 72.8771118, 19.0480516 ], [ 72.8766341, 19.0483388 ], [ 72.8763272, 19.0485986 ], [ 72.8753173, 19.0490456 ], [ 72.8750817, 19.0492057 ], [ 72.8748354, 19.0494506 ], [ 72.8745589, 19.0493822 ], [ 72.8744531, 19.0494129 ], [ 72.8740829, 19.0496299 ], [ 72.873709, 19.0498049 ], [ 72.8733773, 19.0498003 ], [ 72.8710027, 19.048908 ], [ 72.8708955, 19.0488185 ], [ 72.87072, 19.0488054 ], [ 72.8703329, 19.0485961 ], [ 72.8701881, 19.0485737 ], [ 72.8699678, 19.0485137 ], [ 72.869971, 19.0476212 ], [ 72.8698866, 19.0473697 ], [ 72.8699321, 19.0470354 ], [ 72.8699223, 19.0462012 ], [ 72.8698841, 19.0458076 ], [ 72.8697318, 19.0455267 ], [ 72.869605, 19.0450916 ], [ 72.8692172, 19.0442181 ], [ 72.8691882, 19.0439235 ], [ 72.8681264, 19.0419271 ], [ 72.8680621, 19.041808 ], [ 72.8680394, 19.0417219 ], [ 72.8680569, 19.0416382 ], [ 72.8681062, 19.0415218 ], [ 72.8681472, 19.0414313 ], [ 72.8682703, 19.0413304 ], [ 72.8699338, 19.0441442 ], [ 72.8701081, 19.0445135 ], [ 72.8702899, 19.0446556 ], [ 72.8711623, 19.045233 ], [ 72.8721598, 19.0456325 ], [ 72.8729426, 19.0458676 ], [ 72.8731262, 19.0458541 ], [ 72.8737112, 19.0460493 ], [ 72.8745458, 19.0463905 ], [ 72.8764297, 19.0470256 ], [ 72.8768875, 19.0472433 ], [ 72.877543, 19.047722 ] ] ] } }
]
}
