{
"type": "FeatureCollection",
"name": "fire_stations",
"crs": { "type": "name", "properties": { "name": "urn:ogc:def:crs:OGC:1.3:CRS84" } },
"features": [
{ "type": "Feature", "properties": { "element": "node", "id": 605222184, "amenity": "fire_station", "addr:city": null, "addr:postcode": null, "addr:street": null, "check_date": null, "name": null, "operator": null, "name:en": null, "building": null, "surface": null }, "geometry": { "type": "Point", "coordinates": [ 72.8291567, 18.9414817 ] } },
{ "type": "Feature", "properties": { "element": "node", "id": 623417932, "amenity": "fire_station", "addr:city": "Mumbai", "addr:postcode": "400005", "addr:street": "N Sawant Road", "check_date": "2026-03-12", "name": "Colaba Fire Station", "operator": null, "name:en": null, "building": null, "surface": null }, "geometry": { "type": "Point", "coordinates": [ 72.8260531, 18.9154546 ] } },
{ "type": "Feature", "properties": { "element": "node", "id": 700725781, "amenity": "fire_station", "addr:city": null, "addr:postcode": null, "addr:street": null, "check_date": null, "name": "Byculla", "operator": null, "name:en": null, "building": null, "surface": null }, "geometry": { "type": "Point", "coordinates": [ 72.8319615, 18.9724562 ] } },
{ "type": "Feature", "properties": { "element": "node", "id": 861411346, "amenity": "fire_station", "addr:city": null, "addr:postcode": null, "addr:street": null, "check_date": null, "name": "Umerkhadi Fire Station", "operator": null, "name:en": null, "building": null, "surface": null }, "geometry": { "type": "Point", "coordinates": [ 72.8326392, 18.9579623 ] } },
{ "type": "Feature", "properties": { "element": "node", "id": 2168679530, "amenity": "fire_station", "addr:city": null, "addr:postcode": null, "addr:street": null, "check_date": null, "name": "Fort Fire Brigade", "operator": null, "name:en": null, "building": null, "surface": null }, "geometry": { "type": "Point", "coordinates": [ 72.8346417, 18.9350735 ] } },
{ "type": "Feature", "properties": { "element": "node", "id": 2187315849, "amenity": "fire_station", "addr:city": null, "addr:postcode": null, "addr:street": null, "check_date": null, "name": "Testing Fire Station", "operator": null, "name:en": null, "building": null, "surface": null }, "geometry": { "type": "Point", "coordinates": [ 72.8538869, 19.0396241 ] } },
{ "type": "Feature", "properties": { "element": "node", "id": 2311428475, "amenity": "fire_station", "addr:city": "Chembur, Mumbai", "addr:postcode": "400071", "addr:street": "V N Purav Marg (Sion Trombay Road)", "check_date": null, "name": "Chembur Fire Station", "operator": "Mumbai fire brigade", "name:en": null, "building": null, "surface": null }, "geometry": { "type": "Point", "coordinates": [ 72.8935199, 19.0545248 ] } },
{ "type": "Feature", "properties": { "element": "node", "id": 9024751917, "amenity": "fire_station", "addr:city": null, "addr:postcode": null, "addr:street": null, "check_date": null, "name": null, "operator": null, "name:en": "Shivaji ParkFire Station", "building": null, "surface": null }, "geometry": { "type": "Point", "coordinates": [ 72.8412091, 19.0331179 ] } },
{ "type": "Feature", "properties": { "element": "way", "id": 39834515, "amenity": "fire_station", "addr:city": null, "addr:postcode": null, "addr:street": null, "check_date": null, "name": "Gowalia Tank Fire Station", "operator": null, "name:en": null, "building": "apartments", "surface": null }, "geometry": { "type": "Polygon", "coordinates": [ [ [ 72.8127603, 18.9617994 ], [ 72.8126513, 18.9617071 ], [ 72.8127084, 18.9616396 ], [ 72.8128174, 18.9617319 ], [ 72.8127603, 18.9617994 ] ] ] } },
{ "type": "Feature", "properties": { "element": "way", "id": 116072855, "amenity": "fire_station", "addr:city": null, "addr:postcode": null, "addr:street": null, "check_date": null, "name": "Dadar Fire Brigade", "operator": null, "name:en": null, "building": "yes", "surface": null }, "geometry": { "type": "Polygon", "coordinates": [ [ [ 72.845904, 19.0139319 ], [ 72.8454558, 19.0141868 ], [ 72.8455807, 19.0144277 ], [ 72.8457585, 19.0143374 ], [ 72.845668, 19.0141921 ], [ 72.845955, 19.0140096 ], [ 72.845904, 19.0139319 ] ] ] } },
{ "type": "Feature", "properties": { "element": "way", "id": 128123470, "amenity": "fire_station", "addr:city": null, "addr:postcode": null, "addr:street": null, "check_date": null, "name": "Malwani Fire Station", "operator": null, "name:en": null, "building": null, "surface": null }, "geometry": { "type": "Polygon", "coordinates": [ [ [ 72.8222443, 19.1960973 ], [ 72.8221322, 19.1962425 ], [ 72.8221049, 19.1963835 ], [ 72.822152, 19.1965306 ], [ 72.8224346, 19.1965485 ], [ 72.822434, 19.1968208 ], [ 72.822436, 19.1970922 ], [ 72.8230545, 19.1971228 ], [ 72.822993, 19.1961572 ], [ 72.8225958, 19.1961241 ], [ 72.8222443, 19.1960973 ] ] ] } },
{ "type": "Feature", "properties": { "element": "way", "id": 207324977, "amenity": "fire_station", "addr:city": null, "addr:postcode": null, "addr:street": null, "check_date": null, "name": null, "operator": null, "name:en": null, "building": null, "surface": null }, "geometry": { "type": "Polygon", "coordinates": [ [ [ 72.8348164, 18.9352421 ], [ 72.8347677, 18.9349861 ], [ 72.8343834, 18.9350365 ], [ 72.8344254, 18.9351702 ], [ 72.8345892, 18.9351573 ], [ 72.8346209, 18.9352566 ], [ 72.8348164, 18.9352421 ] ] ] } },
{ "type": "Feature", "properties": { "element": "way", "id": 207413375, "amenity": "fire_station", "addr:city": null, "addr:postcode": null, "addr:street": null, "check_date": null, "name": "Nariman Point Fire Station", "operator": null, "name:en": null, "building": null, "surface": null }, "geometry": { "type": "Polygon", "coordinates": [ [ [ 72.8258376, 18.923467 ], [ 72.8264366, 18.9229974 ], [ 72.8264849, 18.922952 ], [ 72.8264854, 18.9228917 ], [ 72.8264488, 18.9225452 ], [ 72.8259892, 18.9226962 ], [ 72.8257369, 18.922847 ], [ 72.825874, 18.9229987 ], [ 72.8256766, 18.9232289 ], [ 72.8258376, 18.923467 ] ] ] } },
{ "type": "Feature", "properties": { "element": "way", "id": 257439666, "amenity": "fire_station", "addr:city": null, "addr:postcode": null, "addr:street": null, "check_date": null, "name": "Borivali Firestation", "operator": null, "name:en": null, "building": null, "surface": null }, "geometry": { "type": "Polygon", "coordinates": [ [ [ 72.8398457, 19.2301858 ], [ 72.8396543, 19.2295313 ], [ 72.8402001, 19.2294543 ], [ 72.8403507, 19.2300792 ], [ 72.8398457, 19.2301858 ] ] ] } },
{ "type": "Feature", "properties": { "element": "way", "id": 352973116, "amenity": "fire_station", "addr:city": null, "addr:postcode": null, "addr:street": null, "check_date": null, "name": "Kandivali Fire Station", "operator": "MCGM", "name:en": null, "building": "yes", "surface": null }, "geometry": { "type": "Polygon", "coordinates": [ [ [ 72.850344, 19.2062543 ], [ 72.8505465, 19.2062146 ], [ 72.8505247, 19.2061154 ], [ 72.8504907, 19.2061221 ], [ 72.8504507, 19.2059403 ], [ 72.8507851, 19.2058747 ], [ 72.8507686, 19.2057995 ], [ 72.8502934, 19.2058926 ], [ 72.8503098, 19.205967 ], [ 72.8502878, 19.2059713 ], [ 72.8502953, 19.2060053 ], [ 72.8503055, 19.2060033 ], [ 72.8503391, 19.2061563 ], [ 72.8503231, 19.2061595 ], [ 72.850344, 19.2062543 ] ] ] } },
{ "type": "Feature", "properties": { "element": "way", "id": 353174234, "amenity": "fire_station", "addr:city": "Mumbai", "addr:postcode": "400070", "addr:street": "LBS Marg", "check_date": null, "name": "Kurla Agnishaman Kendra", "operator": "MCGM", "name:en": null, "building": "yes", "surface": null }, "geometry": { "type": "Polygon", "coordinates": [ [ [ 72.8859884, 19.084551 ], [ 72.8860769, 19.0845618 ], [ 72.8861074, 19.0843387 ], [ 72.8857814, 19.084299 ], [ 72.8857629, 19.084435 ], [ 72.8860003, 19.084464 ], [ 72.8859884, 19.084551 ] ] ] } },
{ "type": "Feature", "properties": { "element": "way", "id": 354294947, "amenity": "fire_station", "addr:city": null, "addr:postcode": null, "addr:street": null, "check_date": "2025-11-02", "name": "Babasaheb Worlikar Fire Station", "operator": null, "name:en": null, "building": "yes", "surface": null }, "geometry": { "type": "Polygon", "coordinates": [ [ [ 72.8233154, 19.0131574 ], [ 72.8235078, 19.0132532 ], [ 72.8234849, 19.0132943 ], [ 72.8236704, 19.0133866 ], [ 72.8237523, 19.0132395 ], [ 72.8233744, 19.0130514 ], [ 72.8233154, 19.0131574 ] ] ] } },
{ "type": "Feature", "properties": { "element": "way", "id": 356173988, "amenity": "fire_station", "addr:city": "Mumbai", "addr:postcode": null, "addr:street": "Rajendra Venkateshwara Rao Marg", "check_date": null, "name": "Nariman Point Fire Station", "operator": null, "name:en": null, "building": "service", "surface": null }, "geometry": { "type": "Polygon", "coordinates": [ [ [ 72.8258386, 18.9230967 ], [ 72.8258954, 18.9231603 ], [ 72.8259393, 18.9231252 ], [ 72.8259624, 18.923151 ], [ 72.8259185, 18.9231861 ], [ 72.825975, 18.9232494 ], [ 72.8261773, 18.9230877 ], [ 72.8260409, 18.922935 ], [ 72.8258386, 18.9230967 ] ] ] } },
{ "type": "Feature", "properties": { "element": "way", "id": 359074975, "amenity": "fire_station", "addr:city": null, "addr:postcode": null, "addr:street": null, "check_date": null, "name": "Dindoshi Fire Station", "operator": null, "name:en": null, "building": "yes", "surface": null }, "geometry": { "type": "Polygon", "coordinates": [ [ [ 72.8608582, 19.1751242 ], [ 72.860987, 19.1751447 ], [ 72.8610006, 19.1750682 ], [ 72.8611226, 19.1750875 ], [ 72.8611375, 19.1750036 ], [ 72.860975, 19.1749778 ], [ 72.8609609, 19.1750572 ], [ 72.8608726, 19.1750432 ], [ 72.8608582, 19.1751242 ] ] ] } },
{ "type": "Feature", "properties": { "element": "way", "id": 434887905, "amenity": "fire_station", "addr:city": null, "addr:postcode": null, "addr:street": null, "check_date": null, "name": "Bandra Fire Brigade", "operator": null, "name:en": null, "building": null, "surface": null }, "geometry": { "type": "Polygon", "coordinates": [ [ [ 72.8372526, 19.0501415 ], [ 72.8371288, 19.0502257 ], [ 72.8370622, 19.0503096 ], [ 72.8370893, 19.0506396 ], [ 72.8371187, 19.0507031 ], [ 72.8371914, 19.0507503 ], [ 72.8372929, 19.0507741 ], [ 72.8377837, 19.0507525 ], [ 72.8378964, 19.0507043 ], [ 72.8380037, 19.0506207 ], [ 72.8380493, 19.0505421 ], [ 72.8380653, 19.0504001 ], [ 72.838049, 19.0503359 ], [ 72.8380332, 19.0502733 ], [ 72.8379473, 19.0501745 ], [ 72.8378481, 19.0501314 ], [ 72.8377301, 19.0501111 ], [ 72.8373546, 19.0501238 ], [ 72.8372526, 19.0501415 ] ] ] } },
{ "type": "Feature", "properties": { "element": "way", "id": 621466311, "amenity": "fire_station", "addr:city": null, "addr:postcode": null, "addr:street": null, "check_date": null, "name": "Goregaon Fire Station", "operator": null, "name:en": null, "building": "yes", "surface": null }, "geometry": { "type": "Polygon", "coordinates": [ [ [ 72.8400094, 19.1536664 ], [ 72.8406531, 19.1536462 ], [ 72.8406478, 19.1533269 ], [ 72.8400041, 19.153332 ], [ 72.8400094, 19.1536664 ] ] ] } },
{ "type": "Feature", "properties": { "element": "way", "id": 665687016, "amenity": "fire_station", "addr:city": "Mulund (West)", "addr:postcode": "400080", "addr:street": "Lala Devidayal Road", "check_date": null, "name": "Mulund Fire Brigade", "operator": null, "name:en": null, "building": null, "surface": null }, "geometry": { "type": "Polygon", "coordinates": [ [ [ 72.9429974, 19.175516 ], [ 72.9429894, 19.1747521 ], [ 72.9421163, 19.1747483 ], [ 72.942068, 19.1747838 ], [ 72.9422743, 19.1750761 ], [ 72.9423241, 19.1751466 ], [ 72.942583, 19.1755134 ], [ 72.9426138, 19.1755136 ], [ 72.9429099, 19.1755155 ], [ 72.9429974, 19.175516 ] ] ] } },
{ "type": "Feature", "properties": { "element": "way", "id": 945059965, "amenity": "fire_station", "addr:city": null, "addr:postcode": null, "addr:street": null, "check_date": null, "name": null, "operator": null, "name:en": null, "building": "yes", "surface": null }, "geometry": { "type": "Polygon", "coordinates": [ [ [ 72.8223634, 19.1963356 ], [ 72.8225724, 19.1963342 ], [ 72.8225712, 19.1961671 ], [ 72.8223622, 19.1961684 ], [ 72.8223634, 19.1963356 ] ] ] } },
{ "type": "Feature", "properties": { "element": "way", "id": 1243105383, "amenity": "fire_station", "addr:city": null, "addr:postcode": null, "addr:street": null, "check_date": null, "name": "Mini Fire Station", "operator": null, "name:en": null, "building": null, "surface": null }, "geometry": { "type": "Polygon", "coordinates": [ [ [ 72.8310644, 19.0853335 ], [ 72.8314286, 19.0852344 ], [ 72.8314812, 19.0853812 ], [ 72.8311208, 19.0855037 ], [ 72.8310644, 19.0853335 ] ] ] } },
{ "type": "Feature", "properties": { "element": "way", "id": 1330412751, "amenity": "fire_station", "addr:city": null, "addr:postcode": null, "addr:street": null, "check_date": null, "name": "Vikhroli Fire Brigade", "operator": null, "name:en": null, "building": null, "surface": null }, "geometry": { "type": "Polygon", "coordinates": [ [ [ 72.9177678, 19.1010213 ], [ 72.918491, 19.1007349 ], [ 72.9186772, 19.1010157 ], [ 72.9187204, 19.1010809 ], [ 72.9180492, 19.1015224 ], [ 72.9177678, 19.1010213 ] ] ] } },
{ "type": "Feature", "properties": { "element": "way", "id": 1376380212, "amenity": "fire_station", "addr:city": null, "addr:postcode": null, "addr:street": null, "check_date": null, "name": "Aerodrome Rescue and Fire Fighting", "operator": null, "name:en": null, "building": "yes", "surface": "concrete:plates" }, "geometry": { "type": "Polygon", "coordinates": [ [ [ 72.8731197, 19.0915719 ], [ 72.8734752, 19.0915324 ], [ 72.8740336, 19.0914811 ], [ 72.8741015, 19.0914853 ], [ 72.8741097, 19.0911601 ], [ 72.8738683, 19.0912061 ], [ 72.8736045, 19.0912396 ], [ 72.8735085, 19.0912347 ], [ 72.873195, 19.0911615 ], [ 72.8731129, 19.0911619 ], [ 72.8731197, 19.0915719 ] ] ] } },
{ "type": "Feature", "properties": { "element": "way", "id": 1410353206, "amenity": "fire_station", "addr:city": null, "addr:postcode": null, "addr:street": null, "check_date": "2025-10-24", "name": "Marol fire brigade", "operator": null, "name:en": null, "building": null, "surface": null }, "geometry": { "type": "Polygon", "coordinates": [ [ [ 72.8784379, 19.1103088 ], [ 72.8774655, 19.1103476 ], [ 72.877283, 19.1103603 ], [ 72.8775392, 19.109122 ], [ 72.8783539, 19.1087621 ], [ 72.878473, 19.1087848 ], [ 72.8784379, 19.1103088 ] ] ] } },
{ "type": "Feature", "properties": { "element": "way", "id": 1479265653, "amenity": "fire_station", "addr:city": null, "addr:postcode": null, "addr:street": null, "check_date": null, "name": "Andheri Fire Station", "operator": null, "name:en": "Andheri Fire Station", "building": null, "surface": null }, "geometry": { "type": "Polygon", "coordinates": [ [ [ 72.8403875, 19.1118193 ], [ 72.8413324, 19.1118125 ], [ 72.8413379, 19.1125043 ], [ 72.840393, 19.112511 ], [ 72.8403875, 19.1118193 ] ] ] } }
]
}
