{
"type": "FeatureCollection",
"name": "malls",
"crs": { "type": "name", "properties": { "name": "urn:ogc:def:crs:OGC:1.3:CRS84" } },
"features": [
{ "type": "Feature", "properties": { "element": "node", "id": 342120028, "name": "Crystal Plaza", "shop": "mall", "addr:city": null, "addr:postcode": null, "addr:street": null, "opening_hours": null, "operator": null, "payment:cash": null, "payment:contactless": null, "payment:credit_cards": null, "payment:debit_cards": null, "payment:visa": null, "brand": null, "level": null, "name:hi": null, "addr:district": null, "addr:housenumber": null, "payment:app": null, "phone": null, "building": null, "check_date": null, "contact:instagram": null, "source": null, "wheelchair": null, "landuse": null, "website": null, "wikidata": null, "wikipedia": null, "addr:housename": null, "branch": null, "building:levels": null, "name:en": null, "wikimedia_commons": null, "amenity": null, "contact:website": null, "addr:suburb": null, "toilets": null, "layer": null, "air_conditioning": null, "description": null, "internet_access": null, "nohousenumber": null, "payment:american_express": null, "payment:mastercard": null, "payment:upi": null, "type": null }, "geometry": { "type": "Point", "coordinates": [ 72.8324598, 19.140853 ] } },
{ "type": "Feature", "properties": { "element": "node", "id": 1070841437, "name": "Thakur Shopping Mall & Multiplex", "shop": "mall", "addr:city": null, "addr:postcode": null, "addr:street": null, "opening_hours": null, "operator": null, "payment:cash": null, "payment:contactless": null, "payment:credit_cards": null, "payment:debit_cards": null, "payment:visa": null, "brand": null, "level": null, "name:hi": null, "addr:district": null, "addr:housenumber": null, "payment:app": null, "phone": null, "building": null, "check_date": null, "contact:instagram": null, "source": null, "wheelchair": null, "landuse": null, "website": null, "wikidata": null, "wikipedia": null, "addr:housename": null, "branch": null, "building:levels": null, "name:en": null, "wikimedia_commons": null, "amenity": null, "contact:website": null, "addr:suburb": null, "toilets": null, "layer": null, "air_conditioning": null, "description": null, "internet_access": null, "nohousenumber": null, "payment:american_express": null, "payment:mastercard": null, "payment:upi": null, "type": null }, "geometry": { "type": "Point", "coordinates": [ 72.8743808, 19.2632484 ] } },
{ "type": "Feature", "properties": { "element": "node", "id": 1356239107, "name": "Big Bazzar, Kandivali", "shop": "mall", "addr:city": null, "addr:postcode": null, "addr:street": null, "opening_hours": null, "operator": null, "payment:cash": null, "payment:contactless": null, "payment:credit_cards": null, "payment:debit_cards": null, "payment:visa": null, "brand": null, "level": null, "name:hi": null, "addr:district": null, "addr:housenumber": null, "payment:app": null, "phone": null, "building": null, "check_date": null, "contact:instagram": null, "source": null, "wheelchair": null, "landuse": null, "website": null, "wikidata": null, "wikipedia": null, "addr:housename": null, "branch": null, "building:levels": null, "name:en": null, "wikimedia_commons": null, "amenity": null, "contact:website": null, "addr:suburb": null, "toilets": null, "layer": null, "air_conditioning": null, "description": null, "internet_access": null, "nohousenumber": null, "payment:american_express": null, "payment:mastercard": null, "payment:upi": null, "type": null }, "geometry": { "type": "Point", "coordinates": [ 72.8591049, 19.1900395 ] } },
{ "type": "Feature", "properties": { "element": "node", "id": 2403386465, "name": "VMall", "shop": "mall", "addr:city": null, "addr:postcode": null, "addr:street": null, "opening_hours": null, "operator": null, "payment:cash": null, "payment:contactless": null, "payment:credit_cards": null, "payment:debit_cards": null, "payment:visa": null, "brand": null, "level": null, "name:hi": null, "addr:district": null, "addr:housenumber": null, "payment:app": null, "phone": null, "building": null, "check_date": null, "contact:instagram": null, "source": null, "wheelchair": null, "landuse": null, "website": null, "wikidata": null, "wikipedia": null, "addr:housename": null, "branch": null, "building:levels": null, "name:en": null, "wikimedia_commons": null, "amenity": null, "contact:website": null, "addr:suburb": null, "toilets": null, "layer": null, "air_conditioning": null, "description": null, "internet_access": null, "nohousenumber": null, "payment:american_express": null, "payment:mastercard": null, "payment:upi": null, "type": null }, "geometry": { "type": "Point", "coordinates": [ 72.8673877, 19.2118189 ] } },
{ "type": "Feature", "properties": { "element": "node", "id": 2622695385, "name": "City Centre Mall", "shop": "mall", "addr:city": null, "addr:postcode": null, "addr:street": null, "opening_hours": null, "operator": null, "payment:cash": null, "payment:contactless": null, "payment:credit_cards": null, "payment:debit_cards": null, "payment:visa": null, "brand": null, "level": null, "name:hi": null, "addr:district": null, "addr:housenumber": null, "payment:app": null, "phone": null, "building": null, "check_date": null, "contact:instagram": null, "source": null, "wheelchair": null, "landuse": null, "website": null, "wikidata": null, "wikipedia": null, "addr:housename": null, "branch": null, "building:levels": null, "name:en": null, "wikimedia_commons": null, "amenity": null, "contact:website": null, "addr:suburb": null, "toilets": null, "layer": null, "air_conditioning": null, "description": null, "internet_access": null, "nohousenumber": null, "payment:american_express": null, "payment:mastercard": null, "payment:upi": null, "type": null }, "geometry": { "type": "Point", "coordinates": [ 72.8457567, 19.1623421 ] } },
{ "type": "Feature", "properties": { "element": "node", "id": 5580528930, "name": "Brand Factory Vikhroli", "shop": "mall", "addr:city": null, "addr:postcode": null, "addr:street": null, "opening_hours": null, "operator": null, "payment:cash": null, "payment:contactless": null, "payment:credit_cards": null, "payment:debit_cards": null, "payment:visa": null, "brand": null, "level": null, "name:hi": null, "addr:district": null, "addr:housenumber": null, "payment:app": null, "phone": null, "building": null, "check_date": null, "contact:instagram": null, "source": null, "wheelchair": null, "landuse": null, "website": null, "wikidata": null, "wikipedia": null, "addr:housename": null, "branch": null, "building:levels": null, "name:en": null, "wikimedia_commons": null, "amenity": null, "contact:website": null, "addr:suburb": null, "toilets": null, "layer": null, "air_conditioning": null, "description": null, "internet_access": null, "nohousenumber": null, "payment:american_express": null, "payment:mastercard": null, "payment:upi": null, "type": null }, "geometry": { "type": "Point", "coordinates": [ 72.9266646, 19.1210015 ] } },
{ "type": "Feature", "properties": { "element": "node", "id": 9887637253, "name": "Rmall", "shop": "mall", "addr:city": null, "addr:postcode": null, "addr:street": null, "opening_hours": null, "operator": null, "payment:cash": null, "payment:contactless": null, "payment:credit_cards": null, "payment:debit_cards": null, "payment:visa": null, "brand": null, "level": null, "name:hi": null, "addr:district": null, "addr:housenumber": null, "payment:app": null, "phone": null, "building": null, "check_date": null, "contact:instagram": null, "source": null, "wheelchair": null, "landuse": null, "website": null, "wikidata": null, "wikipedia": null, "addr:housename": null, "branch": null, "building:levels": null, "name:en": null, "wikimedia_commons": null, "amenity": null, "contact:website": null, "addr:suburb": null, "toilets": null, "layer": null, "air_conditioning": null, "description": null, "internet_access": null, "nohousenumber": null, "payment:american_express": null, "payment:mastercard": null, "payment:upi": null, "type": null }, "geometry": { "type": "Point", "coordinates": [ 72.9517398, 19.1838804 ] } },
{ "type": "Feature", "properties": { "element": "node", "id": 10688895850, "name": "Sahkari Bhandar Mall", "shop": "mall", "addr:city": "Mumbai", "addr:postcode": "400028", "addr:street": "Raobahadur S.K. Bole Marg", "opening_hours": "Mo-Su 09:00-21:00", "operator": "Reliance", "payment:cash": "yes", "payment:contactless": "yes", "payment:credit_cards": "yes", "payment:debit_cards": "yes", "payment:visa": "yes", "brand": null, "level": null, "name:hi": null, "addr:district": null, "addr:housenumber": null, "payment:app": null, "phone": null, "building": null, "check_date": null, "contact:instagram": null, "source": null, "wheelchair": null, "landuse": null, "website": null, "wikidata": null, "wikipedia": null, "addr:housename": null, "branch": null, "building:levels": null, "name:en": null, "wikimedia_commons": null, "amenity": null, "contact:website": null, "addr:suburb": null, "toilets": null, "layer": null, "air_conditioning": null, "description": null, "internet_access": null, "nohousenumber": null, "payment:american_express": null, "payment:mastercard": null, "payment:upi": null, "type": null }, "geometry": { "type": "Point", "coordinates": [ 72.8328546, 19.0188151 ] } },
{ "type": "Feature", "properties": { "element": "node", "id": 10928530153, "name": "Harmony Mall", "shop": "mall", "addr:city": null, "addr:postcode": null, "addr:street": null, "opening_hours": null, "operator": null, "payment:cash": null, "payment:contactless": null, "payment:credit_cards": null, "payment:debit_cards": null, "payment:visa": null, "brand": null, "level": null, "name:hi": null, "addr:district": null, "addr:housenumber": null, "payment:app": null, "phone": null, "building": null, "check_date": null, "contact:instagram": null, "source": null, "wheelchair": null, "landuse": null, "website": null, "wikidata": null, "wikipedia": null, "addr:housename": null, "branch": null, "building:levels": null, "name:en": null, "wikimedia_commons": null, "amenity": null, "contact:website": null, "addr:suburb": null, "toilets": null, "layer": null, "air_conditioning": null, "description": null, "internet_access": null, "nohousenumber": null, "payment:american_express": null, "payment:mastercard": null, "payment:upi": null, "type": null }, "geometry": { "type": "Point", "coordinates": [ 72.8346788, 19.1575954 ] } },
{ "type": "Feature", "properties": { "element": "node", "id": 11697795359, "name": "Powai Plaza", "shop": "mall", "addr:city": null, "addr:postcode": null, "addr:street": null, "opening_hours": null, "operator": null, "payment:cash": null, "payment:contactless": null, "payment:credit_cards": null, "payment:debit_cards": null, "payment:visa": null, "brand": null, "level": null, "name:hi": null, "addr:district": null, "addr:housenumber": null, "payment:app": null, "phone": null, "building": null, "check_date": null, "contact:instagram": null, "source": null, "wheelchair": null, "landuse": null, "website": null, "wikidata": null, "wikipedia": null, "addr:housename": null, "branch": null, "building:levels": null, "name:en": null, "wikimedia_commons": null, "amenity": null, "contact:website": null, "addr:suburb": null, "toilets": null, "layer": null, "air_conditioning": null, "description": null, "internet_access": null, "nohousenumber": null, "payment:american_express": null, "payment:mastercard": null, "payment:upi": null, "type": null }, "geometry": { "type": "Point", "coordinates": [ 72.9131293, 19.1229385 ] } },
{ "type": "Feature", "properties": { "element": "node", "id": 11697823599, "name": "Hakone", "shop": "mall", "addr:city": null, "addr:postcode": null, "addr:street": null, "opening_hours": null, "operator": null, "payment:cash": null, "payment:contactless": null, "payment:credit_cards": null, "payment:debit_cards": null, "payment:visa": null, "brand": null, "level": null, "name:hi": null, "addr:district": null, "addr:housenumber": null, "payment:app": null, "phone": null, "building": null, "check_date": null, "contact:instagram": null, "source": null, "wheelchair": null, "landuse": null, "website": null, "wikidata": null, "wikipedia": null, "addr:housename": null, "branch": null, "building:levels": null, "name:en": null, "wikimedia_commons": null, "amenity": null, "contact:website": null, "addr:suburb": null, "toilets": null, "layer": null, "air_conditioning": null, "description": null, "internet_access": null, "nohousenumber": null, "payment:american_express": null, "payment:mastercard": null, "payment:upi": null, "type": null }, "geometry": { "type": "Point", "coordinates": [ 72.9136369, 19.1224971 ] } },
{ "type": "Feature", "properties": { "element": "node", "id": 11716428186, "name": "WMART", "shop": "mall", "addr:city": null, "addr:postcode": null, "addr:street": null, "opening_hours": null, "operator": null, "payment:cash": null, "payment:contactless": null, "payment:credit_cards": null, "payment:debit_cards": null, "payment:visa": null, "brand": "Star Mart", "level": null, "name:hi": null, "addr:district": null, "addr:housenumber": null, "payment:app": null, "phone": null, "building": null, "check_date": null, "contact:instagram": null, "source": null, "wheelchair": null, "landuse": null, "website": null, "wikidata": null, "wikipedia": null, "addr:housename": null, "branch": null, "building:levels": null, "name:en": null, "wikimedia_commons": null, "amenity": null, "contact:website": null, "addr:suburb": null, "toilets": null, "layer": null, "air_conditioning": null, "description": null, "internet_access": null, "nohousenumber": null, "payment:american_express": null, "payment:mastercard": null, "payment:upi": null, "type": null }, "geometry": { "type": "Point", "coordinates": [ 72.9322796, 19.0372789 ] } },
{ "type": "Feature", "properties": { "element": "node", "id": 12254525062, "name": "Indraprasth Shopping Center", "shop": "mall", "addr:city": "Mumbai", "addr:postcode": "400092", "addr:street": "Swami Vivekanand Road", "opening_hours": "Mo-Su 09:00-21:00", "operator": null, "payment:cash": null, "payment:contactless": null, "payment:credit_cards": null, "payment:debit_cards": null, "payment:visa": null, "brand": null, "level": null, "name:hi": null, "addr:district": null, "addr:housenumber": null, "payment:app": null, "phone": null, "building": null, "check_date": null, "contact:instagram": null, "source": null, "wheelchair": null, "landuse": null, "website": null, "wikidata": null, "wikipedia": null, "addr:housename": null, "branch": null, "building:levels": null, "name:en": null, "wikimedia_commons": null, "amenity": null, "contact:website": null, "addr:suburb": null, "toilets": null, "layer": null, "air_conditioning": null, "description": null, "internet_access": null, "nohousenumber": null, "payment:american_express": null, "payment:mastercard": null, "payment:upi": null, "type": null }, "geometry": { "type": "Point", "coordinates": [ 72.8559399, 19.2269466 ] } },
{ "type": "Feature", "properties": { "element": "node", "id": 12328181742, "name": "Tirumala Shopping Center", "shop": "mall", "addr:city": null, "addr:postcode": null, "addr:street": null, "opening_hours": null, "operator": null, "payment:cash": null, "payment:contactless": null, "payment:credit_cards": null, "payment:debit_cards": null, "payment:visa": null, "brand": null, "level": "0", "name:hi": "तिरुमाला", "addr:district": null, "addr:housenumber": null, "payment:app": null, "phone": null, "building": null, "check_date": null, "contact:instagram": null, "source": null, "wheelchair": null, "landuse": null, "website": null, "wikidata": null, "wikipedia": null, "addr:housename": null, "branch": null, "building:levels": null, "name:en": null, "wikimedia_commons": null, "amenity": null, "contact:website": null, "addr:suburb": null, "toilets": null, "layer": null, "air_conditioning": null, "description": null, "internet_access": null, "nohousenumber": null, "payment:american_express": null, "payment:mastercard": null, "payment:upi": null, "type": null }, "geometry": { "type": "Point", "coordinates": [ 72.8279771, 19.1290885 ] } },
{ "type": "Feature", "properties": { "element": "node", "id": 12509250152, "name": "orbits mall", "shop": "mall", "addr:city": "Mumbai", "addr:postcode": "400026", "addr:street": "Altamount Road (S K Barodawala Marg)", "opening_hours": "Mo-Su 10:00-22:00", "operator": "benny", "payment:cash": "yes", "payment:contactless": null, "payment:credit_cards": "yes", "payment:debit_cards": "yes", "payment:visa": "yes", "brand": null, "level": null, "name:hi": null, "addr:district": "MUMBAI", "addr:housenumber": "292", "payment:app": "yes", "phone": "00978654321", "building": null, "check_date": null, "contact:instagram": null, "source": null, "wheelchair": null, "landuse": null, "website": null, "wikidata": null, "wikipedia": null, "addr:housename": null, "branch": null, "building:levels": null, "name:en": null, "wikimedia_commons": null, "amenity": null, "contact:website": null, "addr:suburb": null, "toilets": null, "layer": null, "air_conditioning": null, "description": null, "internet_access": null, "nohousenumber": null, "payment:american_express": null, "payment:mastercard": null, "payment:upi": null, "type": null }, "geometry": { "type": "Point", "coordinates": [ 72.8073895, 18.9687093 ] } },
{ "type": "Feature", "properties": { "element": "node", "id": 13380799815, "name": "Infiniti Mall", "shop": "mall", "addr:city": "Mumbai", "addr:postcode": "400064", "addr:street": "Link Road", "opening_hours": "Mo-Su 10:00-22:00", "operator": null, "payment:cash": null, "payment:contactless": null, "payment:credit_cards": "yes", "payment:debit_cards": null, "payment:visa": null, "brand": null, "level": null, "name:hi": null, "addr:district": "Malad West", "addr:housenumber": "Malad West Metro Station, New Link Road", "payment:app": null, "phone": "02242440000", "building": null, "check_date": null, "contact:instagram": null, "source": null, "wheelchair": null, "landuse": null, "website": null, "wikidata": null, "wikipedia": null, "addr:housename": null, "branch": null, "building:levels": null, "name:en": null, "wikimedia_commons": null, "amenity": null, "contact:website": null, "addr:suburb": null, "toilets": null, "layer": null, "air_conditioning": null, "description": null, "internet_access": null, "nohousenumber": null, "payment:american_express": null, "payment:mastercard": null, "payment:upi": null, "type": null }, "geometry": { "type": "Point", "coordinates": [ 72.8353721, 19.1851346 ] } },
{ "type": "Feature", "properties": { "element": "node", "id": 13514250413, "name": "Elite Shopping Centre", "shop": "mall", "addr:city": null, "addr:postcode": null, "addr:street": null, "opening_hours": null, "operator": null, "payment:cash": null, "payment:contactless": null, "payment:credit_cards": null, "payment:debit_cards": null, "payment:visa": null, "brand": null, "level": null, "name:hi": null, "addr:district": null, "addr:housenumber": null, "payment:app": null, "phone": null, "building": null, "check_date": null, "contact:instagram": null, "source": null, "wheelchair": null, "landuse": null, "website": null, "wikidata": null, "wikipedia": null, "addr:housename": null, "branch": null, "building:levels": null, "name:en": null, "wikimedia_commons": null, "amenity": null, "contact:website": null, "addr:suburb": null, "toilets": null, "layer": null, "air_conditioning": null, "description": null, "internet_access": null, "nohousenumber": null, "payment:american_express": null, "payment:mastercard": null, "payment:upi": null, "type": null }, "geometry": { "type": "Point", "coordinates": [ 72.8329359, 18.932119 ] } },
{ "type": "Feature", "properties": { "element": "relation", "id": 12837114, "name": null, "shop": "mall", "addr:city": null, "addr:postcode": null, "addr:street": null, "opening_hours": null, "operator": null, "payment:cash": null, "payment:contactless": null, "payment:credit_cards": null, "payment:debit_cards": null, "payment:visa": null, "brand": null, "level": null, "name:hi": null, "addr:district": null, "addr:housenumber": null, "payment:app": null, "phone": null, "building": "yes", "check_date": null, "contact:instagram": null, "source": null, "wheelchair": null, "landuse": null, "website": null, "wikidata": null, "wikipedia": null, "addr:housename": null, "branch": null, "building:levels": null, "name:en": null, "wikimedia_commons": null, "amenity": null, "contact:website": null, "addr:suburb": null, "toilets": null, "layer": null, "air_conditioning": null, "description": null, "internet_access": null, "nohousenumber": null, "payment:american_express": null, "payment:mastercard": null, "payment:upi": null, "type": "multipolygon" }, "geometry": { "type": "Polygon", "coordinates": [ [ [ 72.8097592, 18.9078442 ], [ 72.8098084, 18.9078254 ], [ 72.8098612, 18.9078208 ], [ 72.8099132, 18.9078307 ], [ 72.8099601, 18.9078543 ], [ 72.8100269, 18.9077263 ], [ 72.8099778, 18.9077073 ], [ 72.8099365, 18.9076757 ], [ 72.8099066, 18.9076343 ], [ 72.8098905, 18.9075865 ], [ 72.8098896, 18.9075363 ], [ 72.8097179, 18.9075468 ], [ 72.8097217, 18.9075916 ], [ 72.8097128, 18.9076456 ], [ 72.8096954, 18.907693 ], [ 72.8096644, 18.9077338 ], [ 72.8096224, 18.9077643 ], [ 72.8097178, 18.9078756 ], [ 72.8097592, 18.9078442 ] ], [ [ 72.8097519, 18.9077747 ], [ 72.8098176, 18.9076618 ], [ 72.8098981, 18.9077684 ], [ 72.8097519, 18.9077747 ] ] ] } },
{ "type": "Feature", "properties": { "element": "way", "id": 42441130, "name": null, "shop": "mall", "addr:city": null, "addr:postcode": "400018", "addr:street": "Dr Annie Besant Road", "opening_hours": null, "operator": null, "payment:cash": null, "payment:contactless": null, "payment:credit_cards": null, "payment:debit_cards": null, "payment:visa": null, "brand": null, "level": null, "name:hi": null, "addr:district": null, "addr:housenumber": null, "payment:app": null, "phone": null, "building": "commercial", "check_date": "2026-03-20", "contact:instagram": "atriamallworli", "source": "Yahoo", "wheelchair": "limited", "landuse": null, "website": null, "wikidata": null, "wikipedia": null, "addr:housename": null, "branch": null, "building:levels": null, "name:en": null, "wikimedia_commons": null, "amenity": null, "contact:website": null, "addr:suburb": null, "toilets": null, "layer": null, "air_conditioning": null, "description": null, "internet_access": null, "nohousenumber": null, "payment:american_express": null, "payment:mastercard": null, "payment:upi": null, "type": null }, "geometry": { "type": "Polygon", "coordinates": [ [ [ 72.8142715, 18.9906735 ], [ 72.8143006, 18.9910576 ], [ 72.8143114, 18.9916029 ], [ 72.8147833, 18.9915628 ], [ 72.8148606, 18.991332 ], [ 72.8148342, 18.9910896 ], [ 72.8146393, 18.9909492 ], [ 72.8146293, 18.9908734 ], [ 72.8146169, 18.9908078 ], [ 72.8146313, 18.9908097 ], [ 72.8146267, 18.9907616 ], [ 72.8146049, 18.9907019 ], [ 72.8145773, 18.9906635 ], [ 72.8142715, 18.9906735 ] ] ] } },
{ "type": "Feature", "properties": { "element": "way", "id": 102537787, "name": "Oberoi Mall", "shop": "mall", "addr:city": null, "addr:postcode": null, "addr:street": "Gen A K Vaidya Marg", "opening_hours": null, "operator": null, "payment:cash": null, "payment:contactless": null, "payment:credit_cards": null, "payment:debit_cards": null, "payment:visa": null, "brand": null, "level": null, "name:hi": null, "addr:district": null, "addr:housenumber": null, "payment:app": null, "phone": null, "building": null, "check_date": null, "contact:instagram": null, "source": null, "wheelchair": null, "landuse": "commercial", "website": null, "wikidata": null, "wikipedia": null, "addr:housename": null, "branch": null, "building:levels": null, "name:en": null, "wikimedia_commons": null, "amenity": null, "contact:website": null, "addr:suburb": null, "toilets": null, "layer": null, "air_conditioning": null, "description": null, "internet_access": null, "nohousenumber": null, "payment:american_express": null, "payment:mastercard": null, "payment:upi": null, "type": null }, "geometry": { "type": "Polygon", "coordinates": [ [ [ 72.8598975, 19.1742027 ], [ 72.85975, 19.1741206 ], [ 72.8596981, 19.1740499 ], [ 72.8596781, 19.1739038 ], [ 72.8596389, 19.1736341 ], [ 72.8598804, 19.1733976 ], [ 72.8598924, 19.1732941 ], [ 72.8599286, 19.1732372 ], [ 72.8613113, 19.1736403 ], [ 72.8613732, 19.1737342 ], [ 72.8614937, 19.1737749 ], [ 72.8614707, 19.1739836 ], [ 72.8615563, 19.173991 ], [ 72.8615565, 19.1740497 ], [ 72.8615043, 19.1742619 ], [ 72.8610192, 19.1743375 ], [ 72.8601125, 19.1742478 ], [ 72.8598975, 19.1742027 ] ] ] } },
{ "type": "Feature", "properties": { "element": "way", "id": 120134011, "name": null, "shop": "mall", "addr:city": null, "addr:postcode": null, "addr:street": null, "opening_hours": null, "operator": null, "payment:cash": null, "payment:contactless": null, "payment:credit_cards": null, "payment:debit_cards": null, "payment:visa": null, "brand": null, "level": null, "name:hi": null, "addr:district": null, "addr:housenumber": null, "payment:app": null, "phone": null, "building": "commercial", "check_date": null, "contact:instagram": null, "source": null, "wheelchair": null, "landuse": null, "website": null, "wikidata": null, "wikipedia": null, "addr:housename": null, "branch": null, "building:levels": null, "name:en": null, "wikimedia_commons": null, "amenity": null, "contact:website": null, "addr:suburb": null, "toilets": null, "layer": null, "air_conditioning": null, "description": null, "internet_access": null, "nohousenumber": null, "payment:american_express": null, "payment:mastercard": null, "payment:upi": null, "type": null }, "geometry": { "type": "Polygon", "coordinates": [ [ [ 72.8332876, 19.185241 ], [ 72.8348058, 19.1852577 ], [ 72.8348169, 19.1843601 ], [ 72.8332986, 19.1843434 ], [ 72.8332876, 19.185241 ] ] ] } },
{ "type": "Feature", "properties": { "element": "way", "id": 120175206, "name": "Star Mall", "shop": "mall", "addr:city": null, "addr:postcode": null, "addr:street": null, "opening_hours": null, "operator": null, "payment:cash": null, "payment:contactless": null, "payment:credit_cards": null, "payment:debit_cards": null, "payment:visa": null, "brand": null, "level": null, "name:hi": null, "addr:district": null, "addr:housenumber": null, "payment:app": null, "phone": null, "building": "yes", "check_date": null, "contact:instagram": null, "source": null, "wheelchair": null, "landuse": null, "website": null, "wikidata": null, "wikipedia": null, "addr:housename": null, "branch": null, "building:levels": null, "name:en": null, "wikimedia_commons": null, "amenity": null, "contact:website": null, "addr:suburb": null, "toilets": null, "layer": null, "air_conditioning": null, "description": null, "internet_access": null, "nohousenumber": null, "payment:american_express": null, "payment:mastercard": null, "payment:upi": null, "type": null }, "geometry": { "type": "Polygon", "coordinates": [ [ [ 72.8417131, 19.0227679 ], [ 72.8418687, 19.0231356 ], [ 72.8419089, 19.023128 ], [ 72.8420269, 19.0230443 ], [ 72.8421128, 19.0229809 ], [ 72.8421959, 19.022882 ], [ 72.8422469, 19.0228338 ], [ 72.8422898, 19.0226994 ], [ 72.8419768, 19.022585 ], [ 72.8419223, 19.0227147 ], [ 72.8418553, 19.02274 ], [ 72.8417131, 19.0227679 ] ] ] } },
{ "type": "Feature", "properties": { "element": "way", "id": 125059117, "name": "Raghuleela Mega Mall", "shop": "mall", "addr:city": "Mumbai", "addr:postcode": "400067", "addr:street": null, "opening_hours": null, "operator": null, "payment:cash": null, "payment:contactless": null, "payment:credit_cards": null, "payment:debit_cards": null, "payment:visa": null, "brand": null, "level": null, "name:hi": null, "addr:district": null, "addr:housenumber": null, "payment:app": null, "phone": null, "building": "yes", "check_date": null, "contact:instagram": null, "source": null, "wheelchair": "yes", "landuse": null, "website": "https://raghuleelakandivali.in/", "wikidata": "Q7283003", "wikipedia": "en:Raghuleela Mall, Kandivali", "addr:housename": null, "branch": null, "building:levels": null, "name:en": null, "wikimedia_commons": null, "amenity": null, "contact:website": null, "addr:suburb": null, "toilets": null, "layer": null, "air_conditioning": null, "description": null, "internet_access": null, "nohousenumber": null, "payment:american_express": null, "payment:mastercard": null, "payment:upi": null, "type": null }, "geometry": { "type": "Polygon", "coordinates": [ [ [ 72.8488719, 19.2128337 ], [ 72.8496454, 19.2131045 ], [ 72.84936, 19.2137861 ], [ 72.8486627, 19.2135378 ], [ 72.8488719, 19.2128337 ] ] ] } },
{ "type": "Feature", "properties": { "element": "way", "id": 151205176, "name": "Magnet Mall", "shop": "mall", "addr:city": "mumbai", "addr:postcode": null, "addr:street": "LBS Marg", "opening_hours": null, "operator": null, "payment:cash": null, "payment:contactless": null, "payment:credit_cards": null, "payment:debit_cards": null, "payment:visa": null, "brand": null, "level": null, "name:hi": null, "addr:district": null, "addr:housenumber": null, "payment:app": null, "phone": null, "building": null, "check_date": null, "contact:instagram": null, "source": null, "wheelchair": null, "landuse": "retail", "website": null, "wikidata": null, "wikipedia": null, "addr:housename": null, "branch": null, "building:levels": null, "name:en": null, "wikimedia_commons": null, "amenity": null, "contact:website": null, "addr:suburb": null, "toilets": null, "layer": null, "air_conditioning": null, "description": null, "internet_access": null, "nohousenumber": null, "payment:american_express": null, "payment:mastercard": null, "payment:upi": null, "type": null }, "geometry": { "type": "Polygon", "coordinates": [ [ [ 72.9312587, 19.1405236 ], [ 72.9317003, 19.1413779 ], [ 72.9325387, 19.1422864 ], [ 72.9317227, 19.1429156 ], [ 72.9310468, 19.1421757 ], [ 72.9303843, 19.141 ], [ 72.9304165, 19.1408834 ], [ 72.9312587, 19.1405236 ] ] ] } },
{ "type": "Feature", "properties": { "element": "way", "id": 151848226, "name": "InOrbit Mall", "shop": "mall", "addr:city": "mumbai", "addr:postcode": "400092", "addr:street": "Goregaon Link Road", "opening_hours": "Mo-Su 11:00-21:30", "operator": "inox", "payment:cash": "yes", "payment:contactless": null, "payment:credit_cards": "yes", "payment:debit_cards": "yes", "payment:visa": null, "brand": "inox", "level": null, "name:hi": null, "addr:district": null, "addr:housenumber": "h-123", "payment:app": null, "phone": "912233445566", "building": "yes", "check_date": null, "contact:instagram": null, "source": null, "wheelchair": null, "landuse": null, "website": null, "wikidata": null, "wikipedia": null, "addr:housename": "InOrbit Mall", "branch": "inox", "building:levels": null, "name:en": null, "wikimedia_commons": null, "amenity": null, "contact:website": null, "addr:suburb": null, "toilets": null, "layer": null, "air_conditioning": null, "description": null, "internet_access": null, "nohousenumber": null, "payment:american_express": null, "payment:mastercard": null, "payment:upi": null, "type": null }, "geometry": { "type": "Polygon", "coordinates": [ [ [ 72.8348714, 19.172744 ], [ 72.8346527, 19.1721864 ], [ 72.8348768, 19.1721244 ], [ 72.8356367, 19.1720108 ], [ 72.8362489, 19.1737044 ], [ 72.8357132, 19.1738696 ], [ 72.8352431, 19.1726356 ], [ 72.8348714, 19.172744 ] ] ] } },
{ "type": "Feature", "properties": { "element": "way", "id": 151889253, "name": "Phoenix Market City Kurla", "shop": "mall", "addr:city": "mumbai", "addr:postcode": "400070", "addr:street": "LBS Marg", "opening_hours": null, "operator": null, "payment:cash": null, "payment:contactless": null, "payment:credit_cards": null, "payment:debit_cards": null, "payment:visa": null, "brand": null, "level": null, "name:hi": "फिनिक्स मार्कटसिटी", "addr:district": null, "addr:housenumber": null, "payment:app": null, "phone": "+91 22 6180 1022", "building": "retail", "check_date": null, "contact:instagram": null, "source": null, "wheelchair": "yes", "landuse": null, "website": "http://www.phoenixmarketcitymumbai.com/", "wikidata": "Q22952144", "wikipedia": "en:Phoenix Marketcity (Mumbai)", "addr:housename": null, "branch": null, "building:levels": "6", "name:en": "Phoenix Marketcity Kurla", "wikimedia_commons": "Category:Phoenix Marketcity (Mumbai)", "amenity": null, "contact:website": null, "addr:suburb": null, "toilets": null, "layer": null, "air_conditioning": null, "description": null, "internet_access": null, "nohousenumber": null, "payment:american_express": null, "payment:mastercard": null, "payment:upi": null, "type": null }, "geometry": { "type": "Polygon", "coordinates": [ [ [ 72.8870171, 19.0853945 ], [ 72.8870411, 19.085315 ], [ 72.8872574, 19.0853476 ], [ 72.8875238, 19.0853298 ], [ 72.8876742, 19.0852736 ], [ 72.8877996, 19.0852884 ], [ 72.8885299, 19.0857771 ], [ 72.8885143, 19.0858956 ], [ 72.888624, 19.0859252 ], [ 72.8886929, 19.0858867 ], [ 72.8892477, 19.0861948 ], [ 72.8894671, 19.086254 ], [ 72.8897712, 19.086254 ], [ 72.8900658, 19.0862392 ], [ 72.8902507, 19.0863014 ], [ 72.8906958, 19.0864999 ], [ 72.89063, 19.0870804 ], [ 72.8905485, 19.0871871 ], [ 72.8898464, 19.0872315 ], [ 72.8898432, 19.087196 ], [ 72.8890722, 19.0872789 ], [ 72.8890628, 19.087193 ], [ 72.8887368, 19.0872404 ], [ 72.8887368, 19.0872671 ], [ 72.8882322, 19.0872374 ], [ 72.8881538, 19.0870656 ], [ 72.8882186, 19.0868042 ], [ 72.8882649, 19.0866177 ], [ 72.8882823, 19.0865621 ], [ 72.8882322, 19.0861148 ], [ 72.8870975, 19.0854365 ], [ 72.8870171, 19.0853945 ] ] ] } },
{ "type": "Feature", "properties": { "element": "way", "id": 193632118, "name": "Infiniti Mall", "shop": "mall", "addr:city": null, "addr:postcode": null, "addr:street": null, "opening_hours": "Mo-Su 11:00-22:00", "operator": "Infiniti", "payment:cash": null, "payment:contactless": null, "payment:credit_cards": null, "payment:debit_cards": null, "payment:visa": null, "brand": null, "level": null, "name:hi": null, "addr:district": null, "addr:housenumber": null, "payment:app": null, "phone": null, "building": null, "check_date": null, "contact:instagram": null, "source": null, "wheelchair": null, "landuse": null, "website": null, "wikidata": null, "wikipedia": null, "addr:housename": null, "branch": null, "building:levels": null, "name:en": null, "wikimedia_commons": null, "amenity": "cinema", "contact:website": "https://www.infinitimall.com", "addr:suburb": null, "toilets": null, "layer": null, "air_conditioning": null, "description": null, "internet_access": null, "nohousenumber": null, "payment:american_express": null, "payment:mastercard": null, "payment:upi": null, "type": null }, "geometry": { "type": "Polygon", "coordinates": [ [ [ 72.8312659, 19.1417714 ], [ 72.8313708, 19.1416578 ], [ 72.8314279, 19.1410152 ], [ 72.8314369, 19.140885 ], [ 72.8314394, 19.140828 ], [ 72.8304723, 19.1407975 ], [ 72.8304455, 19.1408027 ], [ 72.8303796, 19.1417251 ], [ 72.8312659, 19.1417714 ] ] ] } },
{ "type": "Feature", "properties": { "element": "way", "id": 193632123, "name": "Citi Mall", "shop": "mall", "addr:city": null, "addr:postcode": "400053", "addr:street": "New Link Road, Andheri West", "opening_hours": "Mo-Su 11:00-22:00", "operator": "Citi Mall", "payment:cash": null, "payment:contactless": null, "payment:credit_cards": null, "payment:debit_cards": null, "payment:visa": null, "brand": null, "level": null, "name:hi": null, "addr:district": null, "addr:housenumber": null, "payment:app": null, "phone": null, "building": "retail", "check_date": null, "contact:instagram": null, "source": null, "wheelchair": null, "landuse": null, "website": null, "wikidata": null, "wikipedia": null, "addr:housename": "Citi Mall", "branch": null, "building:levels": null, "name:en": null, "wikimedia_commons": null, "amenity": null, "contact:website": null, "addr:suburb": "Andheri", "toilets": "yes", "layer": null, "air_conditioning": null, "description": null, "internet_access": null, "nohousenumber": null, "payment:american_express": null, "payment:mastercard": null, "payment:upi": null, "type": null }, "geometry": { "type": "Polygon", "coordinates": [ [ [ 72.8311046, 19.1390693 ], [ 72.8311579, 19.138449 ], [ 72.8315188, 19.1384767 ], [ 72.8314654, 19.139097 ], [ 72.8311046, 19.1390693 ] ] ] } },
{ "type": "Feature", "properties": { "element": "way", "id": 195694235, "name": "Galleria", "shop": "mall", "addr:city": null, "addr:postcode": null, "addr:street": null, "opening_hours": null, "operator": null, "payment:cash": null, "payment:contactless": null, "payment:credit_cards": null, "payment:debit_cards": null, "payment:visa": null, "brand": null, "level": null, "name:hi": null, "addr:district": null, "addr:housenumber": null, "payment:app": null, "phone": null, "building": null, "check_date": null, "contact:instagram": null, "source": null, "wheelchair": null, "landuse": "retail", "website": null, "wikidata": null, "wikipedia": null, "addr:housename": null, "branch": null, "building:levels": null, "name:en": null, "wikimedia_commons": null, "amenity": null, "contact:website": null, "addr:suburb": null, "toilets": null, "layer": null, "air_conditioning": null, "description": null, "internet_access": null, "nohousenumber": null, "payment:american_express": null, "payment:mastercard": null, "payment:upi": null, "type": null }, "geometry": { "type": "Polygon", "coordinates": [ [ [ 72.9111178, 19.1195109 ], [ 72.9108523, 19.1189965 ], [ 72.9115121, 19.118885 ], [ 72.911708, 19.1188799 ], [ 72.9118018, 19.1188825 ], [ 72.9118983, 19.1189103 ], [ 72.9119896, 19.1189661 ], [ 72.9120677, 19.1190748 ], [ 72.9121157, 19.1191815 ], [ 72.9121643, 19.1192877 ], [ 72.9123386, 19.1197033 ], [ 72.911834, 19.1198531 ], [ 72.9111178, 19.1195109 ] ] ] } },
{ "type": "Feature", "properties": { "element": "way", "id": 202516359, "name": "Mega Mall", "shop": "mall", "addr:city": null, "addr:postcode": null, "addr:street": null, "opening_hours": null, "operator": null, "payment:cash": null, "payment:contactless": null, "payment:credit_cards": null, "payment:debit_cards": null, "payment:visa": null, "brand": null, "level": null, "name:hi": null, "addr:district": null, "addr:housenumber": null, "payment:app": null, "phone": null, "building": "retail", "check_date": null, "contact:instagram": null, "source": null, "wheelchair": null, "landuse": null, "website": null, "wikidata": null, "wikipedia": null, "addr:housename": null, "branch": null, "building:levels": null, "name:en": null, "wikimedia_commons": null, "amenity": null, "contact:website": null, "addr:suburb": null, "toilets": null, "layer": null, "air_conditioning": null, "description": null, "internet_access": null, "nohousenumber": null, "payment:american_express": null, "payment:mastercard": null, "payment:upi": null, "type": null }, "geometry": { "type": "Polygon", "coordinates": [ [ [ 72.8338343, 19.1523141 ], [ 72.8342151, 19.1519087 ], [ 72.8348267, 19.1513462 ], [ 72.8338933, 19.1513479 ], [ 72.8338343, 19.1523141 ] ] ] } },
{ "type": "Feature", "properties": { "element": "way", "id": 202563247, "name": "Tata Star Bazaar", "shop": "mall", "addr:city": null, "addr:postcode": "400053", "addr:street": "New Link Road, Andheri West", "opening_hours": null, "operator": null, "payment:cash": null, "payment:contactless": null, "payment:credit_cards": null, "payment:debit_cards": null, "payment:visa": null, "brand": null, "level": null, "name:hi": null, "addr:district": null, "addr:housenumber": null, "payment:app": null, "phone": null, "building": "supermarket", "check_date": null, "contact:instagram": null, "source": null, "wheelchair": null, "landuse": null, "website": null, "wikidata": null, "wikipedia": null, "addr:housename": "Tata Star Bazaar", "branch": null, "building:levels": null, "name:en": null, "wikimedia_commons": null, "amenity": null, "contact:website": null, "addr:suburb": null, "toilets": null, "layer": null, "air_conditioning": null, "description": null, "internet_access": null, "nohousenumber": null, "payment:american_express": null, "payment:mastercard": null, "payment:upi": null, "type": null }, "geometry": { "type": "Polygon", "coordinates": [ [ [ 72.8305433, 19.1311626 ], [ 72.8304368, 19.1307294 ], [ 72.8312355, 19.1305543 ], [ 72.8311722, 19.1307167 ], [ 72.8311146, 19.1308627 ], [ 72.8310409, 19.1310493 ], [ 72.8305433, 19.1311626 ] ] ] } },
{ "type": "Feature", "properties": { "element": "way", "id": 255629913, "name": "R Odean", "shop": "mall", "addr:city": "Mumbai", "addr:postcode": "400075", "addr:street": "Janata Society Road", "opening_hours": null, "operator": null, "payment:cash": null, "payment:contactless": null, "payment:credit_cards": null, "payment:debit_cards": null, "payment:visa": null, "brand": null, "level": null, "name:hi": null, "addr:district": null, "addr:housenumber": "Ghatkopar East", "payment:app": null, "phone": null, "building": "retail", "check_date": null, "contact:instagram": null, "source": null, "wheelchair": null, "landuse": null, "website": null, "wikidata": null, "wikipedia": null, "addr:housename": null, "branch": null, "building:levels": null, "name:en": null, "wikimedia_commons": null, "amenity": null, "contact:website": null, "addr:suburb": null, "toilets": null, "layer": "1", "air_conditioning": null, "description": null, "internet_access": null, "nohousenumber": null, "payment:american_express": null, "payment:mastercard": null, "payment:upi": null, "type": null }, "geometry": { "type": "Polygon", "coordinates": [ [ [ 72.9091161, 19.0799603 ], [ 72.9090209, 19.079654 ], [ 72.9094758, 19.0795278 ], [ 72.9095709, 19.0798341 ], [ 72.9091161, 19.0799603 ] ] ] } },
{ "type": "Feature", "properties": { "element": "way", "id": 275865020, "name": "East Zone", "shop": "mall", "addr:city": null, "addr:postcode": null, "addr:street": null, "opening_hours": null, "operator": null, "payment:cash": null, "payment:contactless": null, "payment:credit_cards": null, "payment:debit_cards": null, "payment:visa": null, "brand": null, "level": null, "name:hi": null, "addr:district": null, "addr:housenumber": null, "payment:app": null, "phone": null, "building": "retail", "check_date": "2026-03-20", "contact:instagram": null, "source": null, "wheelchair": null, "landuse": null, "website": null, "wikidata": null, "wikipedia": null, "addr:housename": null, "branch": null, "building:levels": "3", "name:en": null, "wikimedia_commons": null, "amenity": null, "contact:website": null, "addr:suburb": null, "toilets": null, "layer": null, "air_conditioning": "yes", "description": null, "internet_access": null, "nohousenumber": null, "payment:american_express": null, "payment:mastercard": null, "payment:upi": null, "type": null }, "geometry": { "type": "Polygon", "coordinates": [ [ [ 72.8254446, 18.9954119 ], [ 72.8256672, 18.9952916 ], [ 72.825, 18.9941615 ], [ 72.8249401, 18.9941966 ], [ 72.8247515, 18.9943009 ], [ 72.8254446, 18.9954119 ] ] ] } },
{ "type": "Feature", "properties": { "element": "way", "id": 352928802, "name": "V MALL", "shop": "mall", "addr:city": null, "addr:postcode": null, "addr:street": null, "opening_hours": null, "operator": null, "payment:cash": null, "payment:contactless": null, "payment:credit_cards": null, "payment:debit_cards": null, "payment:visa": null, "brand": null, "level": null, "name:hi": null, "addr:district": null, "addr:housenumber": null, "payment:app": null, "phone": null, "building": "commercial", "check_date": null, "contact:instagram": null, "source": null, "wheelchair": null, "landuse": null, "website": null, "wikidata": null, "wikipedia": null, "addr:housename": null, "branch": null, "building:levels": null, "name:en": null, "wikimedia_commons": null, "amenity": null, "contact:website": null, "addr:suburb": null, "toilets": null, "layer": null, "air_conditioning": null, "description": null, "internet_access": null, "nohousenumber": null, "payment:american_express": null, "payment:mastercard": null, "payment:upi": null, "type": null }, "geometry": { "type": "Polygon", "coordinates": [ [ [ 72.8675272, 19.2131899 ], [ 72.8678093, 19.2132508 ], [ 72.8679182, 19.2128011 ], [ 72.8676361, 19.2127402 ], [ 72.8675272, 19.2131899 ] ] ] } },
{ "type": "Feature", "properties": { "element": "way", "id": 352963934, "name": "shopping malls", "shop": "mall", "addr:city": null, "addr:postcode": null, "addr:street": "Road No.2", "opening_hours": "Mo-Sa 08:00-20:00", "operator": "hitika", "payment:cash": "yes", "payment:contactless": null, "payment:credit_cards": null, "payment:debit_cards": null, "payment:visa": null, "brand": null, "level": null, "name:hi": null, "addr:district": null, "addr:housenumber": null, "payment:app": null, "phone": null, "building": "yes", "check_date": null, "contact:instagram": null, "source": null, "wheelchair": null, "landuse": null, "website": null, "wikidata": null, "wikipedia": null, "addr:housename": null, "branch": null, "building:levels": null, "name:en": null, "wikimedia_commons": null, "amenity": null, "contact:website": null, "addr:suburb": null, "toilets": null, "layer": null, "air_conditioning": null, "description": null, "internet_access": null, "nohousenumber": null, "payment:american_express": null, "payment:mastercard": null, "payment:upi": null, "type": null }, "geometry": { "type": "Polygon", "coordinates": [ [ [ 72.8515953, 19.1709282 ], [ 72.8516017, 19.1709605 ], [ 72.8515934, 19.170962 ], [ 72.8515967, 19.1709791 ], [ 72.8516021, 19.1709781 ], [ 72.8516063, 19.1709996 ], [ 72.8516009, 19.1710005 ], [ 72.8516226, 19.171019 ], [ 72.851648, 19.1710111 ], [ 72.851642, 19.1709805 ], [ 72.851662, 19.170977 ], [ 72.851656, 19.1709467 ], [ 72.8516795, 19.1709426 ], [ 72.851674, 19.1709144 ], [ 72.8515953, 19.1709282 ] ] ] } },
{ "type": "Feature", "properties": { "element": "way", "id": 352974802, "name": "Utopia Garden Grove Mall", "shop": "mall", "addr:city": null, "addr:postcode": null, "addr:street": null, "opening_hours": null, "operator": null, "payment:cash": null, "payment:contactless": null, "payment:credit_cards": null, "payment:debit_cards": null, "payment:visa": null, "brand": null, "level": null, "name:hi": null, "addr:district": null, "addr:housenumber": null, "payment:app": null, "phone": null, "building": "mall", "check_date": null, "contact:instagram": null, "source": null, "wheelchair": null, "landuse": null, "website": null, "wikidata": null, "wikipedia": null, "addr:housename": null, "branch": null, "building:levels": null, "name:en": null, "wikimedia_commons": null, "amenity": null, "contact:website": null, "addr:suburb": null, "toilets": null, "layer": null, "air_conditioning": "yes", "description": null, "internet_access": null, "nohousenumber": null, "payment:american_express": null, "payment:mastercard": null, "payment:upi": null, "type": null }, "geometry": { "type": "Polygon", "coordinates": [ [ [ 72.8373789, 19.2214065 ], [ 72.8376582, 19.2214227 ], [ 72.8377122, 19.220593 ], [ 72.8374329, 19.2205768 ], [ 72.8373789, 19.2214065 ] ] ] } },
{ "type": "Feature", "properties": { "element": "way", "id": 353206876, "name": "Heera Panna Shopping Complex", "shop": "mall", "addr:city": null, "addr:postcode": null, "addr:street": null, "opening_hours": null, "operator": null, "payment:cash": null, "payment:contactless": null, "payment:credit_cards": null, "payment:debit_cards": null, "payment:visa": null, "brand": null, "level": null, "name:hi": null, "addr:district": null, "addr:housenumber": null, "payment:app": null, "phone": null, "building": "yes", "check_date": null, "contact:instagram": null, "source": null, "wheelchair": null, "landuse": null, "website": null, "wikidata": null, "wikipedia": null, "addr:housename": null, "branch": null, "building:levels": null, "name:en": "Heera Panna Shopping Complex", "wikimedia_commons": null, "amenity": null, "contact:website": null, "addr:suburb": null, "toilets": null, "layer": null, "air_conditioning": null, "description": "Shopping complex", "internet_access": null, "nohousenumber": null, "payment:american_express": null, "payment:mastercard": null, "payment:upi": null, "type": null }, "geometry": { "type": "Polygon", "coordinates": [ [ [ 72.9055238, 19.1187358 ], [ 72.9050668, 19.1177644 ], [ 72.9049413, 19.1178299 ], [ 72.9049407, 19.1178121 ], [ 72.904933, 19.1177959 ], [ 72.9049193, 19.1177838 ], [ 72.9049017, 19.1177775 ], [ 72.9048829, 19.117778 ], [ 72.9048658, 19.1177854 ], [ 72.9048529, 19.1177983 ], [ 72.9048462, 19.1178149 ], [ 72.9048468, 19.1178327 ], [ 72.9048546, 19.1178489 ], [ 72.9048594, 19.1178531 ], [ 72.9048478, 19.1178564 ], [ 72.9053047, 19.1188278 ], [ 72.9055238, 19.1187358 ] ] ] } },
{ "type": "Feature", "properties": { "element": "way", "id": 353394599, "name": "Reliance Mall", "shop": "mall", "addr:city": null, "addr:postcode": null, "addr:street": null, "opening_hours": null, "operator": null, "payment:cash": null, "payment:contactless": null, "payment:credit_cards": null, "payment:debit_cards": null, "payment:visa": null, "brand": null, "level": null, "name:hi": null, "addr:district": null, "addr:housenumber": null, "payment:app": null, "phone": null, "building": "yes", "check_date": null, "contact:instagram": null, "source": null, "wheelchair": null, "landuse": null, "website": null, "wikidata": null, "wikipedia": null, "addr:housename": null, "branch": null, "building:levels": "3", "name:en": null, "wikimedia_commons": null, "amenity": null, "contact:website": null, "addr:suburb": null, "toilets": null, "layer": null, "air_conditioning": null, "description": null, "internet_access": null, "nohousenumber": null, "payment:american_express": null, "payment:mastercard": null, "payment:upi": null, "type": null }, "geometry": { "type": "Polygon", "coordinates": [ [ [ 72.8500141, 19.2241498 ], [ 72.8503546, 19.2240132 ], [ 72.8502849, 19.2237805 ], [ 72.8497125, 19.2237801 ], [ 72.8497158, 19.2240377 ], [ 72.8499623, 19.2240348 ], [ 72.8500141, 19.2241498 ] ] ] } },
{ "type": "Feature", "properties": { "element": "way", "id": 353818730, "name": "Milap", "shop": "mall", "addr:city": "Mumbai", "addr:postcode": "400067", "addr:street": "Swami Vivekanand Road", "opening_hours": null, "operator": null, "payment:cash": null, "payment:contactless": null, "payment:credit_cards": null, "payment:debit_cards": null, "payment:visa": null, "brand": null, "level": null, "name:hi": null, "addr:district": null, "addr:housenumber": null, "payment:app": null, "phone": null, "building": "yes", "check_date": null, "contact:instagram": null, "source": null, "wheelchair": null, "landuse": null, "website": null, "wikidata": null, "wikipedia": null, "addr:housename": null, "branch": null, "building:levels": null, "name:en": null, "wikimedia_commons": null, "amenity": null, "contact:website": null, "addr:suburb": null, "toilets": null, "layer": null, "air_conditioning": null, "description": null, "internet_access": null, "nohousenumber": null, "payment:american_express": null, "payment:mastercard": null, "payment:upi": null, "type": null }, "geometry": { "type": "Polygon", "coordinates": [ [ [ 72.8469476, 19.1962508 ], [ 72.8472877, 19.1962636 ], [ 72.8471754, 19.1959679 ], [ 72.8469332, 19.196027 ], [ 72.8469476, 19.1962508 ] ] ] } },
{ "type": "Feature", "properties": { "element": "way", "id": 358298845, "name": "Growels 101", "shop": "mall", "addr:city": null, "addr:postcode": null, "addr:street": null, "opening_hours": null, "operator": null, "payment:cash": null, "payment:contactless": null, "payment:credit_cards": null, "payment:debit_cards": null, "payment:visa": null, "brand": null, "level": null, "name:hi": null, "addr:district": null, "addr:housenumber": null, "payment:app": null, "phone": null, "building": "yes", "check_date": null, "contact:instagram": null, "source": null, "wheelchair": null, "landuse": null, "website": null, "wikidata": null, "wikipedia": null, "addr:housename": null, "branch": null, "building:levels": null, "name:en": null, "wikimedia_commons": null, "amenity": null, "contact:website": null, "addr:suburb": null, "toilets": null, "layer": null, "air_conditioning": null, "description": null, "internet_access": null, "nohousenumber": null, "payment:american_express": null, "payment:mastercard": null, "payment:upi": null, "type": null }, "geometry": { "type": "Polygon", "coordinates": [ [ [ 72.8589255, 19.2037101 ], [ 72.8605286, 19.2033214 ], [ 72.8605191, 19.2032863 ], [ 72.8607749, 19.2032243 ], [ 72.8606519, 19.2027719 ], [ 72.8603639, 19.2028417 ], [ 72.8600727, 19.2020589 ], [ 72.8597593, 19.2021238 ], [ 72.8599466, 19.2028158 ], [ 72.8596006, 19.2028409 ], [ 72.8596021, 19.2028591 ], [ 72.8594728, 19.2028601 ], [ 72.8594721, 19.202942 ], [ 72.8594188, 19.2029469 ], [ 72.8594175, 19.203124 ], [ 72.8593102, 19.2032232 ], [ 72.8593125, 19.2033526 ], [ 72.8588686, 19.2035284 ], [ 72.8589255, 19.2037101 ] ] ] } },
{ "type": "Feature", "properties": { "element": "way", "id": 402322279, "name": "Maker Arcade", "shop": "mall", "addr:city": "Mumbai", "addr:postcode": "400005", "addr:street": "GD Somani Road", "opening_hours": null, "operator": null, "payment:cash": null, "payment:contactless": null, "payment:credit_cards": null, "payment:debit_cards": null, "payment:visa": null, "brand": null, "level": null, "name:hi": null, "addr:district": null, "addr:housenumber": null, "payment:app": null, "phone": null, "building": null, "check_date": "2026-03-12", "contact:instagram": null, "source": null, "wheelchair": null, "landuse": "retail", "website": null, "wikidata": null, "wikipedia": null, "addr:housename": null, "branch": null, "building:levels": null, "name:en": null, "wikimedia_commons": null, "amenity": null, "contact:website": null, "addr:suburb": null, "toilets": null, "layer": null, "air_conditioning": null, "description": null, "internet_access": null, "nohousenumber": null, "payment:american_express": null, "payment:mastercard": null, "payment:upi": null, "type": null }, "geometry": { "type": "Polygon", "coordinates": [ [ [ 72.8172172, 18.9174786 ], [ 72.8165943, 18.9167084 ], [ 72.8172657, 18.9162224 ], [ 72.8173376, 18.9162078 ], [ 72.8173942, 18.9162456 ], [ 72.8179579, 18.9169425 ], [ 72.8172172, 18.9174786 ] ] ] } },
{ "type": "Feature", "properties": { "element": "way", "id": 427242796, "name": "Kohinoor City Mall", "shop": "mall", "addr:city": null, "addr:postcode": null, "addr:street": null, "opening_hours": null, "operator": null, "payment:cash": null, "payment:contactless": null, "payment:credit_cards": null, "payment:debit_cards": null, "payment:visa": null, "brand": null, "level": null, "name:hi": null, "addr:district": null, "addr:housenumber": null, "payment:app": null, "phone": null, "building": "yes", "check_date": null, "contact:instagram": null, "source": null, "wheelchair": null, "landuse": null, "website": null, "wikidata": null, "wikipedia": null, "addr:housename": null, "branch": null, "building:levels": null, "name:en": null, "wikimedia_commons": null, "amenity": null, "contact:website": null, "addr:suburb": null, "toilets": null, "layer": null, "air_conditioning": null, "description": null, "internet_access": null, "nohousenumber": null, "payment:american_express": null, "payment:mastercard": null, "payment:upi": null, "type": null }, "geometry": { "type": "Polygon", "coordinates": [ [ [ 72.885445, 19.0818034 ], [ 72.8870369, 19.0809713 ], [ 72.8874261, 19.0812697 ], [ 72.887442, 19.081318 ], [ 72.8874229, 19.0813934 ], [ 72.8871581, 19.0815381 ], [ 72.8871071, 19.0814567 ], [ 72.8857672, 19.0821742 ], [ 72.8858214, 19.0822556 ], [ 72.8855559, 19.0823809 ], [ 72.8855083, 19.0823749 ], [ 72.8854766, 19.082343 ], [ 72.8854636, 19.0823057 ], [ 72.8854626, 19.0820545 ], [ 72.885445, 19.0818034 ] ] ] } },
{ "type": "Feature", "properties": { "element": "way", "id": 436337946, "name": "Phoenix Paragon Plaza", "shop": "mall", "addr:city": "Mumbai", "addr:postcode": "400070", "addr:street": "LBS Marg", "opening_hours": "Mo-Su 10:00-00:00", "operator": null, "payment:cash": null, "payment:contactless": null, "payment:credit_cards": null, "payment:debit_cards": null, "payment:visa": null, "brand": null, "level": null, "name:hi": null, "addr:district": null, "addr:housenumber": null, "payment:app": null, "phone": null, "building": "retail", "check_date": null, "contact:instagram": null, "source": null, "wheelchair": null, "landuse": null, "website": null, "wikidata": null, "wikipedia": null, "addr:housename": null, "branch": null, "building:levels": null, "name:en": null, "wikimedia_commons": null, "amenity": null, "contact:website": null, "addr:suburb": null, "toilets": null, "layer": null, "air_conditioning": null, "description": null, "internet_access": null, "nohousenumber": null, "payment:american_express": null, "payment:mastercard": null, "payment:upi": null, "type": null }, "geometry": { "type": "Polygon", "coordinates": [ [ [ 72.8881314, 19.085295 ], [ 72.8891829, 19.0859692 ], [ 72.8892848, 19.0859971 ], [ 72.8893814, 19.0859591 ], [ 72.8894699, 19.0858932 ], [ 72.8894994, 19.0858323 ], [ 72.8894189, 19.0852493 ], [ 72.8886384, 19.0853254 ], [ 72.8885472, 19.0853203 ], [ 72.8884748, 19.0852797 ], [ 72.8883755, 19.0852138 ], [ 72.8882951, 19.0851986 ], [ 72.8881985, 19.0852012 ], [ 72.8881288, 19.0852468 ], [ 72.8881221, 19.0852709 ], [ 72.8881314, 19.085295 ] ] ] } },
{ "type": "Feature", "properties": { "element": "way", "id": 495716612, "name": "Moksha Plaza", "shop": "mall", "addr:city": null, "addr:postcode": null, "addr:street": "Swami Vivekanand Road", "opening_hours": null, "operator": null, "payment:cash": null, "payment:contactless": null, "payment:credit_cards": null, "payment:debit_cards": null, "payment:visa": null, "brand": null, "level": null, "name:hi": null, "addr:district": null, "addr:housenumber": null, "payment:app": null, "phone": null, "building": "retail", "check_date": null, "contact:instagram": null, "source": null, "wheelchair": null, "landuse": null, "website": null, "wikidata": null, "wikipedia": null, "addr:housename": null, "branch": null, "building:levels": null, "name:en": null, "wikimedia_commons": null, "amenity": null, "contact:website": null, "addr:suburb": null, "toilets": null, "layer": null, "air_conditioning": null, "description": null, "internet_access": null, "nohousenumber": null, "payment:american_express": null, "payment:mastercard": null, "payment:upi": null, "type": null }, "geometry": { "type": "Polygon", "coordinates": [ [ [ 72.8544555, 19.2263092 ], [ 72.8546782, 19.2263036 ], [ 72.8547769, 19.2263126 ], [ 72.8548636, 19.2262648 ], [ 72.8548841, 19.2261745 ], [ 72.8548312, 19.2260809 ], [ 72.8548084, 19.2259704 ], [ 72.8546857, 19.2256884 ], [ 72.8544999, 19.2257417 ], [ 72.8544886, 19.2256472 ], [ 72.8544194, 19.2256557 ], [ 72.8544555, 19.2263092 ] ] ] } },
{ "type": "Feature", "properties": { "element": "way", "id": 594407882, "name": "Palladium", "shop": "mall", "addr:city": "Mumbai", "addr:postcode": "400013", "addr:street": "Senapati Bapat Marg", "opening_hours": null, "operator": null, "payment:cash": null, "payment:contactless": null, "payment:credit_cards": null, "payment:debit_cards": null, "payment:visa": null, "brand": null, "level": null, "name:hi": null, "addr:district": null, "addr:housenumber": "462", "payment:app": null, "phone": null, "building": "retail", "check_date": "2026-03-20", "contact:instagram": null, "source": null, "wheelchair": null, "landuse": null, "website": null, "wikidata": null, "wikipedia": null, "addr:housename": null, "branch": null, "building:levels": "4", "name:en": null, "wikimedia_commons": null, "amenity": null, "contact:website": null, "addr:suburb": null, "toilets": null, "layer": "1", "air_conditioning": "yes", "description": null, "internet_access": null, "nohousenumber": null, "payment:american_express": null, "payment:mastercard": null, "payment:upi": null, "type": null }, "geometry": { "type": "Polygon", "coordinates": [ [ [ 72.823407, 18.9942862 ], [ 72.8236404, 18.9947048 ], [ 72.8248698, 18.9940553 ], [ 72.8245747, 18.99368 ], [ 72.823407, 18.9942862 ] ] ] } },
{ "type": "Feature", "properties": { "element": "way", "id": 617989959, "name": "Filix Mall", "shop": "mall", "addr:city": null, "addr:postcode": null, "addr:street": null, "opening_hours": null, "operator": null, "payment:cash": null, "payment:contactless": null, "payment:credit_cards": null, "payment:debit_cards": null, "payment:visa": null, "brand": null, "level": null, "name:hi": null, "addr:district": null, "addr:housenumber": null, "payment:app": null, "phone": null, "building": null, "check_date": null, "contact:instagram": null, "source": null, "wheelchair": null, "landuse": "retail", "website": null, "wikidata": null, "wikipedia": null, "addr:housename": null, "branch": null, "building:levels": null, "name:en": null, "wikimedia_commons": null, "amenity": null, "contact:website": null, "addr:suburb": null, "toilets": null, "layer": null, "air_conditioning": null, "description": null, "internet_access": null, "nohousenumber": null, "payment:american_express": null, "payment:mastercard": null, "payment:upi": null, "type": null }, "geometry": { "type": "Polygon", "coordinates": [ [ [ 72.9374573, 19.1594281 ], [ 72.9365802, 19.1594484 ], [ 72.9363683, 19.159532 ], [ 72.9363683, 19.1601071 ], [ 72.9374734, 19.160097 ], [ 72.9374573, 19.1594281 ] ] ] } },
{ "type": "Feature", "properties": { "element": "way", "id": 627612997, "name": "R Mall", "shop": "mall", "addr:city": null, "addr:postcode": null, "addr:street": null, "opening_hours": null, "operator": null, "payment:cash": null, "payment:contactless": null, "payment:credit_cards": null, "payment:debit_cards": null, "payment:visa": null, "brand": null, "level": null, "name:hi": null, "addr:district": null, "addr:housenumber": null, "payment:app": null, "phone": null, "building": null, "check_date": null, "contact:instagram": null, "source": null, "wheelchair": null, "landuse": "retail", "website": null, "wikidata": null, "wikipedia": null, "addr:housename": null, "branch": null, "building:levels": null, "name:en": null, "wikimedia_commons": null, "amenity": null, "contact:website": null, "addr:suburb": null, "toilets": null, "layer": null, "air_conditioning": null, "description": null, "internet_access": null, "nohousenumber": null, "payment:american_express": null, "payment:mastercard": null, "payment:upi": null, "type": null }, "geometry": { "type": "Polygon", "coordinates": [ [ [ 72.9507476, 19.1835643 ], [ 72.9507503, 19.1841394 ], [ 72.9524373, 19.1844003 ], [ 72.9524374, 19.1838101 ], [ 72.9517964, 19.1836885 ], [ 72.9507476, 19.1835643 ] ] ] } },
{ "type": "Feature", "properties": { "element": "way", "id": 629015648, "name": "Express Zone Mall", "shop": "mall", "addr:city": null, "addr:postcode": null, "addr:street": null, "opening_hours": null, "operator": null, "payment:cash": null, "payment:contactless": null, "payment:credit_cards": null, "payment:debit_cards": null, "payment:visa": null, "brand": null, "level": null, "name:hi": null, "addr:district": null, "addr:housenumber": null, "payment:app": null, "phone": null, "building": null, "check_date": null, "contact:instagram": null, "source": null, "wheelchair": null, "landuse": "retail", "website": null, "wikidata": null, "wikipedia": null, "addr:housename": null, "branch": null, "building:levels": null, "name:en": null, "wikimedia_commons": null, "amenity": null, "contact:website": null, "addr:suburb": null, "toilets": null, "layer": null, "air_conditioning": null, "description": null, "internet_access": null, "nohousenumber": null, "payment:american_express": null, "payment:mastercard": null, "payment:upi": null, "type": null }, "geometry": { "type": "Polygon", "coordinates": [ [ [ 72.8579593, 19.1754096 ], [ 72.8585306, 19.1754045 ], [ 72.8585413, 19.1757617 ], [ 72.8586835, 19.1757617 ], [ 72.8589195, 19.175711 ], [ 72.8585923, 19.17677 ], [ 72.8582221, 19.1766382 ], [ 72.8578788, 19.1771677 ], [ 72.8574577, 19.1770765 ], [ 72.8572887, 19.1766382 ], [ 72.8576108, 19.1764594 ], [ 72.8576964, 19.1764862 ], [ 72.8578493, 19.1758453 ], [ 72.8578413, 19.1753994 ], [ 72.8579593, 19.1754096 ] ] ] } },
{ "type": "Feature", "properties": { "element": "way", "id": 632275578, "name": "Color Scape Mall", "shop": "mall", "addr:city": null, "addr:postcode": null, "addr:street": null, "opening_hours": null, "operator": null, "payment:cash": null, "payment:contactless": null, "payment:credit_cards": null, "payment:debit_cards": null, "payment:visa": null, "brand": null, "level": null, "name:hi": null, "addr:district": null, "addr:housenumber": null, "payment:app": null, "phone": null, "building": null, "check_date": null, "contact:instagram": null, "source": null, "wheelchair": null, "landuse": "retail", "website": null, "wikidata": null, "wikipedia": null, "addr:housename": null, "branch": null, "building:levels": null, "name:en": null, "wikimedia_commons": null, "amenity": null, "contact:website": null, "addr:suburb": null, "toilets": null, "layer": null, "air_conditioning": null, "description": null, "internet_access": null, "nohousenumber": null, "payment:american_express": null, "payment:mastercard": null, "payment:upi": null, "type": null }, "geometry": { "type": "Polygon", "coordinates": [ [ [ 72.9541057, 19.182133 ], [ 72.9540333, 19.1824522 ], [ 72.9539582, 19.1826549 ], [ 72.9538445, 19.1828258 ], [ 72.9537705, 19.1829665 ], [ 72.9536848, 19.1831027 ], [ 72.9539889, 19.1830451 ], [ 72.9544384, 19.1829373 ], [ 72.9548192, 19.1827106 ], [ 72.9546314, 19.182356 ], [ 72.9544142, 19.1821406 ], [ 72.9541057, 19.182133 ] ] ] } },
{ "type": "Feature", "properties": { "element": "way", "id": 662725588, "name": "Evershine Mall", "shop": "mall", "addr:city": null, "addr:postcode": null, "addr:street": null, "opening_hours": null, "operator": null, "payment:cash": null, "payment:contactless": null, "payment:credit_cards": null, "payment:debit_cards": null, "payment:visa": null, "brand": null, "level": null, "name:hi": null, "addr:district": null, "addr:housenumber": null, "payment:app": null, "phone": null, "building": null, "check_date": null, "contact:instagram": null, "source": null, "wheelchair": null, "landuse": "retail", "website": null, "wikidata": null, "wikipedia": null, "addr:housename": null, "branch": null, "building:levels": null, "name:en": null, "wikimedia_commons": null, "amenity": null, "contact:website": null, "addr:suburb": null, "toilets": null, "layer": null, "air_conditioning": null, "description": null, "internet_access": null, "nohousenumber": null, "payment:american_express": null, "payment:mastercard": null, "payment:upi": null, "type": null }, "geometry": { "type": "Polygon", "coordinates": [ [ [ 72.8358525, 19.1785813 ], [ 72.8364882, 19.1787561 ], [ 72.8364345, 19.1792045 ], [ 72.8359491, 19.1793819 ], [ 72.8356755, 19.1790348 ], [ 72.8356969, 19.1789385 ], [ 72.835815, 19.1786928 ], [ 72.8358525, 19.1785813 ] ] ] } },
{ "type": "Feature", "properties": { "element": "way", "id": 667169215, "name": null, "shop": "mall", "addr:city": null, "addr:postcode": null, "addr:street": null, "opening_hours": null, "operator": null, "payment:cash": null, "payment:contactless": null, "payment:credit_cards": null, "payment:debit_cards": null, "payment:visa": null, "brand": null, "level": null, "name:hi": null, "addr:district": null, "addr:housenumber": null, "payment:app": null, "phone": null, "building": "retail", "check_date": null, "contact:instagram": null, "source": null, "wheelchair": null, "landuse": null, "website": null, "wikidata": null, "wikipedia": null, "addr:housename": null, "branch": null, "building:levels": "3", "name:en": null, "wikimedia_commons": null, "amenity": null, "contact:website": null, "addr:suburb": null, "toilets": null, "layer": null, "air_conditioning": null, "description": null, "internet_access": null, "nohousenumber": null, "payment:american_express": null, "payment:mastercard": null, "payment:upi": null, "type": null }, "geometry": { "type": "Polygon", "coordinates": [ [ [ 72.9368028, 19.1677332 ], [ 72.9375225, 19.1674559 ], [ 72.9374108, 19.1671972 ], [ 72.9374231, 19.1671967 ], [ 72.9374831, 19.1671852 ], [ 72.9375403, 19.1671645 ], [ 72.9375931, 19.1671352 ], [ 72.93764, 19.1670981 ], [ 72.9376799, 19.1670542 ], [ 72.9377115, 19.1670047 ], [ 72.9377342, 19.166951 ], [ 72.9377471, 19.1668944 ], [ 72.93775, 19.1668367 ], [ 72.9377428, 19.1667792 ], [ 72.9377257, 19.1667237 ], [ 72.9376991, 19.1666716 ], [ 72.9376901, 19.1666595 ], [ 72.9378945, 19.1665779 ], [ 72.9378498, 19.166478 ], [ 72.9381144, 19.1663524 ], [ 72.937991, 19.1660955 ], [ 72.9379996, 19.1660793 ], [ 72.9380051, 19.1660509 ], [ 72.9380019, 19.1660222 ], [ 72.9379902, 19.1659955 ], [ 72.9379711, 19.165973 ], [ 72.937946, 19.1659565 ], [ 72.9379171, 19.1659474 ], [ 72.9378865, 19.1659463 ], [ 72.9378569, 19.1659534 ], [ 72.9378306, 19.1659681 ], [ 72.9378098, 19.1659892 ], [ 72.937796, 19.1660149 ], [ 72.9377905, 19.1660433 ], [ 72.9377938, 19.166072 ], [ 72.9378054, 19.1660987 ], [ 72.9378245, 19.1661212 ], [ 72.9378456, 19.1661351 ], [ 72.9378408, 19.1661371 ], [ 72.9378864, 19.1662283 ], [ 72.9378673, 19.1662409 ], [ 72.9378527, 19.1662581 ], [ 72.9378439, 19.1662785 ], [ 72.9378417, 19.1663004 ], [ 72.9378462, 19.166322 ], [ 72.9377946, 19.1663545 ], [ 72.9377818, 19.1663626 ], [ 72.9377752, 19.1663753 ], [ 72.9377121, 19.1663005 ], [ 72.9376088, 19.1662612 ], [ 72.9375599, 19.1661483 ], [ 72.937441, 19.1662002 ], [ 72.9373551, 19.1662354 ], [ 72.9371868, 19.166302 ], [ 72.9372836, 19.1665186 ], [ 72.9372566, 19.1665233 ], [ 72.9372062, 19.1665411 ], [ 72.9371598, 19.1665669 ], [ 72.9371189, 19.1665999 ], [ 72.9370847, 19.1666391 ], [ 72.9370582, 19.1666833 ], [ 72.9370402, 19.1667312 ], [ 72.9370314, 19.1667813 ], [ 72.9370318, 19.1668322 ], [ 72.9370416, 19.1668821 ], [ 72.9370605, 19.1669297 ], [ 72.9365439, 19.1671335 ], [ 72.9368028, 19.1677332 ] ] ] } },
{ "type": "Feature", "properties": { "element": "way", "id": 675133650, "name": "Nakshatra Mall", "shop": "mall", "addr:city": "Mumbai", "addr:postcode": "400028", "addr:street": "Ranade Road Extension", "opening_hours": "Mo-Su 08:00-22:00", "operator": null, "payment:cash": null, "payment:contactless": null, "payment:credit_cards": null, "payment:debit_cards": null, "payment:visa": null, "brand": null, "level": null, "name:hi": null, "addr:district": "Mumbai", "addr:housenumber": null, "payment:app": null, "phone": null, "building": "yes", "check_date": null, "contact:instagram": null, "source": null, "wheelchair": null, "landuse": null, "website": null, "wikidata": null, "wikipedia": null, "addr:housename": null, "branch": null, "building:levels": null, "name:en": null, "wikimedia_commons": null, "amenity": null, "contact:website": null, "addr:suburb": null, "toilets": null, "layer": null, "air_conditioning": null, "description": null, "internet_access": null, "nohousenumber": null, "payment:american_express": null, "payment:mastercard": null, "payment:upi": null, "type": null }, "geometry": { "type": "Polygon", "coordinates": [ [ [ 72.8413032, 19.0201028 ], [ 72.8411094, 19.0198302 ], [ 72.8413812, 19.0196806 ], [ 72.8415419, 19.0199598 ], [ 72.8413032, 19.0201028 ] ] ] } },
{ "type": "Feature", "properties": { "element": "way", "id": 923192619, "name": "Jio World Drive", "shop": "mall", "addr:city": "Mumbai", "addr:postcode": "400051", "addr:street": "Bandra Kurla Complex Road", "opening_hours": "Mo-Su 11:00-22:00", "operator": null, "payment:cash": "yes", "payment:contactless": null, "payment:credit_cards": "yes", "payment:debit_cards": "yes", "payment:visa": "yes", "brand": null, "level": null, "name:hi": null, "addr:district": null, "addr:housenumber": null, "payment:app": null, "phone": "02235051111", "building": "retail", "check_date": null, "contact:instagram": null, "source": null, "wheelchair": "yes", "landuse": null, "website": "https://jioworlddrive.com/", "wikidata": null, "wikipedia": null, "addr:housename": null, "branch": null, "building:levels": "3", "name:en": null, "wikimedia_commons": null, "amenity": null, "contact:website": null, "addr:suburb": null, "toilets": "yes", "layer": null, "air_conditioning": "yes", "description": null, "internet_access": "wlan", "nohousenumber": "yes", "payment:american_express": "yes", "payment:mastercard": "yes", "payment:upi": "yes", "type": null }, "geometry": { "type": "Polygon", "coordinates": [ [ [ 72.851363, 19.054239 ], [ 72.8516627, 19.0536244 ], [ 72.8515709, 19.0534581 ], [ 72.8510693, 19.05313 ], [ 72.8510607, 19.0531641 ], [ 72.850996, 19.053273 ], [ 72.8509492, 19.0532968 ], [ 72.8507908, 19.0532253 ], [ 72.8506541, 19.0534532 ], [ 72.8506037, 19.0533818 ], [ 72.8502691, 19.0532117 ], [ 72.8502115, 19.0532219 ], [ 72.8500172, 19.0531267 ], [ 72.8500172, 19.0530995 ], [ 72.8497431, 19.0529818 ], [ 72.849704, 19.0529871 ], [ 72.8496825, 19.0530383 ], [ 72.8497005, 19.0530757 ], [ 72.8496501, 19.0530961 ], [ 72.8495817, 19.0530587 ], [ 72.8495541, 19.0530784 ], [ 72.8494557, 19.0531425 ], [ 72.849427, 19.0531675 ], [ 72.8494342, 19.0532049 ], [ 72.8494738, 19.0532321 ], [ 72.851363, 19.054239 ] ] ] } },
{ "type": "Feature", "properties": { "element": "way", "id": 1039904192, "name": "R City Mall", "shop": "mall", "addr:city": "Mumbai", "addr:postcode": "400086", "addr:street": "Lal Bahadur Shastri Marg", "opening_hours": null, "operator": null, "payment:cash": null, "payment:contactless": null, "payment:credit_cards": null, "payment:debit_cards": null, "payment:visa": null, "brand": null, "level": null, "name:hi": null, "addr:district": "Ghatkopar West", "addr:housenumber": null, "payment:app": null, "phone": null, "building": "retail", "check_date": null, "contact:instagram": null, "source": null, "wheelchair": "yes", "landuse": null, "website": "https://rcity.in", "wikidata": null, "wikipedia": null, "addr:housename": null, "branch": null, "building:levels": null, "name:en": null, "wikimedia_commons": null, "amenity": null, "contact:website": null, "addr:suburb": null, "toilets": "yes", "layer": null, "air_conditioning": null, "description": null, "internet_access": null, "nohousenumber": null, "payment:american_express": null, "payment:mastercard": null, "payment:upi": null, "type": null }, "geometry": { "type": "Polygon", "coordinates": [ [ [ 72.9154404, 19.0992787 ], [ 72.9153854, 19.099408 ], [ 72.914977, 19.0997096 ], [ 72.9153726, 19.1001791 ], [ 72.9158252, 19.1005732 ], [ 72.9159164, 19.1005758 ], [ 72.9159218, 19.1003686 ], [ 72.91596, 19.1002241 ], [ 72.9160036, 19.1001392 ], [ 72.9160076, 19.1001139 ], [ 72.9162048, 19.1003287 ], [ 72.9162658, 19.1004237 ], [ 72.9163563, 19.1004896 ], [ 72.9162115, 19.1006943 ], [ 72.9161786, 19.100802 ], [ 72.9162383, 19.1008869 ], [ 72.9165287, 19.1010751 ], [ 72.9170077, 19.1004841 ], [ 72.9170094, 19.100482 ], [ 72.9174131, 19.1001842 ], [ 72.9173293, 19.1000784 ], [ 72.9172106, 19.1001684 ], [ 72.917161, 19.100136 ], [ 72.9171161, 19.1001658 ], [ 72.9169028, 19.0999517 ], [ 72.9168552, 19.0998921 ], [ 72.9167975, 19.0999707 ], [ 72.916754, 19.0999631 ], [ 72.9166105, 19.0999878 ], [ 72.9165099, 19.1000961 ], [ 72.9164817, 19.1001861 ], [ 72.9165193, 19.100259 ], [ 72.9164395, 19.1003724 ], [ 72.9163664, 19.1003185 ], [ 72.9163074, 19.1002247 ], [ 72.916247, 19.1001373 ], [ 72.9161257, 19.1000448 ], [ 72.9160861, 19.1000074 ], [ 72.9160512, 19.0999219 ], [ 72.9166581, 19.0995113 ], [ 72.9168887, 19.0996767 ], [ 72.9172884, 19.1000549 ], [ 72.9176425, 19.0997725 ], [ 72.9173082, 19.099347 ], [ 72.9172113, 19.0993465 ], [ 72.9170591, 19.0993339 ], [ 72.9168961, 19.0992135 ], [ 72.9168264, 19.0990056 ], [ 72.9168894, 19.0988871 ], [ 72.9168552, 19.0988453 ], [ 72.9168683, 19.0988287 ], [ 72.9165702, 19.0984689 ], [ 72.9154404, 19.0992787 ] ] ] } },
{ "type": "Feature", "properties": { "element": "way", "id": 1158933429, "name": "Oberoi - Sky City Mall", "shop": "mall", "addr:city": "Mumbai", "addr:postcode": "400066", "addr:street": "Western Express Highway", "opening_hours": null, "operator": "Oberoi Realty", "payment:cash": null, "payment:contactless": null, "payment:credit_cards": null, "payment:debit_cards": null, "payment:visa": null, "brand": null, "level": null, "name:hi": null, "addr:district": null, "addr:housenumber": "Devipada, Khande Rao Dongari, Borivali", "payment:app": null, "phone": null, "building": "commercial", "check_date": null, "contact:instagram": null, "source": null, "wheelchair": null, "landuse": null, "website": "https://www.skycitymall.in/", "wikidata": null, "wikipedia": null, "addr:housename": null, "branch": null, "building:levels": null, "name:en": null, "wikimedia_commons": null, "amenity": null, "contact:website": null, "addr:suburb": null, "toilets": null, "layer": null, "air_conditioning": null, "description": null, "internet_access": null, "nohousenumber": null, "payment:american_express": null, "payment:mastercard": null, "payment:upi": null, "type": null }, "geometry": { "type": "Polygon", "coordinates": [ [ [ 72.8643751, 19.222681 ], [ 72.8638869, 19.2244791 ], [ 72.863093, 19.2244133 ], [ 72.863152, 19.2233091 ], [ 72.8626263, 19.2232685 ], [ 72.8626424, 19.2225948 ], [ 72.8643751, 19.222681 ] ] ] } },
{ "type": "Feature", "properties": { "element": "way", "id": 1389997690, "name": "Goyal Shopping Centre", "shop": "mall", "addr:city": null, "addr:postcode": null, "addr:street": null, "opening_hours": null, "operator": null, "payment:cash": null, "payment:contactless": null, "payment:credit_cards": null, "payment:debit_cards": null, "payment:visa": null, "brand": null, "level": null, "name:hi": null, "addr:district": null, "addr:housenumber": null, "payment:app": null, "phone": null, "building": "retail", "check_date": null, "contact:instagram": null, "source": null, "wheelchair": null, "landuse": null, "website": null, "wikidata": null, "wikipedia": null, "addr:housename": null, "branch": null, "building:levels": null, "name:en": null, "wikimedia_commons": null, "amenity": null, "contact:website": null, "addr:suburb": null, "toilets": null, "layer": null, "air_conditioning": null, "description": null, "internet_access": null, "nohousenumber": null, "payment:american_express": null, "payment:mastercard": null, "payment:upi": null, "type": null }, "geometry": { "type": "Polygon", "coordinates": [ [ [ 72.8559492, 19.2289741 ], [ 72.8558678, 19.2287741 ], [ 72.8557809, 19.2287194 ], [ 72.8551553, 19.22871 ], [ 72.8551454, 19.2289673 ], [ 72.8551979, 19.2290015 ], [ 72.8559492, 19.2289741 ] ] ] } },
{ "type": "Feature", "properties": { "element": "way", "id": 1429482057, "name": "Grand Zone", "shop": "mall", "addr:city": null, "addr:postcode": null, "addr:street": null, "opening_hours": null, "operator": null, "payment:cash": null, "payment:contactless": null, "payment:credit_cards": null, "payment:debit_cards": null, "payment:visa": null, "brand": null, "level": null, "name:hi": null, "addr:district": null, "addr:housenumber": null, "payment:app": null, "phone": null, "building": "retail", "check_date": "2026-03-20", "contact:instagram": null, "source": null, "wheelchair": null, "landuse": null, "website": null, "wikidata": null, "wikipedia": null, "addr:housename": null, "branch": null, "building:levels": "4", "name:en": null, "wikimedia_commons": null, "amenity": null, "contact:website": null, "addr:suburb": null, "toilets": null, "layer": null, "air_conditioning": "yes", "description": null, "internet_access": null, "nohousenumber": null, "payment:american_express": null, "payment:mastercard": null, "payment:upi": null, "type": null }, "geometry": { "type": "Polygon", "coordinates": [ [ [ 72.823878, 18.9946915 ], [ 72.8237318, 18.9947672 ], [ 72.8235758, 18.994848 ], [ 72.8239928, 18.9955502 ], [ 72.8248331, 18.9950811 ], [ 72.824592, 18.9947119 ], [ 72.8243033, 18.9948855 ], [ 72.824087, 18.9950156 ], [ 72.823878, 18.9946915 ] ] ] } },
{ "type": "Feature", "properties": { "element": "way", "id": 1429482058, "name": "Palladium West Zone", "shop": "mall", "addr:city": null, "addr:postcode": null, "addr:street": null, "opening_hours": null, "operator": null, "payment:cash": null, "payment:contactless": null, "payment:credit_cards": null, "payment:debit_cards": null, "payment:visa": null, "brand": null, "level": null, "name:hi": null, "addr:district": null, "addr:housenumber": null, "payment:app": null, "phone": null, "building": "retail", "check_date": "2026-03-20", "contact:instagram": null, "source": null, "wheelchair": null, "landuse": null, "website": null, "wikidata": null, "wikipedia": null, "addr:housename": null, "branch": null, "building:levels": "4", "name:en": null, "wikimedia_commons": null, "amenity": null, "contact:website": null, "addr:suburb": null, "toilets": null, "layer": null, "air_conditioning": "yes", "description": null, "internet_access": null, "nohousenumber": null, "payment:american_express": null, "payment:mastercard": null, "payment:upi": null, "type": null }, "geometry": { "type": "Polygon", "coordinates": [ [ [ 72.8237941, 18.9956632 ], [ 72.8234271, 18.9950814 ], [ 72.8236051, 18.9949862 ], [ 72.823954, 18.9955716 ], [ 72.8237941, 18.9956632 ] ] ] } }
]
}
