{
"type": "FeatureCollection",
"name": "metro",
"crs": { "type": "name", "properties": { "name": "urn:ogc:def:crs:OGC:1.3:CRS84" } },
"features": [
{ "type": "Feature", "properties": { "element": "node", "id": 4264598043, "name": "Gate 3", "railway": "subway_entrance", "ref": null, "wheelchair": null, "entrance": null, "name:hi": null, "fixme": null, "elevator": null, "stairs": null, "highway": null, "level": null, "ref:elevator": null, "capacity:persons": null, "fee": null, "maxweight": null, "access": null, "name:en": null }, "geometry": { "type": "Point", "coordinates": [ 72.9083147, 19.0860146 ] } },
{ "type": "Feature", "properties": { "element": "node", "id": 6233172619, "name": null, "railway": "subway_entrance", "ref": "5", "wheelchair": "no", "entrance": null, "name:hi": null, "fixme": null, "elevator": null, "stairs": null, "highway": null, "level": null, "ref:elevator": null, "capacity:persons": null, "fee": null, "maxweight": null, "access": null, "name:en": null }, "geometry": { "type": "Point", "coordinates": [ 72.8570927, 19.1152936 ] } },
{ "type": "Feature", "properties": { "element": "node", "id": 6233175522, "name": null, "railway": "subway_entrance", "ref": "4", "wheelchair": "no", "entrance": null, "name:hi": null, "fixme": null, "elevator": null, "stairs": null, "highway": null, "level": null, "ref:elevator": null, "capacity:persons": null, "fee": null, "maxweight": null, "access": null, "name:en": null }, "geometry": { "type": "Point", "coordinates": [ 72.8571653, 19.1155617 ] } },
{ "type": "Feature", "properties": { "element": "node", "id": 6249729380, "name": "DN Nagar", "railway": "subway_entrance", "ref": "4", "wheelchair": "no", "entrance": null, "name:hi": null, "fixme": null, "elevator": null, "stairs": null, "highway": null, "level": null, "ref:elevator": null, "capacity:persons": null, "fee": null, "maxweight": null, "access": null, "name:en": null }, "geometry": { "type": "Point", "coordinates": [ 72.8308602, 19.1278285 ] } },
{ "type": "Feature", "properties": { "element": "node", "id": 6249729384, "name": "Versova", "railway": "subway_entrance", "ref": "1", "wheelchair": null, "entrance": "yes", "name:hi": "वर्सोवा", "fixme": null, "elevator": null, "stairs": null, "highway": null, "level": null, "ref:elevator": null, "capacity:persons": null, "fee": null, "maxweight": null, "access": null, "name:en": null }, "geometry": { "type": "Point", "coordinates": [ 72.8206611, 19.1305046 ] } },
{ "type": "Feature", "properties": { "element": "node", "id": 6249730786, "name": null, "railway": "subway_entrance", "ref": null, "wheelchair": null, "entrance": null, "name:hi": null, "fixme": "Fill in ref", "elevator": null, "stairs": null, "highway": null, "level": null, "ref:elevator": null, "capacity:persons": null, "fee": null, "maxweight": null, "access": null, "name:en": null }, "geometry": { "type": "Point", "coordinates": [ 72.8206307, 19.1303627 ] } },
{ "type": "Feature", "properties": { "element": "node", "id": 7159653239, "name": "Versova", "railway": "subway_entrance", "ref": "3", "wheelchair": "no", "entrance": null, "name:hi": "वर्सोवा", "fixme": null, "elevator": null, "stairs": null, "highway": null, "level": null, "ref:elevator": null, "capacity:persons": null, "fee": null, "maxweight": null, "access": null, "name:en": null }, "geometry": { "type": "Point", "coordinates": [ 72.8221373, 19.1301444 ] } },
{ "type": "Feature", "properties": { "element": "node", "id": 8443491305, "name": "A3", "railway": "subway_entrance", "ref": null, "wheelchair": null, "entrance": null, "name:hi": null, "fixme": null, "elevator": null, "stairs": null, "highway": null, "level": null, "ref:elevator": null, "capacity:persons": null, "fee": null, "maxweight": null, "access": null, "name:en": null }, "geometry": { "type": "Point", "coordinates": [ 72.8548452, 19.0594889 ] } },
{ "type": "Feature", "properties": { "element": "node", "id": 12294377161, "name": null, "railway": "subway_entrance", "ref": "A1", "wheelchair": "no", "entrance": null, "name:hi": null, "fixme": null, "elevator": "no", "stairs": "yes", "highway": null, "level": null, "ref:elevator": null, "capacity:persons": null, "fee": null, "maxweight": null, "access": null, "name:en": null }, "geometry": { "type": "Point", "coordinates": [ 72.8555907, 19.0595777 ] } },
{ "type": "Feature", "properties": { "element": "node", "id": 12294377162, "name": null, "railway": "subway_entrance", "ref": "A1", "wheelchair": "yes", "entrance": null, "name:hi": null, "fixme": null, "elevator": "yes", "stairs": "no", "highway": null, "level": null, "ref:elevator": null, "capacity:persons": null, "fee": null, "maxweight": null, "access": null, "name:en": null }, "geometry": { "type": "Point", "coordinates": [ 72.8555458, 19.0595397 ] } },
{ "type": "Feature", "properties": { "element": "node", "id": 12307063893, "name": null, "railway": "subway_entrance", "ref": null, "wheelchair": null, "entrance": null, "name:hi": null, "fixme": null, "elevator": null, "stairs": null, "highway": null, "level": null, "ref:elevator": null, "capacity:persons": null, "fee": null, "maxweight": null, "access": null, "name:en": null }, "geometry": { "type": "Point", "coordinates": [ 72.8787207, 19.1082262 ] } },
{ "type": "Feature", "properties": { "element": "node", "id": 12307063898, "name": "Gate 5 Entry", "railway": "subway_entrance", "ref": "5", "wheelchair": null, "entrance": null, "name:hi": null, "fixme": null, "elevator": null, "stairs": null, "highway": null, "level": null, "ref:elevator": null, "capacity:persons": null, "fee": null, "maxweight": null, "access": null, "name:en": null }, "geometry": { "type": "Point", "coordinates": [ 72.8787803, 19.1082341 ] } },
{ "type": "Feature", "properties": { "element": "node", "id": 12307114402, "name": "Exit Gate 4 To Aqua Line", "railway": "subway_entrance", "ref": "4", "wheelchair": null, "entrance": null, "name:hi": null, "fixme": null, "elevator": null, "stairs": null, "highway": null, "level": null, "ref:elevator": null, "capacity:persons": null, "fee": null, "maxweight": null, "access": null, "name:en": null }, "geometry": { "type": "Point", "coordinates": [ 72.8792909, 19.1080618 ] } },
{ "type": "Feature", "properties": { "element": "node", "id": 12307248578, "name": "A1", "railway": "subway_entrance", "ref": null, "wheelchair": null, "entrance": null, "name:hi": null, "fixme": null, "elevator": null, "stairs": null, "highway": null, "level": null, "ref:elevator": null, "capacity:persons": null, "fee": null, "maxweight": null, "access": null, "name:en": null }, "geometry": { "type": "Point", "coordinates": [ 72.8842723, 19.1305998 ] } },
{ "type": "Feature", "properties": { "element": "node", "id": 12311587233, "name": "Gate 2B", "railway": "subway_entrance", "ref": null, "wheelchair": null, "entrance": null, "name:hi": null, "fixme": null, "elevator": null, "stairs": null, "highway": null, "level": null, "ref:elevator": null, "capacity:persons": null, "fee": null, "maxweight": null, "access": null, "name:en": null }, "geometry": { "type": "Point", "coordinates": [ 72.9085969, 19.0862402 ] } },
{ "type": "Feature", "properties": { "element": "node", "id": 12311587236, "name": "Gate 2A", "railway": "subway_entrance", "ref": null, "wheelchair": null, "entrance": null, "name:hi": null, "fixme": null, "elevator": null, "stairs": null, "highway": null, "level": null, "ref:elevator": null, "capacity:persons": null, "fee": null, "maxweight": null, "access": null, "name:en": null }, "geometry": { "type": "Point", "coordinates": [ 72.908531, 19.0863177 ] } },
{ "type": "Feature", "properties": { "element": "node", "id": 12311733716, "name": "Gate 4", "railway": "subway_entrance", "ref": null, "wheelchair": null, "entrance": null, "name:hi": null, "fixme": null, "elevator": null, "stairs": null, "highway": null, "level": null, "ref:elevator": null, "capacity:persons": null, "fee": null, "maxweight": null, "access": null, "name:en": null }, "geometry": { "type": "Point", "coordinates": [ 72.9079302, 19.0869299 ] } },
{ "type": "Feature", "properties": { "element": "node", "id": 12311733717, "name": "Gate 1B", "railway": "subway_entrance", "ref": null, "wheelchair": null, "entrance": null, "name:hi": null, "fixme": null, "elevator": null, "stairs": null, "highway": null, "level": null, "ref:elevator": null, "capacity:persons": null, "fee": null, "maxweight": null, "access": null, "name:en": null }, "geometry": { "type": "Point", "coordinates": [ 72.9079261, 19.087286 ] } },
{ "type": "Feature", "properties": { "element": "node", "id": 12311733718, "name": "Gate 1A", "railway": "subway_entrance", "ref": null, "wheelchair": null, "entrance": null, "name:hi": null, "fixme": null, "elevator": null, "stairs": null, "highway": null, "level": null, "ref:elevator": null, "capacity:persons": null, "fee": null, "maxweight": null, "access": null, "name:en": null }, "geometry": { "type": "Point", "coordinates": [ 72.9081742, 19.0871783 ] } },
{ "type": "Feature", "properties": { "element": "node", "id": 12317694541, "name": "Gate No.3", "railway": "subway_entrance", "ref": "3", "wheelchair": "no", "entrance": null, "name:hi": null, "fixme": null, "elevator": null, "stairs": null, "highway": null, "level": null, "ref:elevator": null, "capacity:persons": null, "fee": null, "maxweight": null, "access": null, "name:en": null }, "geometry": { "type": "Point", "coordinates": [ 72.8309311, 19.1282811 ] } },
{ "type": "Feature", "properties": { "element": "node", "id": 12317694543, "name": "Gate No.2", "railway": "subway_entrance", "ref": "2", "wheelchair": "no", "entrance": null, "name:hi": null, "fixme": null, "elevator": null, "stairs": null, "highway": null, "level": null, "ref:elevator": null, "capacity:persons": null, "fee": null, "maxweight": null, "access": null, "name:en": null }, "geometry": { "type": "Point", "coordinates": [ 72.8301819, 19.1284264 ] } },
{ "type": "Feature", "properties": { "element": "node", "id": 12317694545, "name": "Gate No.1", "railway": "subway_entrance", "ref": "1", "wheelchair": "no", "entrance": null, "name:hi": null, "fixme": null, "elevator": null, "stairs": null, "highway": null, "level": null, "ref:elevator": null, "capacity:persons": null, "fee": null, "maxweight": null, "access": null, "name:en": null }, "geometry": { "type": "Point", "coordinates": [ 72.829385, 19.1286085 ] } },
{ "type": "Feature", "properties": { "element": "node", "id": 12317694546, "name": null, "railway": "subway_entrance", "ref": null, "wheelchair": "yes", "entrance": null, "name:hi": null, "fixme": null, "elevator": null, "stairs": null, "highway": "elevator", "level": "0;1", "ref:elevator": null, "capacity:persons": null, "fee": null, "maxweight": null, "access": null, "name:en": null }, "geometry": { "type": "Point", "coordinates": [ 72.8298368, 19.1282709 ] } },
{ "type": "Feature", "properties": { "element": "node", "id": 12317694549, "name": null, "railway": "subway_entrance", "ref": null, "wheelchair": "yes", "entrance": null, "name:hi": null, "fixme": null, "elevator": null, "stairs": null, "highway": "elevator", "level": "0;1", "ref:elevator": null, "capacity:persons": null, "fee": null, "maxweight": null, "access": null, "name:en": null }, "geometry": { "type": "Point", "coordinates": [ 72.830744, 19.1282721 ] } },
{ "type": "Feature", "properties": { "element": "node", "id": 12696004072, "name": "A2", "railway": "subway_entrance", "ref": null, "wheelchair": "yes", "entrance": null, "name:hi": null, "fixme": null, "elevator": null, "stairs": null, "highway": null, "level": null, "ref:elevator": null, "capacity:persons": null, "fee": null, "maxweight": null, "access": null, "name:en": null }, "geometry": { "type": "Point", "coordinates": [ 72.8555107, 19.059912 ] } },
{ "type": "Feature", "properties": { "element": "node", "id": 12696004073, "name": "B1", "railway": "subway_entrance", "ref": null, "wheelchair": null, "entrance": null, "name:hi": null, "fixme": null, "elevator": null, "stairs": null, "highway": null, "level": null, "ref:elevator": null, "capacity:persons": null, "fee": null, "maxweight": null, "access": null, "name:en": null }, "geometry": { "type": "Point", "coordinates": [ 72.8537407, 19.0616001 ] } },
{ "type": "Feature", "properties": { "element": "node", "id": 12896168751, "name": null, "railway": "subway_entrance", "ref": "A-2", "wheelchair": null, "entrance": null, "name:hi": null, "fixme": null, "elevator": null, "stairs": null, "highway": null, "level": null, "ref:elevator": null, "capacity:persons": null, "fee": null, "maxweight": null, "access": null, "name:en": null }, "geometry": { "type": "Point", "coordinates": [ 72.8782965, 19.1083961 ] } },
{ "type": "Feature", "properties": { "element": "node", "id": 12917242605, "name": "A4", "railway": "subway_entrance", "ref": null, "wheelchair": null, "entrance": null, "name:hi": null, "fixme": null, "elevator": null, "stairs": null, "highway": null, "level": null, "ref:elevator": null, "capacity:persons": null, "fee": null, "maxweight": null, "access": null, "name:en": null }, "geometry": { "type": "Point", "coordinates": [ 72.8188449, 18.9960794 ] } },
{ "type": "Feature", "properties": { "element": "node", "id": 12946862339, "name": "Chhatrapati Shivaji Maharaj International Airport - T1", "railway": "subway_entrance", "ref": "A1", "wheelchair": null, "entrance": null, "name:hi": null, "fixme": null, "elevator": null, "stairs": null, "highway": null, "level": null, "ref:elevator": null, "capacity:persons": null, "fee": null, "maxweight": null, "access": null, "name:en": null }, "geometry": { "type": "Point", "coordinates": [ 72.8537164, 19.0935397 ] } },
{ "type": "Feature", "properties": { "element": "node", "id": 12946893142, "name": "Andheri (West)", "railway": "subway_entrance", "ref": "A1", "wheelchair": "no", "entrance": null, "name:hi": null, "fixme": null, "elevator": null, "stairs": null, "highway": null, "level": null, "ref:elevator": null, "capacity:persons": null, "fee": null, "maxweight": null, "access": null, "name:en": null }, "geometry": { "type": "Point", "coordinates": [ 72.8314069, 19.1302975 ] } },
{ "type": "Feature", "properties": { "element": "node", "id": 13237759050, "name": "A2", "railway": "subway_entrance", "ref": "A2", "wheelchair": "no", "entrance": null, "name:hi": null, "fixme": null, "elevator": null, "stairs": null, "highway": null, "level": null, "ref:elevator": null, "capacity:persons": null, "fee": null, "maxweight": null, "access": null, "name:en": null }, "geometry": { "type": "Point", "coordinates": [ 72.8423865, 19.0373412 ] } },
{ "type": "Feature", "properties": { "element": "node", "id": 13237759055, "name": "B3", "railway": "subway_entrance", "ref": "B3", "wheelchair": "no", "entrance": null, "name:hi": null, "fixme": null, "elevator": null, "stairs": null, "highway": null, "level": null, "ref:elevator": null, "capacity:persons": null, "fee": null, "maxweight": null, "access": null, "name:en": null }, "geometry": { "type": "Point", "coordinates": [ 72.8420954, 19.0385802 ] } },
{ "type": "Feature", "properties": { "element": "node", "id": 13237759056, "name": "B2", "railway": "subway_entrance", "ref": "B2", "wheelchair": null, "entrance": null, "name:hi": null, "fixme": null, "elevator": null, "stairs": null, "highway": null, "level": null, "ref:elevator": null, "capacity:persons": null, "fee": null, "maxweight": null, "access": null, "name:en": null }, "geometry": { "type": "Point", "coordinates": [ 72.8416651, 19.0393932 ] } },
{ "type": "Feature", "properties": { "element": "node", "id": 13237759057, "name": "B1", "railway": "subway_entrance", "ref": "B1", "wheelchair": null, "entrance": null, "name:hi": null, "fixme": null, "elevator": null, "stairs": null, "highway": null, "level": null, "ref:elevator": null, "capacity:persons": null, "fee": null, "maxweight": null, "access": null, "name:en": null }, "geometry": { "type": "Point", "coordinates": [ 72.8418103, 19.03884 ] } },
{ "type": "Feature", "properties": { "element": "node", "id": 13237759058, "name": "A1", "railway": "subway_entrance", "ref": "A1", "wheelchair": null, "entrance": null, "name:hi": null, "fixme": null, "elevator": null, "stairs": null, "highway": null, "level": null, "ref:elevator": null, "capacity:persons": null, "fee": null, "maxweight": null, "access": null, "name:en": null }, "geometry": { "type": "Point", "coordinates": [ 72.8420336, 19.0378742 ] } },
{ "type": "Feature", "properties": { "element": "node", "id": 13238072458, "name": "B1", "railway": "subway_entrance", "ref": "B1", "wheelchair": "no", "entrance": null, "name:hi": null, "fixme": null, "elevator": null, "stairs": null, "highway": null, "level": null, "ref:elevator": null, "capacity:persons": null, "fee": null, "maxweight": null, "access": null, "name:en": null }, "geometry": { "type": "Point", "coordinates": [ 72.8471866, 19.079983 ] } },
{ "type": "Feature", "properties": { "element": "node", "id": 13238072459, "name": "B1", "railway": "subway_entrance", "ref": "B1", "wheelchair": "yes", "entrance": null, "name:hi": null, "fixme": "Has wheelchair ramps leading up to it from the sidewalk. No idea how to map that since a separate sidewalk doesn't exist and if I try to add it routing is broken and to fix it I can only think of adding separate sidewalk mapping but that's overkill.", "elevator": null, "stairs": null, "highway": "elevator", "level": null, "ref:elevator": null, "capacity:persons": null, "fee": null, "maxweight": null, "access": null, "name:en": null }, "geometry": { "type": "Point", "coordinates": [ 72.8471449, 19.0796033 ] } },
{ "type": "Feature", "properties": { "element": "node", "id": 13238072460, "name": "B2", "railway": "subway_entrance", "ref": "B2", "wheelchair": "no", "entrance": null, "name:hi": null, "fixme": null, "elevator": null, "stairs": null, "highway": null, "level": null, "ref:elevator": null, "capacity:persons": null, "fee": null, "maxweight": null, "access": null, "name:en": null }, "geometry": { "type": "Point", "coordinates": [ 72.8466405, 19.0796626 ] } },
{ "type": "Feature", "properties": { "element": "node", "id": 13238072461, "name": "B2", "railway": "subway_entrance", "ref": "B2", "wheelchair": "yes", "entrance": null, "name:hi": null, "fixme": "Has wheelchair ramps leading up to it from the sidewalk. No idea how to map that since a separate sidewalk doesn't exist and if I try to add it routing is broken and to fix it I can only think of adding separate sidewalk mapping but that's overkill.", "elevator": null, "stairs": null, "highway": "elevator", "level": null, "ref:elevator": null, "capacity:persons": null, "fee": null, "maxweight": null, "access": null, "name:en": null }, "geometry": { "type": "Point", "coordinates": [ 72.8466068, 19.079043 ] } },
{ "type": "Feature", "properties": { "element": "node", "id": 13238072462, "name": "A2", "railway": "subway_entrance", "ref": "A2", "wheelchair": "no", "entrance": null, "name:hi": null, "fixme": null, "elevator": null, "stairs": null, "highway": null, "level": null, "ref:elevator": null, "capacity:persons": null, "fee": null, "maxweight": null, "access": null, "name:en": null }, "geometry": { "type": "Point", "coordinates": [ 72.8465612, 19.0774524 ] } },
{ "type": "Feature", "properties": { "element": "node", "id": 13238072463, "name": "A2", "railway": "subway_entrance", "ref": "A2", "wheelchair": "yes", "entrance": null, "name:hi": null, "fixme": "Has wheelchair ramps leading up to it from the sidewalk. No idea how to map that since a separate sidewalk doesn't exist and if I try to add it routing is broken and to fix it I can only think of adding separate sidewalk mapping but that's overkill.", "elevator": null, "stairs": null, "highway": "elevator", "level": null, "ref:elevator": null, "capacity:persons": null, "fee": null, "maxweight": null, "access": null, "name:en": null }, "geometry": { "type": "Point", "coordinates": [ 72.8465818, 19.0778938 ] } },
{ "type": "Feature", "properties": { "element": "node", "id": 13238072464, "name": "A1", "railway": "subway_entrance", "ref": "A1", "wheelchair": "yes", "entrance": null, "name:hi": null, "fixme": "Has wheelchair ramps leading up to it from the sidewalk. No idea how to map that since a separate sidewalk doesn't exist and if I try to add it routing is broken and to fix it I can only think of adding separate sidewalk mapping but that's overkill.", "elevator": null, "stairs": null, "highway": "elevator", "level": null, "ref:elevator": null, "capacity:persons": null, "fee": null, "maxweight": null, "access": null, "name:en": null }, "geometry": { "type": "Point", "coordinates": [ 72.8470977, 19.0774425 ] } },
{ "type": "Feature", "properties": { "element": "node", "id": 13238072465, "name": "A1", "railway": "subway_entrance", "ref": "A1", "wheelchair": "no", "entrance": null, "name:hi": null, "fixme": null, "elevator": null, "stairs": null, "highway": null, "level": null, "ref:elevator": null, "capacity:persons": null, "fee": null, "maxweight": null, "access": null, "name:en": null }, "geometry": { "type": "Point", "coordinates": [ 72.8470839, 19.0770616 ] } },
{ "type": "Feature", "properties": { "element": "node", "id": 13238493324, "name": "Lower Oshiwara", "railway": "subway_entrance", "ref": "B1", "wheelchair": "no", "entrance": null, "name:hi": "लोअर ओशिवारा", "fixme": null, "elevator": null, "stairs": null, "highway": null, "level": null, "ref:elevator": null, "capacity:persons": null, "fee": null, "maxweight": null, "access": null, "name:en": null }, "geometry": { "type": "Point", "coordinates": [ 72.8315679, 19.1397952 ] } },
{ "type": "Feature", "properties": { "element": "node", "id": 13238493326, "name": "Lower Oshiwara", "railway": "subway_entrance", "ref": "B2", "wheelchair": "no", "entrance": null, "name:hi": "लोअर ओशिवारा", "fixme": null, "elevator": null, "stairs": null, "highway": null, "level": null, "ref:elevator": null, "capacity:persons": null, "fee": null, "maxweight": null, "access": null, "name:en": null }, "geometry": { "type": "Point", "coordinates": [ 72.8318365, 19.1397124 ] } },
{ "type": "Feature", "properties": { "element": "node", "id": 13238493339, "name": "Lower Oshiwara", "railway": "subway_entrance", "ref": "B2", "wheelchair": "yes", "entrance": null, "name:hi": "लोअर ओशिवारा", "fixme": null, "elevator": null, "stairs": null, "highway": "elevator", "level": "0;1", "ref:elevator": "4", "capacity:persons": null, "fee": null, "maxweight": null, "access": null, "name:en": null }, "geometry": { "type": "Point", "coordinates": [ 72.8318459, 19.1401805 ] } },
{ "type": "Feature", "properties": { "element": "node", "id": 13238493340, "name": "Oshiwara", "railway": "subway_entrance", "ref": "B2", "wheelchair": "yes", "entrance": null, "name:hi": null, "fixme": null, "elevator": null, "stairs": null, "highway": "elevator", "level": "0;1", "ref:elevator": null, "capacity:persons": "13", "fee": "no", "maxweight": "1000kg", "access": null, "name:en": null }, "geometry": { "type": "Point", "coordinates": [ 72.8333322, 19.1458546 ] } },
{ "type": "Feature", "properties": { "element": "node", "id": 13240659433, "name": "Versova", "railway": "subway_entrance", "ref": "5", "wheelchair": "no", "entrance": "yes", "name:hi": "वर्सोवा", "fixme": null, "elevator": null, "stairs": null, "highway": null, "level": "0", "ref:elevator": null, "capacity:persons": null, "fee": null, "maxweight": null, "access": null, "name:en": null }, "geometry": { "type": "Point", "coordinates": [ 72.8220013, 19.1299399 ] } },
{ "type": "Feature", "properties": { "element": "node", "id": 13240733188, "name": "Versova", "railway": "subway_entrance", "ref": "4", "wheelchair": "no", "entrance": "yes", "name:hi": "वर्सोवा", "fixme": null, "elevator": null, "stairs": null, "highway": null, "level": "0", "ref:elevator": null, "capacity:persons": null, "fee": null, "maxweight": null, "access": null, "name:en": null }, "geometry": { "type": "Point", "coordinates": [ 72.8220097, 19.1299753 ] } },
{ "type": "Feature", "properties": { "element": "node", "id": 13240733191, "name": "Versova", "railway": "subway_entrance", "ref": "2", "wheelchair": null, "entrance": "yes", "name:hi": "वर्सोवा", "fixme": null, "elevator": null, "stairs": null, "highway": null, "level": null, "ref:elevator": null, "capacity:persons": null, "fee": null, "maxweight": null, "access": null, "name:en": null }, "geometry": { "type": "Point", "coordinates": [ 72.8215985, 19.1303522 ] } },
{ "type": "Feature", "properties": { "element": "node", "id": 13381178009, "name": "Marol Naka", "railway": "subway_entrance", "ref": "2", "wheelchair": "no", "entrance": "yes", "name:hi": "मरोल नाका", "fixme": null, "elevator": null, "stairs": null, "highway": null, "level": null, "ref:elevator": null, "capacity:persons": null, "fee": null, "maxweight": null, "access": "yes", "name:en": null }, "geometry": { "type": "Point", "coordinates": [ 72.8801896, 19.1080911 ] } },
{ "type": "Feature", "properties": { "element": "node", "id": 13382963172, "name": null, "railway": "subway_entrance", "ref": "A", "wheelchair": "no", "entrance": null, "name:hi": null, "fixme": null, "elevator": null, "stairs": null, "highway": null, "level": null, "ref:elevator": null, "capacity:persons": null, "fee": null, "maxweight": null, "access": null, "name:en": null }, "geometry": { "type": "Point", "coordinates": [ 72.8587723, 19.1705505 ] } },
{ "type": "Feature", "properties": { "element": "node", "id": 13382963174, "name": null, "railway": "subway_entrance", "ref": "B", "wheelchair": "no", "entrance": null, "name:hi": null, "fixme": null, "elevator": null, "stairs": null, "highway": null, "level": "0", "ref:elevator": null, "capacity:persons": null, "fee": null, "maxweight": null, "access": null, "name:en": null }, "geometry": { "type": "Point", "coordinates": [ 72.8586571, 19.1691327 ] } },
{ "type": "Feature", "properties": { "element": "node", "id": 13387660175, "name": null, "railway": "subway_entrance", "ref": "B", "wheelchair": null, "entrance": null, "name:hi": null, "fixme": null, "elevator": null, "stairs": null, "highway": null, "level": null, "ref:elevator": null, "capacity:persons": null, "fee": null, "maxweight": null, "access": null, "name:en": null }, "geometry": { "type": "Point", "coordinates": [ 72.8629565, 19.2343487 ] } },
{ "type": "Feature", "properties": { "element": "node", "id": 13420305654, "name": null, "railway": "subway_entrance", "ref": null, "wheelchair": null, "entrance": null, "name:hi": null, "fixme": null, "elevator": null, "stairs": null, "highway": null, "level": null, "ref:elevator": null, "capacity:persons": null, "fee": null, "maxweight": null, "access": null, "name:en": null }, "geometry": { "type": "Point", "coordinates": [ 72.8210086, 18.9913916 ] } },
{ "type": "Feature", "properties": { "element": "node", "id": 13464335937, "name": "Hutatma Chowk Metro B2 (Lift)", "railway": "subway_entrance", "ref": null, "wheelchair": null, "entrance": null, "name:hi": null, "fixme": null, "elevator": null, "stairs": null, "highway": null, "level": null, "ref:elevator": null, "capacity:persons": null, "fee": null, "maxweight": null, "access": null, "name:en": "Hutatma Chowk Metro B2 (Lift)" }, "geometry": { "type": "Point", "coordinates": [ 72.832746, 18.9346714 ] } },
{ "type": "Feature", "properties": { "element": "node", "id": 13470129555, "name": null, "railway": "subway_entrance", "ref": null, "wheelchair": "no", "entrance": null, "name:hi": null, "fixme": null, "elevator": null, "stairs": null, "highway": null, "level": null, "ref:elevator": null, "capacity:persons": null, "fee": null, "maxweight": null, "access": null, "name:en": null }, "geometry": { "type": "Point", "coordinates": [ 72.8283534, 18.9330035 ] } },
{ "type": "Feature", "properties": { "element": "node", "id": 13470129587, "name": null, "railway": "subway_entrance", "ref": null, "wheelchair": null, "entrance": null, "name:hi": null, "fixme": null, "elevator": null, "stairs": null, "highway": null, "level": null, "ref:elevator": null, "capacity:persons": null, "fee": null, "maxweight": null, "access": null, "name:en": null }, "geometry": { "type": "Point", "coordinates": [ 72.8278034, 18.933298 ] } },
{ "type": "Feature", "properties": { "element": "node", "id": 13471766151, "name": "Churchgate Metro A2", "railway": "subway_entrance", "ref": null, "wheelchair": null, "entrance": null, "name:hi": null, "fixme": null, "elevator": null, "stairs": null, "highway": null, "level": null, "ref:elevator": null, "capacity:persons": null, "fee": null, "maxweight": null, "access": null, "name:en": "Churchgate Metro A2" }, "geometry": { "type": "Point", "coordinates": [ 72.8252867, 18.9297433 ] } },
{ "type": "Feature", "properties": { "element": "node", "id": 13506627012, "name": null, "railway": "subway_entrance", "ref": "A4", "wheelchair": null, "entrance": null, "name:hi": null, "fixme": null, "elevator": null, "stairs": null, "highway": null, "level": null, "ref:elevator": null, "capacity:persons": null, "fee": null, "maxweight": null, "access": null, "name:en": null }, "geometry": { "type": "Point", "coordinates": [ 72.8386258, 19.0230463 ] } },
{ "type": "Feature", "properties": { "element": "node", "id": 13507403010, "name": null, "railway": "subway_entrance", "ref": "A1", "wheelchair": "yes", "entrance": null, "name:hi": null, "fixme": null, "elevator": null, "stairs": null, "highway": "elevator", "level": null, "ref:elevator": null, "capacity:persons": null, "fee": null, "maxweight": null, "access": null, "name:en": null }, "geometry": { "type": "Point", "coordinates": [ 72.8387076, 19.0228349 ] } },
{ "type": "Feature", "properties": { "element": "node", "id": 13507403014, "name": null, "railway": "subway_entrance", "ref": "A3", "wheelchair": null, "entrance": null, "name:hi": null, "fixme": null, "elevator": null, "stairs": null, "highway": null, "level": null, "ref:elevator": null, "capacity:persons": null, "fee": null, "maxweight": null, "access": null, "name:en": null }, "geometry": { "type": "Point", "coordinates": [ 72.8383235, 19.0226962 ] } },
{ "type": "Feature", "properties": { "element": "node", "id": 13649538883, "name": "B1", "railway": "subway_entrance", "ref": null, "wheelchair": null, "entrance": null, "name:hi": null, "fixme": null, "elevator": null, "stairs": null, "highway": null, "level": null, "ref:elevator": null, "capacity:persons": null, "fee": null, "maxweight": null, "access": null, "name:en": null }, "geometry": { "type": "Point", "coordinates": [ 72.8266171, 18.947411 ] } },
{ "type": "Feature", "properties": { "element": "node", "id": 13649538896, "name": "A1", "railway": "subway_entrance", "ref": null, "wheelchair": null, "entrance": null, "name:hi": null, "fixme": null, "elevator": null, "stairs": null, "highway": null, "level": null, "ref:elevator": null, "capacity:persons": null, "fee": null, "maxweight": null, "access": null, "name:en": null }, "geometry": { "type": "Point", "coordinates": [ 72.8272498, 18.9463324 ] } }
]
}
